{
"type": "FeatureCollection",
"name": "숭실대입구(살피재)역_local_metric_nodes",
"features": [
{ "type": "Feature", "properties": { "id": "clicked_001", "kind": "route_turn", "floor": "B1", "z_m": -4.0 }, "geometry": { "type": "Point", "coordinates": [ 25.932987240548417, -53.238472413047866, -4.0 ] } },
{ "type": "Feature", "properties": { "id": "clicked_002", "kind": "route_turn", "floor": "B1", "z_m": -4.0 }, "geometry": { "type": "Point", "coordinates": [ 40.019150226361624, -60.02872533954244, -4.0 ] } },
{ "type": "Feature", "properties": { "id": "clicked_003", "kind": "hall", "floor": "B1", "z_m": -4.0 }, "geometry": { "type": "Point", "coordinates": [ 53.888603012393091, -61.834643671056952, -4.0 ] } },
{ "type": "Feature", "properties": { "id": "clicked_004", "kind": "hall", "floor": "B1", "z_m": -4.0 }, "geometry": { "type": "Point", "coordinates": [ 63.929508935613789, -61.617933471275215, -4.0 ] } },
{ "type": "Feature", "properties": { "id": "clicked_005", "kind": "route_turn", "floor": "B1", "z_m": -4.0 }, "geometry": { "type": "Point", "coordinates": [ 69.347263930157339, -57.283729475640378, -4.0 ] } },
{ "type": "Feature", "properties": { "id": "clicked_006", "kind": "route_turn", "floor": "B1", "z_m": -4.0 }, "geometry": { "type": "Point", "coordinates": [ 75.487386257306682, -52.732815280223804, -4.0 ] } },
{ "type": "Feature", "properties": { "id": "clicked_007", "kind": "route_turn", "floor": "B1", "z_m": -4.0 }, "geometry": { "type": "Point", "coordinates": [ 80.977377985110806, -48.398611284588974, -4.0 ] } },
{ "type": "Feature", "properties": { "id": "clicked_008", "kind": "hall", "floor": "B1", "z_m": -4.0 }, "geometry": { "type": "Point", "coordinates": [ 55.69452134390761, -72.092259794059387, -4.0 ] } },
{ "type": "Feature", "properties": { "id": "clicked_009", "kind": "route_turn", "floor": "B1", "z_m": -4.0 }, "geometry": { "type": "Point", "coordinates": [ 58.656227407591409, -87.550920711823636, -4.0 ] } },
{ "type": "Feature", "properties": { "id": "clicked_010", "kind": "route_turn", "floor": "B1", "z_m": -4.0 }, "geometry": { "type": "Point", "coordinates": [ 46.592692953074454, -87.76763091160538, -4.0 ] } },
{ "type": "Feature", "properties": { "id": "clicked_011", "kind": "route_turn", "floor": "B1", "z_m": -4.0 }, "geometry": { "type": "Point", "coordinates": [ 31.13403203531022, -80.760667785329062, -4.0 ] } },
{ "type": "Feature", "properties": { "id": "clicked_012", "kind": "stairs_start", "floor": "B1", "z_m": -4.0 }, "geometry": { "type": "Point", "coordinates": [ 65.302006867564828, -87.334210512041892, -4.0 ] } },
{ "type": "Feature", "properties": { "id": "clicked_013", "kind": "route_turn", "floor": "B1", "z_m": -4.0 }, "geometry": { "type": "Point", "coordinates": [ 80.543957585547318, -78.015671921427, -4.0 ] } },
{ "type": "Feature", "properties": { "id": "clicked_014", "kind": "route_turn", "floor": "B1", "z_m": -4.0 }, "geometry": { "type": "Point", "coordinates": [ 61.184513071711727, -75.270676057524938, -4.0 ] } },
{ "type": "Feature", "properties": { "id": "clicked_015", "kind": "route_turn", "floor": "B1", "z_m": -4.0 }, "geometry": { "type": "Point", "coordinates": [ 73.681467925792163, -80.543957585547318, -4.0 ] } },
{ "type": "Feature", "properties": { "id": "clicked_016", "kind": "stairs_landing", "floor": "B1-B2", "z_m": -6.0 }, "geometry": { "type": "Point", "coordinates": [ 90.079206375943954, -88.273288044429435, -6.0 ] } },
{ "type": "Feature", "properties": { "id": "clicked_017", "kind": "hall", "floor": "B2", "z_m": -8.0 }, "geometry": { "type": "Point", "coordinates": [ 111.461279421075801, -86.178422779872605, -8.0 ] } },
{ "type": "Feature", "properties": { "id": "clicked_018", "kind": "information", "floor": "B2", "z_m": -8.0 }, "geometry": { "type": "Point", "coordinates": [ 104.887736694362971, -79.388169853378031, -8.0 ] } },
{ "type": "Feature", "properties": { "id": "clicked_019", "kind": "route_turn", "floor": "B2", "z_m": -8.0 }, "geometry": { "type": "Point", "coordinates": [ 110.08878148912477, -96.002618503311552, -8.0 ] } },
{ "type": "Feature", "properties": { "id": "clicked_020", "kind": "route_turn", "floor": "B2", "z_m": -8.0 }, "geometry": { "type": "Point", "coordinates": [ 104.382079561538902, -98.025247034607816, -8.0 ] } },
{ "type": "Feature", "properties": { "id": "clicked_021", "kind": "route_turn", "floor": "B2", "z_m": -8.0 }, "geometry": { "type": "Point", "coordinates": [ 95.569198103748079, -84.155794248576342, -8.0 ] } },
{ "type": "Feature", "properties": { "id": "clicked_022", "kind": "hall", "floor": "B2", "z_m": -8.0 }, "geometry": { "type": "Point", "coordinates": [ 122.585736343205198, -84.805924847921574, -8.0 ] } },
{ "type": "Feature", "properties": { "id": "clicked_023", "kind": "route_turn", "floor": "B2", "z_m": -8.0 }, "geometry": { "type": "Point", "coordinates": [ 135.805058529891454, -83.505663649231124, -8.0 ] } },
{ "type": "Feature", "properties": { "id": "clicked_024", "kind": "stairs_start", "floor": "B2", "z_m": -8.0 }, "geometry": { "type": "Point", "coordinates": [ 137.827687061187703, -87.117500312260148, -8.0 ] } },
{ "type": "Feature", "properties": { "id": "clicked_045", "kind": "route_turn", "floor": "B2", "z_m": -8.0 }, "geometry": { "type": "Point", "coordinates": [ 131.254144334474859, -79.171459653596287, -8.0 ] } },
{ "type": "Feature", "properties": { "id": "clicked_046", "kind": "route_turn", "floor": "B2", "z_m": -8.0 }, "geometry": { "type": "Point", "coordinates": [ 98.964324566995359, -88.706708443992923, -8.0 ] } },
{ "type": "Feature", "properties": { "id": "clicked_025", "kind": "stairs_landing", "floor": "B3", "z_m": -12.0 }, "geometry": { "type": "Point", "coordinates": [ 116.951271148879911, -130.098356602305586, -12.0 ] } },
{ "type": "Feature", "properties": { "id": "clicked_026", "kind": "stairs_landing", "floor": "B3", "z_m": -12.0 }, "geometry": { "type": "Point", "coordinates": [ 110.522201888688244, -129.881646402523842, -12.0 ] } },
{ "type": "Feature", "properties": { "id": "clicked_027", "kind": "stairs_landing", "floor": "B3", "z_m": -12.0 }, "geometry": { "type": "Point", "coordinates": [ 110.3054916889065, -126.703230139058292, -12.0 ] } },
{ "type": "Feature", "properties": { "id": "clicked_028", "kind": "elevator_landing", "floor": "B4", "z_m": -16.0 }, "geometry": { "type": "Point", "coordinates": [ 126.269809739494804, -123.741524075374485, -16.0 ] } },
{ "type": "Feature", "properties": { "id": "clicked_029", "kind": "stairs_landing", "floor": "B4", "z_m": -16.0 }, "geometry": { "type": "Point", "coordinates": [ 131.976511667080672, -117.601401748225143, -16.0 ] } },
{ "type": "Feature", "properties": { "id": "clicked_031", "kind": "stairs_landing", "floor": "B4", "z_m": -16.0 }, "geometry": { "type": "Point", "coordinates": [ 128.509148470572796, -128.72585867035454, -16.0 ] } },
{ "type": "Feature", "properties": { "id": "clicked_032", "kind": "stairs_landing", "floor": "B4", "z_m": -16.0 }, "geometry": { "type": "Point", "coordinates": [ 139.416895192920464, -127.642307671445835, -16.0 ] } },
{ "type": "Feature", "properties": { "id": "clicked_043", "kind": "stairs_landing", "floor": "B3-B4", "z_m": -14.0 }, "geometry": { "type": "Point", "coordinates": [ 109.438650889779538, -121.935605743859981, -14.0 ] } },
{ "type": "Feature", "properties": { "id": "clicked_044", "kind": "stairs_landing", "floor": "B3-B4", "z_m": -14.0 }, "geometry": { "type": "Point", "coordinates": [ 121.213238411254167, -118.540479280612686, -14.0 ] } },
{ "type": "Feature", "properties": { "id": "clicked_033", "kind": "elevator", "floor": "B5", "z_m": -20.0 }, "geometry": { "type": "Point", "coordinates": [ 153.069637779170193, -151.263719447655689, -20.0 ] } },
{ "type": "Feature", "properties": { "id": "clicked_034", "kind": "route_turn", "floor": "B5", "z_m": -20.0 }, "geometry": { "type": "Point", "coordinates": [ 145.123597120506332, -141.945180857040782, -20.0 ] } },
{ "type": "Feature", "properties": { "id": "clicked_035", "kind": "stairs_end", "floor": "B5", "z_m": -20.0 }, "geometry": { "type": "Point", "coordinates": [ 110.08878148912477, -144.4734665211611, -20.0 ] } },
{ "type": "Feature", "properties": { "id": "clicked_036", "kind": "route_turn", "floor": "B5", "z_m": -20.0 }, "geometry": { "type": "Point", "coordinates": [ 116.228903816274112, -155.381213243508768, -20.0 ] } },
{ "type": "Feature", "properties": { "id": "clicked_037", "kind": "platform", "floor": "B6", "z_m": -24.0 }, "geometry": { "type": "Point", "coordinates": [ 61.617933471275215, -160.871204971312892, -24.0 ] } },
{ "type": "Feature", "properties": { "id": "clicked_038", "kind": "platform_turn", "floor": "B6", "z_m": -24.0 }, "geometry": { "type": "Point", "coordinates": [ 55.477811144125866, -154.225425511339495, -24.0 ] } },
{ "type": "Feature", "properties": { "id": "clicked_039", "kind": "route_turn", "floor": "B5", "z_m": -20.0 }, "geometry": { "type": "Point", "coordinates": [ 152.636217379606705, -139.922552325744533, -20.0 ] } },
{ "type": "Feature", "properties": { "id": "clicked_040", "kind": "route_turn", "floor": "B5", "z_m": -20.0 }, "geometry": { "type": "Point", "coordinates": [ 159.932127438925335, -152.202796980043217, -20.0 ] } },
{ "type": "Feature", "properties": { "id": "clicked_041", "kind": "platform", "floor": "B6", "z_m": -24.0 }, "geometry": { "type": "Point", "coordinates": [ 197.711938934208973, -143.967809388337059, -24.0 ] } },
{ "type": "Feature", "properties": { "id": "clicked_042", "kind": "platform_turn", "floor": "B6", "z_m": -24.0 }, "geometry": { "type": "Point", "coordinates": [ 191.355106407277901, -137.177556461842471, -24.0 ] } }
]
}
