{
"type": "FeatureCollection",
"name": "숭실대입구(살피재)역_local_metric_edges",
"features": [
{ "type": "Feature", "properties": { "from_id": "clicked_001", "to_id": "clicked_002", "kind": "walk", "distance_2d_m": 15.637375817849431, "distance_3d_m": 15.637375817849431, "cost_m": 15.637375817849431 }, "geometry": { "type": "LineString", "coordinates": [ [ 25.932987240548417, -53.238472413047866, -4.0 ], [ 40.019150226361624, -60.02872533954244, -4.0 ] ] } },
{ "type": "Feature", "properties": { "from_id": "clicked_002", "to_id": "clicked_003", "kind": "walk", "distance_2d_m": 13.986531435779787, "distance_3d_m": 13.986531435779787, "cost_m": 13.986531435779787 }, "geometry": { "type": "LineString", "coordinates": [ [ 40.019150226361624, -60.02872533954244, -4.0 ], [ 53.888603012393091, -61.834643671056952, -4.0 ] ] } },
{ "type": "Feature", "properties": { "from_id": "clicked_003", "to_id": "clicked_004", "kind": "walk", "distance_2d_m": 10.043244250224026, "distance_3d_m": 10.043244250224026, "cost_m": 10.043244250224026 }, "geometry": { "type": "LineString", "coordinates": [ [ 53.888603012393091, -61.834643671056952, -4.0 ], [ 63.929508935613789, -61.617933471275215, -4.0 ] ] } },
{ "type": "Feature", "properties": { "from_id": "clicked_004", "to_id": "clicked_005", "kind": "walk", "distance_2d_m": 6.938111663606934, "distance_3d_m": 6.938111663606934, "cost_m": 6.938111663606934 }, "geometry": { "type": "LineString", "coordinates": [ [ 63.929508935613789, -61.617933471275215, -4.0 ], [ 69.347263930157339, -57.283729475640378, -4.0 ] ] } },
{ "type": "Feature", "properties": { "from_id": "clicked_005", "to_id": "clicked_006", "kind": "walk", "distance_2d_m": 7.6427692760152022, "distance_3d_m": 7.6427692760152022, "cost_m": 7.6427692760152022 }, "geometry": { "type": "LineString", "coordinates": [ [ 69.347263930157339, -57.283729475640378, -4.0 ], [ 75.487386257306682, -52.732815280223804, -4.0 ] ] } },
{ "type": "Feature", "properties": { "from_id": "clicked_006", "to_id": "clicked_007", "kind": "walk", "distance_2d_m": 6.9946646415060272, "distance_3d_m": 6.9946646415060272, "cost_m": 6.9946646415060272 }, "geometry": { "type": "LineString", "coordinates": [ [ 75.487386257306682, -52.732815280223804, -4.0 ], [ 80.977377985110806, -48.398611284588974, -4.0 ] ] } },
{ "type": "Feature", "properties": { "from_id": "clicked_011", "to_id": "clicked_010", "kind": "walk", "distance_2d_m": 16.97255813433577, "distance_3d_m": 16.97255813433577, "cost_m": 16.97255813433577 }, "geometry": { "type": "LineString", "coordinates": [ [ 31.13403203531022, -80.760667785329062, -4.0 ], [ 46.592692953074454, -87.76763091160538, -4.0 ] ] } },
{ "type": "Feature", "properties": { "from_id": "clicked_010", "to_id": "clicked_009", "kind": "walk", "distance_2d_m": 12.065480796305099, "distance_3d_m": 12.065480796305099, "cost_m": 12.065480796305099 }, "geometry": { "type": "LineString", "coordinates": [ [ 46.592692953074454, -87.76763091160538, -4.0 ], [ 58.656227407591409, -87.550920711823636, -4.0 ] ] } },
{ "type": "Feature", "properties": { "from_id": "clicked_009", "to_id": "clicked_012", "kind": "walk", "distance_2d_m": 6.6493118396789024, "distance_3d_m": 6.6493118396789024, "cost_m": 6.6493118396789024 }, "geometry": { "type": "LineString", "coordinates": [ [ 58.656227407591409, -87.550920711823636, -4.0 ], [ 65.302006867564828, -87.334210512041892, -4.0 ] ] } },
{ "type": "Feature", "properties": { "from_id": "clicked_003", "to_id": "clicked_008", "kind": "walk", "distance_2d_m": 10.415374671464281, "distance_3d_m": 10.415374671464281, "cost_m": 10.415374671464281 }, "geometry": { "type": "LineString", "coordinates": [ [ 53.888603012393091, -61.834643671056952, -4.0 ], [ 55.69452134390761, -72.092259794059387, -4.0 ] ] } },
{ "type": "Feature", "properties": { "from_id": "clicked_008", "to_id": "clicked_009", "kind": "walk", "distance_2d_m": 15.739818937270948, "distance_3d_m": 15.739818937270948, "cost_m": 15.739818937270948 }, "geometry": { "type": "LineString", "coordinates": [ [ 55.69452134390761, -72.092259794059387, -4.0 ], [ 58.656227407591409, -87.550920711823636, -4.0 ] ] } },
{ "type": "Feature", "properties": { "from_id": "clicked_008", "to_id": "clicked_014", "kind": "walk", "distance_2d_m": 6.3436849791915071, "distance_3d_m": 6.3436849791915071, "cost_m": 6.3436849791915071 }, "geometry": { "type": "LineString", "coordinates": [ [ 55.69452134390761, -72.092259794059387, -4.0 ], [ 61.184513071711727, -75.270676057524938, -4.0 ] ] } },
{ "type": "Feature", "properties": { "from_id": "clicked_009", "to_id": "clicked_014", "kind": "walk", "distance_2d_m": 12.537808308026889, "distance_3d_m": 12.537808308026889, "cost_m": 12.537808308026889 }, "geometry": { "type": "LineString", "coordinates": [ [ 58.656227407591409, -87.550920711823636, -4.0 ], [ 61.184513071711727, -75.270676057524938, -4.0 ] ] } },
{ "type": "Feature", "properties": { "from_id": "clicked_014", "to_id": "clicked_015", "kind": "walk", "distance_2d_m": 13.563973558611304, "distance_3d_m": 13.563973558611304, "cost_m": 13.563973558611304 }, "geometry": { "type": "LineString", "coordinates": [ [ 61.184513071711727, -75.270676057524938, -4.0 ], [ 73.681467925792163, -80.543957585547318, -4.0 ] ] } },
{ "type": "Feature", "properties": { "from_id": "clicked_015", "to_id": "clicked_016", "kind": "stairs", "distance_2d_m": 18.128110095158551, "distance_3d_m": 18.238102303205487, "cost_m": 18.238102303205487 }, "geometry": { "type": "LineString", "coordinates": [ [ 73.681467925792163, -80.543957585547318, -4.0 ], [ 90.079206375943954, -88.273288044429435, -6.0 ] ] } },
{ "type": "Feature", "properties": { "from_id": "clicked_012", "to_id": "clicked_013", "kind": "walk", "distance_2d_m": 17.864832021437703, "distance_3d_m": 17.864832021437703, "cost_m": 17.864832021437703 }, "geometry": { "type": "LineString", "coordinates": [ [ 65.302006867564828, -87.334210512041892, -4.0 ], [ 80.543957585547318, -78.015671921427, -4.0 ] ] } },
{ "type": "Feature", "properties": { "from_id": "clicked_016", "to_id": "clicked_046", "kind": "stairs", "distance_2d_m": 8.895683139124861, "distance_3d_m": 9.1177397699051692, "cost_m": 9.1177397699051692 }, "geometry": { "type": "LineString", "coordinates": [ [ 90.079206375943954, -88.273288044429435, -6.0 ], [ 98.964324566995359, -88.706708443992923, -8.0 ] ] } },
{ "type": "Feature", "properties": { "from_id": "clicked_046", "to_id": "clicked_021", "kind": "walk", "distance_2d_m": 5.6778256151000388, "distance_3d_m": 5.6778256151000388, "cost_m": 5.6778256151000388 }, "geometry": { "type": "LineString", "coordinates": [ [ 98.964324566995359, -88.706708443992923, -8.0 ], [ 95.569198103748079, -84.155794248576342, -8.0 ] ] } },
{ "type": "Feature", "properties": { "from_id": "clicked_046", "to_id": "clicked_020", "kind": "walk", "distance_2d_m": 10.779018074281186, "distance_3d_m": 10.779018074281186, "cost_m": 10.779018074281186 }, "geometry": { "type": "LineString", "coordinates": [ [ 98.964324566995359, -88.706708443992923, -8.0 ], [ 104.382079561538902, -98.025247034607816, -8.0 ] ] } },
{ "type": "Feature", "properties": { "from_id": "clicked_046", "to_id": "clicked_019", "kind": "walk", "distance_2d_m": 13.303527554975023, "distance_3d_m": 13.303527554975023, "cost_m": 13.303527554975023 }, "geometry": { "type": "LineString", "coordinates": [ [ 98.964324566995359, -88.706708443992923, -8.0 ], [ 110.08878148912477, -96.002618503311552, -8.0 ] ] } },
{ "type": "Feature", "properties": { "from_id": "clicked_021", "to_id": "clicked_017", "kind": "walk", "distance_2d_m": 16.020276987997757, "distance_3d_m": 16.020276987997757, "cost_m": 16.020276987997757 }, "geometry": { "type": "LineString", "coordinates": [ [ 95.569198103748079, -84.155794248576342, -8.0 ], [ 111.461279421075801, -86.178422779872605, -8.0 ] ] } },
{ "type": "Feature", "properties": { "from_id": "clicked_017", "to_id": "clicked_022", "kind": "walk", "distance_2d_m": 11.208804235310852, "distance_3d_m": 11.208804235310852, "cost_m": 11.208804235310852 }, "geometry": { "type": "LineString", "coordinates": [ [ 111.461279421075801, -86.178422779872605, -8.0 ], [ 122.585736343205198, -84.805924847921574, -8.0 ] ] } },
{ "type": "Feature", "properties": { "from_id": "clicked_017", "to_id": "clicked_018", "kind": "walk", "distance_2d_m": 9.450872911307572, "distance_3d_m": 9.450872911307572, "cost_m": 9.450872911307572 }, "geometry": { "type": "LineString", "coordinates": [ [ 111.461279421075801, -86.178422779872605, -8.0 ], [ 104.887736694362971, -79.388169853378031, -8.0 ] ] } },
{ "type": "Feature", "properties": { "from_id": "clicked_017", "to_id": "clicked_019", "kind": "walk", "distance_2d_m": 9.9196054450590907, "distance_3d_m": 9.9196054450590907, "cost_m": 9.9196054450590907 }, "geometry": { "type": "LineString", "coordinates": [ [ 111.461279421075801, -86.178422779872605, -8.0 ], [ 110.08878148912477, -96.002618503311552, -8.0 ] ] } },
{ "type": "Feature", "properties": { "from_id": "clicked_022", "to_id": "clicked_045", "kind": "walk", "distance_2d_m": 10.338689236512083, "distance_3d_m": 10.338689236512083, "cost_m": 10.338689236512083 }, "geometry": { "type": "LineString", "coordinates": [ [ 122.585736343205198, -84.805924847921574, -8.0 ], [ 131.254144334474859, -79.171459653596287, -8.0 ] ] } },
{ "type": "Feature", "properties": { "from_id": "clicked_022", "to_id": "clicked_023", "kind": "walk", "distance_2d_m": 13.283115532894962, "distance_3d_m": 13.283115532894962, "cost_m": 13.283115532894962 }, "geometry": { "type": "LineString", "coordinates": [ [ 122.585736343205198, -84.805924847921574, -8.0 ], [ 135.805058529891454, -83.505663649231124, -8.0 ] ] } },
{ "type": "Feature", "properties": { "from_id": "clicked_022", "to_id": "clicked_024", "kind": "walk", "distance_2d_m": 15.41623958093346, "distance_3d_m": 15.41623958093346, "cost_m": 15.41623958093346 }, "geometry": { "type": "LineString", "coordinates": [ [ 122.585736343205198, -84.805924847921574, -8.0 ], [ 137.827687061187703, -87.117500312260148, -8.0 ] ] } },
{ "type": "Feature", "properties": { "from_id": "clicked_045", "to_id": "clicked_023", "kind": "walk", "distance_2d_m": 6.2845957936705261, "distance_3d_m": 6.2845957936705261, "cost_m": 6.2845957936705261 }, "geometry": { "type": "LineString", "coordinates": [ [ 131.254144334474859, -79.171459653596287, -8.0 ], [ 135.805058529891454, -83.505663649231124, -8.0 ] ] } },
{ "type": "Feature", "properties": { "from_id": "clicked_023", "to_id": "clicked_024", "kind": "walk", "distance_2d_m": 4.1396123316095981, "distance_3d_m": 4.1396123316095981, "cost_m": 4.1396123316095981 }, "geometry": { "type": "LineString", "coordinates": [ [ 135.805058529891454, -83.505663649231124, -8.0 ], [ 137.827687061187703, -87.117500312260148, -8.0 ] ] } },
{ "type": "Feature", "properties": { "from_id": "clicked_024", "to_id": "clicked_025", "kind": "stairs", "distance_2d_m": 47.782619735309581, "distance_3d_m": 47.949752332720095, "cost_m": 47.949752332720095 }, "geometry": { "type": "LineString", "coordinates": [ [ 137.827687061187703, -87.117500312260148, -8.0 ], [ 116.951271148879911, -130.098356602305586, -12.0 ] ] } },
{ "type": "Feature", "properties": { "from_id": "clicked_029", "to_id": "clicked_044", "kind": "stairs", "distance_2d_m": 10.804162058735752, "distance_3d_m": 10.98771667779185, "cost_m": 10.98771667779185 }, "geometry": { "type": "LineString", "coordinates": [ [ 131.976511667080672, -117.601401748225143, -16.0 ], [ 121.213238411254167, -118.540479280612686, -14.0 ] ] } },
{ "type": "Feature", "properties": { "from_id": "clicked_029", "to_id": "clicked_034", "kind": "stairs", "distance_2d_m": 27.667046051548137, "distance_3d_m": 27.954703311222698, "cost_m": 27.954703311222698 }, "geometry": { "type": "LineString", "coordinates": [ [ 131.976511667080672, -117.601401748225143, -16.0 ], [ 145.123597120506332, -141.945180857040782, -20.0 ] ] } },
{ "type": "Feature", "properties": { "from_id": "clicked_043", "to_id": "clicked_027", "kind": "stairs", "distance_2d_m": 4.845787381295338, "distance_3d_m": 5.2422948548055874, "cost_m": 5.2422948548055874 }, "geometry": { "type": "LineString", "coordinates": [ [ 109.438650889779538, -121.935605743859981, -14.0 ], [ 110.3054916889065, -126.703230139058292, -12.0 ] ] } },
{ "type": "Feature", "properties": { "from_id": "clicked_043", "to_id": "clicked_045", "kind": "walk", "distance_2d_m": 48.007165559580372, "distance_3d_m": 48.38065672420084, "cost_m": 48.38065672420084 }, "geometry": { "type": "LineString", "coordinates": [ [ 109.438650889779538, -121.935605743859981, -14.0 ], [ 131.254144334474859, -79.171459653596287, -8.0 ] ] } },
{ "type": "Feature", "properties": { "from_id": "clicked_027", "to_id": "clicked_028", "kind": "walk", "distance_2d_m": 16.236722379470585, "distance_3d_m": 16.722175505238575, "cost_m": 16.722175505238575 }, "geometry": { "type": "LineString", "coordinates": [ [ 110.3054916889065, -126.703230139058292, -12.0 ], [ 126.269809739494804, -123.741524075374485, -16.0 ] ] } },
{ "type": "Feature", "properties": { "from_id": "clicked_028", "to_id": "clicked_029", "kind": "walk", "distance_2d_m": 8.3825741322501948, "distance_3d_m": 8.3825741322501948, "cost_m": 8.3825741322501948 }, "geometry": { "type": "LineString", "coordinates": [ [ 126.269809739494804, -123.741524075374485, -16.0 ], [ 131.976511667080672, -117.601401748225143, -16.0 ] ] } },
{ "type": "Feature", "properties": { "from_id": "clicked_028", "to_id": "clicked_031", "kind": "walk", "distance_2d_m": 5.4642684146389611, "distance_3d_m": 5.4642684146389611, "cost_m": 5.4642684146389611 }, "geometry": { "type": "LineString", "coordinates": [ [ 126.269809739494804, -123.741524075374485, -16.0 ], [ 128.509148470572796, -128.72585867035454, -16.0 ] ] } },
{ "type": "Feature", "properties": { "from_id": "clicked_028", "to_id": "clicked_044", "kind": "walk", "distance_2d_m": 7.2539493074258576, "distance_3d_m": 7.5246116547436568, "cost_m": 7.5246116547436568 }, "geometry": { "type": "LineString", "coordinates": [ [ 126.269809739494804, -123.741524075374485, -16.0 ], [ 121.213238411254167, -118.540479280612686, -14.0 ] ] } },
{ "type": "Feature", "properties": { "from_id": "clicked_027", "to_id": "clicked_026", "kind": "stairs", "distance_2d_m": 3.1857955450015547, "distance_3d_m": 3.1857955450015547, "cost_m": 3.1857955450015547 }, "geometry": { "type": "LineString", "coordinates": [ [ 110.3054916889065, -126.703230139058292, -12.0 ], [ 110.522201888688244, -129.881646402523842, -12.0 ] ] } },
{ "type": "Feature", "properties": { "from_id": "clicked_028", "to_id": "clicked_032", "kind": "walk", "distance_2d_m": 13.713568776327186, "distance_3d_m": 13.713568776327186, "cost_m": 13.713568776327186 }, "geometry": { "type": "LineString", "coordinates": [ [ 126.269809739494804, -123.741524075374485, -16.0 ], [ 139.416895192920464, -127.642307671445835, -16.0 ] ] } },
{ "type": "Feature", "properties": { "from_id": "clicked_026", "to_id": "clicked_025", "kind": "stairs", "distance_2d_m": 6.432720642390036, "distance_3d_m": 6.432720642390036, "cost_m": 6.432720642390036 }, "geometry": { "type": "LineString", "coordinates": [ [ 110.522201888688244, -129.881646402523842, -12.0 ], [ 116.951271148879911, -130.098356602305586, -12.0 ] ] } },
{ "type": "Feature", "properties": { "from_id": "clicked_031", "to_id": "clicked_032", "kind": "stairs", "distance_2d_m": 10.961433360930601, "distance_3d_m": 10.961433360930601, "cost_m": 10.961433360930601 }, "geometry": { "type": "LineString", "coordinates": [ [ 128.509148470572796, -128.72585867035454, -16.0 ], [ 139.416895192920464, -127.642307671445835, -16.0 ] ] } },
{ "type": "Feature", "properties": { "from_id": "clicked_031", "to_id": "clicked_036", "kind": "stairs", "distance_2d_m": 29.348123214100173, "distance_3d_m": 29.61945874235391, "cost_m": 29.61945874235391 }, "geometry": { "type": "LineString", "coordinates": [ [ 128.509148470572796, -128.72585867035454, -16.0 ], [ 116.228903816274112, -155.381213243508768, -20.0 ] ] } },
{ "type": "Feature", "properties": { "from_id": "clicked_032", "to_id": "clicked_033", "kind": "walk", "distance_2d_m": 27.283117021844525, "distance_3d_m": 27.574779680491783, "cost_m": 27.574779680491783 }, "geometry": { "type": "LineString", "coordinates": [ [ 139.416895192920464, -127.642307671445835, -16.0 ], [ 153.069637779170193, -151.263719447655689, -20.0 ] ] } },
{ "type": "Feature", "properties": { "from_id": "clicked_034", "to_id": "clicked_039", "kind": "walk", "distance_2d_m": 7.7801342747448121, "distance_3d_m": 7.7801342747448121, "cost_m": 7.7801342747448121 }, "geometry": { "type": "LineString", "coordinates": [ [ 145.123597120506332, -141.945180857040782, -20.0 ], [ 152.636217379606705, -139.922552325744533, -20.0 ] ] } },
{ "type": "Feature", "properties": { "from_id": "clicked_034", "to_id": "clicked_042", "kind": "platform_walk", "distance_2d_m": 46.476689784305165, "distance_3d_m": 46.64850151190857, "cost_m": 46.64850151190857 }, "geometry": { "type": "LineString", "coordinates": [ [ 145.123597120506332, -141.945180857040782, -20.0 ], [ 191.355106407277901, -137.177556461842471, -24.0 ] ] } },
{ "type": "Feature", "properties": { "from_id": "clicked_040", "to_id": "clicked_033", "kind": "walk", "distance_2d_m": 6.9264443217340084, "distance_3d_m": 6.9264443217340084, "cost_m": 6.9264443217340084 }, "geometry": { "type": "LineString", "coordinates": [ [ 159.932127438925335, -152.202796980043217, -20.0 ], [ 153.069637779170193, -151.263719447655689, -20.0 ] ] } },
{ "type": "Feature", "properties": { "from_id": "clicked_034", "to_id": "clicked_035", "kind": "walk", "distance_2d_m": 35.125923969687889, "distance_3d_m": 35.125923969687889, "cost_m": 35.125923969687889 }, "geometry": { "type": "LineString", "coordinates": [ [ 145.123597120506332, -141.945180857040782, -20.0 ], [ 110.08878148912477, -144.4734665211611, -20.0 ] ] } },
{ "type": "Feature", "properties": { "from_id": "clicked_036", "to_id": "clicked_033", "kind": "walk", "distance_2d_m": 37.070115107506389, "distance_3d_m": 37.070115107506389, "cost_m": 37.070115107506389 }, "geometry": { "type": "LineString", "coordinates": [ [ 116.228903816274112, -155.381213243508768, -20.0 ], [ 153.069637779170193, -151.263719447655689, -20.0 ] ] } },
{ "type": "Feature", "properties": { "from_id": "clicked_035", "to_id": "clicked_038", "kind": "platform_walk", "distance_2d_m": 55.474848230242785, "distance_3d_m": 55.618870773942099, "cost_m": 55.618870773942099 }, "geometry": { "type": "LineString", "coordinates": [ [ 110.08878148912477, -144.4734665211611, -20.0 ], [ 55.477811144125866, -154.225425511339495, -24.0 ] ] } },
{ "type": "Feature", "properties": { "from_id": "clicked_035", "to_id": "clicked_044", "kind": "stairs", "distance_2d_m": 28.2183161976536, "distance_3d_m": 28.849148497499186, "cost_m": 28.849148497499186 }, "geometry": { "type": "LineString", "coordinates": [ [ 110.08878148912477, -144.4734665211611, -20.0 ], [ 121.213238411254167, -118.540479280612686, -14.0 ] ] } },
{ "type": "Feature", "properties": { "from_id": "clicked_036", "to_id": "clicked_037", "kind": "platform_walk", "distance_2d_m": 54.886228611498773, "distance_3d_m": 55.031791640775303, "cost_m": 55.031791640775303 }, "geometry": { "type": "LineString", "coordinates": [ [ 116.228903816274112, -155.381213243508768, -20.0 ], [ 61.617933471275215, -160.871204971312892, -24.0 ] ] } },
{ "type": "Feature", "properties": { "from_id": "clicked_033", "to_id": "clicked_042", "kind": "platform_walk", "distance_2d_m": 40.794571890592429, "distance_3d_m": 40.990207315122397, "cost_m": 40.990207315122397 }, "geometry": { "type": "LineString", "coordinates": [ [ 153.069637779170193, -151.263719447655689, -20.0 ], [ 191.355106407277901, -137.177556461842471, -24.0 ] ] } },
{ "type": "Feature", "properties": { "from_id": "clicked_033", "to_id": "clicked_041", "kind": "platform_walk", "distance_2d_m": 45.234559310452482, "distance_3d_m": 45.411070852941172, "cost_m": 45.411070852941172 }, "geometry": { "type": "LineString", "coordinates": [ [ 153.069637779170193, -151.263719447655689, -20.0 ], [ 197.711938934208973, -143.967809388337059, -24.0 ] ] } }
]
}
