{
"type": "FeatureCollection",
"name": "서울대입구(관악구청)역_shp_2d_edges",
"crs": { "type": "name", "properties": { "name": "urn:ogc:def:crs:EPSG::5179" } },
"features": [
{ "type": "Feature", "properties": { "from_id": "axis_start", "to_id": "station_centroid", "kind": "axis", "distance_m": 99.320850612176116 }, "geometry": { "type": "LineString", "coordinates": [ [ 951691.444667605450377, 1942511.755557663505897 ], [ 951620.464650364592671, 1942581.228347436292097 ] ] } },
{ "type": "Feature", "properties": { "from_id": "station_centroid", "to_id": "axis_end", "kind": "axis", "distance_m": 98.496867408977394 }, "geometry": { "type": "LineString", "coordinates": [ [ 951620.464650364592671, 1942581.228347436292097 ], [ 951521.968391729518771, 1942580.88204659265466 ] ] } },
{ "type": "Feature", "properties": { "from_id": "entrance_7", "to_id": "axis_projection_entrance_7", "kind": "entrance_to_axis", "distance_m": 84.017384495200659 }, "geometry": { "type": "LineString", "coordinates": [ [ 951647.122182297054678, 1942620.571496250107884 ], [ 951615.390956608578563, 1942542.776572162983939 ] ] } },
{ "type": "Feature", "properties": { "from_id": "entrance_1", "to_id": "axis_projection_entrance_1", "kind": "entrance_to_axis", "distance_m": 22.80094919983177 }, "geometry": { "type": "LineString", "coordinates": [ [ 951651.618182200007141, 1942552.624796239892021 ], [ 951643.0068445665529, 1942531.512521408032626 ] ] } },
{ "type": "Feature", "properties": { "from_id": "entrance_8", "to_id": "axis_projection_entrance_8", "kind": "entrance_to_axis", "distance_m": 64.682347716051439 }, "geometry": { "type": "LineString", "coordinates": [ [ 951656.758382278028876, 1942595.759496259968728 ], [ 951632.329507399699651, 1942535.867625540820882 ] ] } },
{ "type": "Feature", "properties": { "from_id": "entrance_6", "to_id": "axis_projection_entrance_6", "kind": "entrance_to_axis", "distance_m": 80.780260245270497 }, "geometry": { "type": "LineString", "coordinates": [ [ 951607.905182237969711, 1942633.071396189974621 ], [ 951577.396535909501836, 1942558.273849809775129 ] ] } },
{ "type": "Feature", "properties": { "from_id": "entrance_5", "to_id": "axis_projection_entrance_5", "kind": "entrance_to_axis", "distance_m": 58.220923326697516 }, "geometry": { "type": "LineString", "coordinates": [ [ 951585.726382168009877, 1942617.753996150102466 ], [ 951563.737822669674642, 1942563.845006508287042 ] ] } },
{ "type": "Feature", "properties": { "from_id": "entrance_4", "to_id": "axis_projection_entrance_4", "kind": "entrance_to_axis", "distance_m": 15.662067571228722 }, "geometry": { "type": "LineString", "coordinates": [ [ 951572.609997194027528, 1942577.141002269927412 ], [ 951566.694833280751482, 1942562.638892199844122 ] ] } },
{ "type": "Feature", "properties": { "from_id": "entrance_3", "to_id": "axis_projection_entrance_3", "kind": "entrance_to_axis", "distance_m": 1.9538960307328568 }, "geometry": { "type": "LineString", "coordinates": [ [ 951587.729482074966654, 1942556.169396149925888 ], [ 951586.991545321769081, 1942554.360208750236779 ] ] } },
{ "type": "Feature", "properties": { "from_id": "entrance_2", "to_id": "axis_projection_entrance_2", "kind": "entrance_to_axis", "distance_m": 1.3666804778853583 }, "geometry": { "type": "LineString", "coordinates": [ [ 951624.567782126949169, 1942540.509496199898422 ], [ 951624.051621728111058, 1942539.244034240255132 ] ] } },
{ "type": "Feature", "properties": { "from_id": "axis_start", "to_id": "axis_projection_entrance_1", "kind": "axis_chain", "distance_m": 52.312143113717781 }, "geometry": { "type": "LineString", "coordinates": [ [ 951691.444667605450377, 1942511.755557663505897 ], [ 951643.0068445665529, 1942531.512521408032626 ] ] } },
{ "type": "Feature", "properties": { "from_id": "axis_projection_entrance_1", "to_id": "axis_projection_entrance_8", "kind": "axis_chain", "distance_m": 11.531368565009753 }, "geometry": { "type": "LineString", "coordinates": [ [ 951643.0068445665529, 1942531.512521408032626 ], [ 951632.329507399699651, 1942535.867625540820882 ] ] } },
{ "type": "Feature", "properties": { "from_id": "axis_projection_entrance_8", "to_id": "axis_projection_entrance_2", "kind": "axis_chain", "distance_m": 8.9399959114927459 }, "geometry": { "type": "LineString", "coordinates": [ [ 951632.329507399699651, 1942535.867625540820882 ], [ 951624.051621728111058, 1942539.244034240255132 ] ] } },
{ "type": "Feature", "properties": { "from_id": "axis_projection_entrance_2", "to_id": "axis_projection_entrance_7", "kind": "axis_chain", "distance_m": 9.3533921380536569 }, "geometry": { "type": "LineString", "coordinates": [ [ 951624.051621728111058, 1942539.244034240255132 ], [ 951615.390956608578563, 1942542.776572162983939 ] ] } },
{ "type": "Feature", "properties": { "from_id": "axis_projection_entrance_7", "to_id": "axis_projection_entrance_3", "kind": "axis_chain", "distance_m": 30.670950393212539 }, "geometry": { "type": "LineString", "coordinates": [ [ 951615.390956608578563, 1942542.776572162983939 ], [ 951586.991545321769081, 1942554.360208750236779 ] ] } },
{ "type": "Feature", "properties": { "from_id": "axis_projection_entrance_3", "to_id": "axis_projection_entrance_6", "kind": "axis_chain", "distance_m": 10.362470360121735 }, "geometry": { "type": "LineString", "coordinates": [ [ 951586.991545321769081, 1942554.360208750236779 ], [ 951577.396535909501836, 1942558.273849809775129 ] ] } },
{ "type": "Feature", "properties": { "from_id": "axis_projection_entrance_6", "to_id": "axis_projection_entrance_4", "kind": "axis_chain", "distance_m": 11.5576829088404 }, "geometry": { "type": "LineString", "coordinates": [ [ 951577.396535909501836, 1942558.273849809775129 ], [ 951566.694833280751482, 1942562.638892199844122 ] ] } },
{ "type": "Feature", "properties": { "from_id": "axis_projection_entrance_4", "to_id": "axis_projection_entrance_5", "kind": "axis_chain", "distance_m": 3.1935283745493428 }, "geometry": { "type": "LineString", "coordinates": [ [ 951566.694833280751482, 1942562.638892199844122 ], [ 951563.737822669674642, 1942563.845006508287042 ] ] } },
{ "type": "Feature", "properties": { "from_id": "axis_projection_entrance_5", "to_id": "axis_end", "kind": "axis_chain", "distance_m": 45.110376809563448 }, "geometry": { "type": "LineString", "coordinates": [ [ 951563.737822669674642, 1942563.845006508287042 ], [ 951521.968391729518771, 1942580.88204659265466 ] ] } }
]
}
