{
"type": "FeatureCollection",
"name": "숭실대입구(살피재)역_shp_2d_edges",
"crs": { "type": "name", "properties": { "name": "urn:ogc:def:crs:EPSG::5179" } },
"features": [
{ "type": "Feature", "properties": { "from_id": "axis_start", "to_id": "station_centroid", "kind": "axis", "distance_m": 91.656087818167919 }, "geometry": { "type": "LineString", "coordinates": [ [ 951748.768772344687022, 1944175.875517102656886 ], [ 951704.462491312762722, 1944256.111368785379454 ] ] } },
{ "type": "Feature", "properties": { "from_id": "station_centroid", "to_id": "axis_end", "kind": "axis", "distance_m": 91.657468198750564 }, "geometry": { "type": "LineString", "coordinates": [ [ 951704.462491312762722, 1944256.111368785379454 ], [ 951644.687699689646251, 1944325.595653073396534 ] ] } },
{ "type": "Feature", "properties": { "from_id": "entrance_3", "to_id": "axis_projection_entrance_3", "kind": "entrance_to_axis", "distance_m": 14.709918947635089 }, "geometry": { "type": "LineString", "coordinates": [ [ 951720.43437501299195, 1944242.4052056199871 ], [ 951708.356201292714104, 1944234.008811451727524 ] ] } },
{ "type": "Feature", "properties": { "from_id": "entrance_1", "to_id": "axis_projection_entrance_1", "kind": "entrance_to_axis", "distance_m": 4.5326722558007191 }, "geometry": { "type": "LineString", "coordinates": [ [ 951749.089622123050503, 1944183.354913719929755 ], [ 951745.367888297187164, 1944180.767672890797257 ] ] } },
{ "type": "Feature", "properties": { "from_id": "entrance_2", "to_id": "axis_projection_entrance_2", "kind": "entrance_to_axis", "distance_m": 3.9580162913616923 }, "geometry": { "type": "LineString", "coordinates": [ [ 951709.125343412044458, 1944239.836582960095257 ], [ 951705.87545410101302, 1944237.577354678418487 ] ] } },
{ "type": "Feature", "properties": { "from_id": "entrance_4", "to_id": "axis_projection_entrance_4", "kind": "entrance_to_axis", "distance_m": 14.365215926868768 }, "geometry": { "type": "LineString", "coordinates": [ [ 951757.715809253044426, 1944188.172140369890258 ], [ 951745.920667885337025, 1944179.972502039978281 ] ] } },
{ "type": "Feature", "properties": { "from_id": "axis_start", "to_id": "axis_projection_entrance_4", "kind": "axis_chain", "distance_m": 4.9896878247048413 }, "geometry": { "type": "LineString", "coordinates": [ [ 951748.768772344687022, 1944175.875517102656886 ], [ 951745.920667885337025, 1944179.972502039978281 ] ] } },
{ "type": "Feature", "properties": { "from_id": "axis_projection_entrance_4", "to_id": "axis_projection_entrance_1", "kind": "axis_chain", "distance_m": 0.96843273130729357 }, "geometry": { "type": "LineString", "coordinates": [ [ 951745.920667885337025, 1944179.972502039978281 ], [ 951745.367888297187164, 1944180.767672890797257 ] ] } },
{ "type": "Feature", "properties": { "from_id": "axis_projection_entrance_1", "to_id": "axis_projection_entrance_3", "kind": "axis_chain", "distance_m": 64.84199110284365 }, "geometry": { "type": "LineString", "coordinates": [ [ 951745.367888297187164, 1944180.767672890797257 ], [ 951708.356201292714104, 1944234.008811451727524 ] ] } },
{ "type": "Feature", "properties": { "from_id": "axis_projection_entrance_3", "to_id": "axis_projection_entrance_2", "kind": "axis_chain", "distance_m": 4.3461025517001746 }, "geometry": { "type": "LineString", "coordinates": [ [ 951708.356201292714104, 1944234.008811451727524 ], [ 951705.87545410101302, 1944237.577354678418487 ] ] } },
{ "type": "Feature", "properties": { "from_id": "axis_projection_entrance_2", "to_id": "axis_end", "kind": "axis_chain", "distance_m": 107.19683830343658 }, "geometry": { "type": "LineString", "coordinates": [ [ 951705.87545410101302, 1944237.577354678418487 ], [ 951644.687699689646251, 1944325.595653073396534 ] ] } }
]
}
