{
"type": "FeatureCollection",
"name": "장승배기역(7호선)역_shp_2d_edges",
"crs": { "type": "name", "properties": { "name": "urn:ogc:def:crs:EPSG::5179" } },
"features": [
{ "type": "Feature", "properties": { "from_id": "axis_start", "to_id": "station_centroid", "kind": "axis", "distance_m": 91.657014786978621 }, "geometry": { "type": "LineString", "coordinates": [ [ 950440.029538818984292, 1945207.563242980046198 ], [ 950359.111393680213951, 1945164.513711659004912 ] ] } },
{ "type": "Feature", "properties": { "from_id": "station_centroid", "to_id": "axis_end", "kind": "axis", "distance_m": 91.65729830508333 }, "geometry": { "type": "LineString", "coordinates": [ [ 950359.111393680213951, 1945164.513711659004912 ], [ 950288.702877245028503, 1945105.830654939170927 ] ] } },
{ "type": "Feature", "properties": { "from_id": "entrance_3", "to_id": "axis_projection_entrance_3", "kind": "entrance_to_axis", "distance_m": 4.4090160503562759 }, "geometry": { "type": "LineString", "coordinates": [ [ 950295.033546795020811, 1945115.39930810010992 ], [ 950297.49340834072791, 1945111.74027766729705 ] ] } },
{ "type": "Feature", "properties": { "from_id": "entrance_1", "to_id": "axis_projection_entrance_1", "kind": "entrance_to_axis", "distance_m": 3.3323019976031181 }, "geometry": { "type": "LineString", "coordinates": [ [ 950416.481873648008332, 1945195.74813953996636 ], [ 950418.341018965002149, 1945192.982671172125265 ] ] } },
{ "type": "Feature", "properties": { "from_id": "entrance_4", "to_id": "axis_projection_entrance_4", "kind": "entrance_to_axis", "distance_m": 12.851278104958231 }, "geometry": { "type": "LineString", "coordinates": [ [ 950288.768695230945013, 1945121.360286520095542 ], [ 950295.93863166635856, 1945110.695045761298388 ] ] } },
{ "type": "Feature", "properties": { "from_id": "entrance_5", "to_id": "axis_projection_entrance_5", "kind": "entrance_to_axis", "distance_m": 15.716813514514808 }, "geometry": { "type": "LineString", "coordinates": [ [ 950418.902182047022507, 1945212.298188719898462 ], [ 950427.670847151428461, 1945199.254847915610299 ] ] } },
{ "type": "Feature", "properties": { "from_id": "entrance_6", "to_id": "axis_projection_entrance_6", "kind": "entrance_to_axis", "distance_m": 5.7016717479001047 }, "geometry": { "type": "LineString", "coordinates": [ [ 950432.334933249978349, 1945209.260713940020651 ], [ 950435.515988369472325, 1945204.528912058332935 ] ] } },
{ "type": "Feature", "properties": { "from_id": "entrance_2", "to_id": "axis_projection_entrance_2", "kind": "entrance_to_axis", "distance_m": 3.3015756563280529 }, "geometry": { "type": "LineString", "coordinates": [ [ 950391.910719407023862, 1945179.192630779929459 ], [ 950393.752722, 1945176.452662119176239 ] ] } },
{ "type": "Feature", "properties": { "from_id": "axis_start", "to_id": "axis_projection_entrance_6", "kind": "axis_chain", "distance_m": 5.4386856686845713 }, "geometry": { "type": "LineString", "coordinates": [ [ 950440.029538818984292, 1945207.563242980046198 ], [ 950435.515988369472325, 1945204.528912058332935 ] ] } },
{ "type": "Feature", "properties": { "from_id": "axis_projection_entrance_6", "to_id": "axis_projection_entrance_5", "kind": "axis_chain", "distance_m": 9.4531472702271717 }, "geometry": { "type": "LineString", "coordinates": [ [ 950435.515988369472325, 1945204.528912058332935 ], [ 950427.670847151428461, 1945199.254847915610299 ] ] } },
{ "type": "Feature", "properties": { "from_id": "axis_projection_entrance_5", "to_id": "axis_projection_entrance_1", "kind": "axis_chain", "distance_m": 11.242148152810895 }, "geometry": { "type": "LineString", "coordinates": [ [ 950427.670847151428461, 1945199.254847915610299 ], [ 950418.341018965002149, 1945192.982671172125265 ] ] } },
{ "type": "Feature", "properties": { "from_id": "axis_projection_entrance_1", "to_id": "axis_projection_entrance_2", "kind": "axis_chain", "distance_m": 29.628120880836814 }, "geometry": { "type": "LineString", "coordinates": [ [ 950418.341018965002149, 1945192.982671172125265 ], [ 950393.752722, 1945176.452662119176239 ] ] } },
{ "type": "Feature", "properties": { "from_id": "axis_projection_entrance_2", "to_id": "axis_projection_entrance_3", "kind": "axis_chain", "distance_m": 115.9894312754522 }, "geometry": { "type": "LineString", "coordinates": [ [ 950393.752722, 1945176.452662119176239 ], [ 950297.49340834072791, 1945111.74027766729705 ] ] } },
{ "type": "Feature", "properties": { "from_id": "axis_projection_entrance_3", "to_id": "axis_projection_entrance_4", "kind": "axis_chain", "distance_m": 1.8734567634404089 }, "geometry": { "type": "LineString", "coordinates": [ [ 950297.49340834072791, 1945111.74027766729705 ], [ 950295.93863166635856, 1945110.695045761298388 ] ] } },
{ "type": "Feature", "properties": { "from_id": "axis_projection_entrance_4", "to_id": "axis_end", "kind": "axis_chain", "distance_m": 8.7188554361335378 }, "geometry": { "type": "LineString", "coordinates": [ [ 950295.93863166635856, 1945110.695045761298388 ], [ 950288.702877245028503, 1945105.830654939170927 ] ] } }
]
}
