{
"type": "FeatureCollection",
"name": "종각역_shp_2d_edges",
"crs": { "type": "name", "properties": { "name": "urn:ogc:def:crs:EPSG::5179" } },
"features": [
{ "type": "Feature", "properties": { "from_id": "axis_start", "to_id": "station_centroid", "kind": "axis", "distance_m": 91.656213349566016 }, "geometry": { "type": "LineString", "coordinates": [ [ 954275.37702401203569, 1952451.786441060015932 ], [ 954366.453842125483789, 1952441.496900355443358 ] ] } },
{ "type": "Feature", "properties": { "from_id": "station_centroid", "to_id": "axis_end", "kind": "axis", "distance_m": 91.656270410739452 }, "geometry": { "type": "LineString", "coordinates": [ [ 954366.453842125483789, 1952441.496900355443358 ], [ 954457.710685928468592, 1952450.044435949064791 ] ] } },
{ "type": "Feature", "properties": { "from_id": "entrance_6", "to_id": "axis_projection_entrance_6", "kind": "entrance_to_axis", "distance_m": 15.356291567893781 }, "geometry": { "type": "LineString", "coordinates": [ [ 954285.728483221959323, 1952436.330551429884508 ], [ 954285.875189635436982, 1952451.686142201535404 ] ] } },
{ "type": "Feature", "properties": { "from_id": "entrance_1", "to_id": "axis_projection_entrance_1", "kind": "entrance_to_axis", "distance_m": 3.0012790579735769 }, "geometry": { "type": "LineString", "coordinates": [ [ 954284.960548416012898, 1952448.693464600015432 ], [ 954284.989221151568927, 1952451.694606692297384 ] ] } },
{ "type": "Feature", "properties": { "from_id": "entrance_4", "to_id": "axis_projection_entrance_4", "kind": "entrance_to_axis", "distance_m": 15.710043316883699 }, "geometry": { "type": "LineString", "coordinates": [ [ 954388.973912607994862, 1952434.990382760064676 ], [ 954389.123998590745032, 1952450.699709136970341 ] ] } },
{ "type": "Feature", "properties": { "from_id": "entrance_3", "to_id": "axis_projection_entrance_3", "kind": "entrance_to_axis", "distance_m": 2.8470163920519966 }, "geometry": { "type": "LineString", "coordinates": [ [ 954389.368841327028349, 1952447.850223599933088 ], [ 954389.396040313295089, 1952450.697110066190362 ] ] } },
{ "type": "Feature", "properties": { "from_id": "entrance_2", "to_id": "axis_projection_entrance_2", "kind": "entrance_to_axis", "distance_m": 2.0505368345738826 }, "geometry": { "type": "LineString", "coordinates": [ [ 954328.189764345996082, 1952449.231240819906816 ], [ 954328.209354160586372, 1952451.281684076646343 ] ] } },
{ "type": "Feature", "properties": { "from_id": "entrance_5", "to_id": "axis_projection_entrance_5", "kind": "entrance_to_axis", "distance_m": 16.363073054537939 }, "geometry": { "type": "LineString", "coordinates": [ [ 954327.147824381943792, 1952434.92800603993237 ], [ 954327.304149087751284, 1952451.290332352975383 ] ] } },
{ "type": "Feature", "properties": { "from_id": "axis_start", "to_id": "axis_projection_entrance_1", "kind": "axis_chain", "distance_m": 9.6126358196045896 }, "geometry": { "type": "LineString", "coordinates": [ [ 954275.37702401203569, 1952451.786441060015932 ], [ 954284.989221151568927, 1952451.694606692297384 ] ] } },
{ "type": "Feature", "properties": { "from_id": "axis_projection_entrance_1", "to_id": "axis_projection_entrance_6", "kind": "axis_chain", "distance_m": 0.88600891756873412 }, "geometry": { "type": "LineString", "coordinates": [ [ 954284.989221151568927, 1952451.694606692297384 ], [ 954285.875189635436982, 1952451.686142201535404 ] ] } },
{ "type": "Feature", "properties": { "from_id": "axis_projection_entrance_6", "to_id": "axis_projection_entrance_5", "kind": "axis_chain", "distance_m": 41.4308501812082 }, "geometry": { "type": "LineString", "coordinates": [ [ 954285.875189635436982, 1952451.686142201535404 ], [ 954327.304149087751284, 1952451.290332352975383 ] ] } },
{ "type": "Feature", "properties": { "from_id": "axis_projection_entrance_5", "to_id": "axis_projection_entrance_2", "kind": "axis_chain", "distance_m": 0.90524638445554695 }, "geometry": { "type": "LineString", "coordinates": [ [ 954327.304149087751284, 1952451.290332352975383 ], [ 954328.209354160586372, 1952451.281684076646343 ] ] } },
{ "type": "Feature", "properties": { "from_id": "axis_projection_entrance_2", "to_id": "axis_projection_entrance_4", "kind": "axis_chain", "distance_m": 60.917424443939439 }, "geometry": { "type": "LineString", "coordinates": [ [ 954328.209354160586372, 1952451.281684076646343 ], [ 954389.123998590745032, 1952450.699709136970341 ] ] } },
{ "type": "Feature", "properties": { "from_id": "axis_projection_entrance_4", "to_id": "axis_projection_entrance_3", "kind": "axis_chain", "distance_m": 0.2720541379522125 }, "geometry": { "type": "LineString", "coordinates": [ [ 954389.123998590745032, 1952450.699709136970341 ], [ 954389.396040313295089, 1952450.697110066190362 ] ] } },
{ "type": "Feature", "properties": { "from_id": "axis_projection_entrance_3", "to_id": "axis_end", "kind": "axis_chain", "distance_m": 68.317763349145949 }, "geometry": { "type": "LineString", "coordinates": [ [ 954389.396040313295089, 1952450.697110066190362 ], [ 954457.710685928468592, 1952450.044435949064791 ] ] } }
]
}
