{
"type": "FeatureCollection",
"name": "장승배기역(7호선)역_local_metric_edges",
"features": [
{ "type": "Feature", "properties": { "from_id": "exit_6_connection", "to_id": "b1_west_entry_turn", "kind": "walk", "distance_2d_m": 20.10020656422898, "distance_3d_m": 20.10020656422898, "cost_m": 20.10020656422898 }, "geometry": { "type": "LineString", "coordinates": [ [ 15.500004601681811, -88.081206961586673, -4.0 ], [ 35.461265140379048, -90.440525005200598, -4.0 ] ] } },
{ "type": "Feature", "properties": { "from_id": "b1_west_entry_turn", "to_id": "b1_west_loop_1", "kind": "walk", "distance_2d_m": 7.5935760861625452, "distance_3d_m": 7.5935760861625452, "cost_m": 7.5935760861625452 }, "geometry": { "type": "LineString", "coordinates": [ [ 35.461265140379048, -90.440525005200598, -4.0 ], [ 41.466801978669054, -85.793383404142872, -4.0 ] ] } },
{ "type": "Feature", "properties": { "from_id": "b1_west_loop_1", "to_id": "b1_west_loop_2", "kind": "walk", "distance_2d_m": 7.049008281601159, "distance_3d_m": 7.049008281601159, "cost_m": 7.049008281601159 }, "geometry": { "type": "LineString", "coordinates": [ [ 41.466801978669054, -85.793383404142872, -4.0 ], [ 46.042449093556669, -91.155469866901782, -4.0 ] ] } },
{ "type": "Feature", "properties": { "from_id": "b1_west_loop_2", "to_id": "b1_west_hall", "kind": "walk", "distance_2d_m": 7.3694829532165391, "distance_3d_m": 7.3694829532165391, "cost_m": 7.3694829532165391 }, "geometry": { "type": "LineString", "coordinates": [ [ 46.042449093556669, -91.155469866901782, -4.0 ], [ 51.762007987166193, -86.508328265844057, -4.0 ] ] } },
{ "type": "Feature", "properties": { "from_id": "b1_west_hall", "to_id": "b1_mid_1", "kind": "walk", "distance_2d_m": 12.87397144812933, "distance_3d_m": 12.87397144812933, "cost_m": 12.87397144812933 }, "geometry": { "type": "LineString", "coordinates": [ [ 51.762007987166193, -86.508328265844057, -4.0 ], [ 64.631015497787629, -86.15085583499345, -4.0 ] ] } },
{ "type": "Feature", "properties": { "from_id": "b1_mid_1", "to_id": "b1_mid_2", "kind": "walk", "distance_2d_m": 15.024732543867085, "distance_3d_m": 15.024732543867085, "cost_m": 15.024732543867085 }, "geometry": { "type": "LineString", "coordinates": [ [ 64.631015497787629, -86.15085583499345, -4.0 ], [ 79.501868621172392, -84.006021249889898, -4.0 ] ] } },
{ "type": "Feature", "properties": { "from_id": "b1_mid_2", "to_id": "b1_center_hall", "kind": "walk", "distance_2d_m": 13.716697426655381, "distance_3d_m": 13.716697426655381, "cost_m": 13.716697426655381 }, "geometry": { "type": "LineString", "coordinates": [ [ 79.501868621172392, -84.006021249889898, -4.0 ], [ 91.798920242432857, -77.928989925429761, -4.0 ] ] } },
{ "type": "Feature", "properties": { "from_id": "b1_center_hall", "to_id": "b1_center_split", "kind": "walk", "distance_2d_m": 9.0436992599943444, "distance_3d_m": 9.0436992599943444, "cost_m": 9.0436992599943444 }, "geometry": { "type": "LineString", "coordinates": [ [ 91.798920242432857, -77.928989925429761, -4.0 ], [ 100.664236527527621, -76.141627771176786, -4.0 ] ] } },
{ "type": "Feature", "properties": { "from_id": "b1_center_split", "to_id": "b1_east_1", "kind": "walk", "distance_2d_m": 13.462242785419216, "distance_3d_m": 13.462242785419216, "cost_m": 13.462242785419216 }, "geometry": { "type": "LineString", "coordinates": [ [ 100.664236527527621, -76.141627771176786, -4.0 ], [ 113.819221982829532, -73.281848324372035, -4.0 ] ] } },
{ "type": "Feature", "properties": { "from_id": "b1_east_1", "to_id": "b1_east_2", "kind": "walk", "distance_2d_m": 14.301756727549849, "distance_3d_m": 14.301756727549849, "cost_m": 14.301756727549849 }, "geometry": { "type": "LineString", "coordinates": [ [ 113.819221982829532, -73.281848324372035, -4.0 ], [ 127.832141272172862, -70.42206887756727, -4.0 ] ] } },
{ "type": "Feature", "properties": { "from_id": "b1_east_2", "to_id": "b1_east_hall", "kind": "walk", "distance_2d_m": 12.016392029351039, "distance_3d_m": 12.016392029351039, "cost_m": 12.016392029351039 }, "geometry": { "type": "LineString", "coordinates": [ [ 127.832141272172862, -70.42206887756727, -4.0 ], [ 139.843214948752859, -70.779541308417862, -4.0 ] ] } },
{ "type": "Feature", "properties": { "from_id": "b1_east_hall", "to_id": "b1_east_bend", "kind": "walk", "distance_2d_m": 13.677887420630677, "distance_3d_m": 13.677887420630677, "cost_m": 13.677887420630677 }, "geometry": { "type": "LineString", "coordinates": [ [ 139.843214948752859, -70.779541308417862, -4.0 ], [ 152.426244514693821, -76.141627771176786, -4.0 ] ] } },
{ "type": "Feature", "properties": { "from_id": "b1_east_bend", "to_id": "b1_east_stairs_to_b2", "kind": "walk", "distance_2d_m": 9.8247055916063353, "distance_3d_m": 9.8247055916063353, "cost_m": 9.8247055916063353 }, "geometry": { "type": "LineString", "coordinates": [ [ 152.426244514693821, -76.141627771176786, -4.0 ], [ 161.577538744469052, -72.566903462670837, -4.0 ] ] } },
{ "type": "Feature", "properties": { "from_id": "b1_west_hall", "to_id": "b1_west_stairs_to_b2", "kind": "walk", "distance_2d_m": 4.9537992404470197, "distance_3d_m": 4.9537992404470197, "cost_m": 4.9537992404470197 }, "geometry": { "type": "LineString", "coordinates": [ [ 51.762007987166193, -86.508328265844057, -4.0 ], [ 50.046140319083335, -91.155469866901782, -4.0 ] ] } },
{ "type": "Feature", "properties": { "from_id": "b1_west_stairs_to_b2", "to_id": "b1_b2_west_stair_landing_1", "kind": "stairs", "distance_2d_m": 6.3982572295750471, "distance_3d_m": 6.703558426373962, "cost_m": 6.703558426373962 }, "geometry": { "type": "LineString", "coordinates": [ [ 50.046140319083335, -91.155469866901782, -4.0 ], [ 52.047985931846668, -97.232501191361905, -6.0 ] ] } },
{ "type": "Feature", "properties": { "from_id": "b1_b2_west_stair_landing_1", "to_id": "b1_b2_west_stair_landing_2", "kind": "stairs", "distance_2d_m": 7.0413902790198213, "distance_3d_m": 7.0413902790198213, "cost_m": 7.0413902790198213 }, "geometry": { "type": "LineString", "coordinates": [ [ 52.047985931846668, -97.232501191361905, -6.0 ], [ 54.907765378651433, -103.667004946672634, -6.0 ] ] } },
{ "type": "Feature", "properties": { "from_id": "b1_b2_west_stair_landing_2", "to_id": "b2_west_stairs_from_b1", "kind": "stairs", "distance_2d_m": 6.3243329015878809, "distance_3d_m": 6.6330375130936039, "cost_m": 6.6330375130936039 }, "geometry": { "type": "LineString", "coordinates": [ [ 54.907765378651433, -103.667004946672634, -6.0 ], [ 59.197434548858574, -108.31414654773036, -8.0 ] ] } },
{ "type": "Feature", "properties": { "from_id": "b1_east_stairs_to_b2", "to_id": "b2_east_stairs_from_b1", "kind": "stairs", "distance_2d_m": 28.587157685085092, "distance_3d_m": 28.865647134819611, "cost_m": 28.865647134819611 }, "geometry": { "type": "LineString", "coordinates": [ [ 161.577538744469052, -72.566903462670837, -4.0 ], [ 148.422553289167155, -97.947446053063089, -8.0 ] ] } },
{ "type": "Feature", "properties": { "from_id": "exit_1_connection", "to_id": "b1_exit1_branch", "kind": "walk", "distance_2d_m": 7.3694829532165453, "distance_3d_m": 7.3694829532165453, "cost_m": 7.3694829532165453 }, "geometry": { "type": "LineString", "coordinates": [ [ 75.784155340326194, -63.987565122256555, -4.0 ], [ 78.643934787130959, -70.779541308417862, -4.0 ] ] } },
{ "type": "Feature", "properties": { "from_id": "b1_exit1_branch", "to_id": "b1_center_hall", "kind": "walk", "distance_2d_m": 14.972249592379157, "distance_3d_m": 14.972249592379157, "cost_m": 14.972249592379157 }, "geometry": { "type": "LineString", "coordinates": [ [ 78.643934787130959, -70.779541308417862, -4.0 ], [ 91.798920242432857, -77.928989925429761, -4.0 ] ] } },
{ "type": "Feature", "properties": { "from_id": "exit_2_connection", "to_id": "b1_exit2_branch", "kind": "walk", "distance_2d_m": 10.01331262961158, "distance_3d_m": 10.01331262961158, "cost_m": 10.01331262961158 }, "geometry": { "type": "LineString", "coordinates": [ [ 112.103354314746667, -57.910533797796433, -4.0 ], [ 112.38933225942715, -67.919761861613097, -4.0 ] ] } },
{ "type": "Feature", "properties": { "from_id": "b1_exit2_branch", "to_id": "b1_east_1", "kind": "walk", "distance_2d_m": 5.5494644656213818, "distance_3d_m": 5.5494644656213818, "cost_m": 5.5494644656213818 }, "geometry": { "type": "LineString", "coordinates": [ [ 112.38933225942715, -67.919761861613097, -4.0 ], [ 113.819221982829532, -73.281848324372035, -4.0 ] ] } },
{ "type": "Feature", "properties": { "from_id": "exit_3_connection", "to_id": "b1_exit3_branch", "kind": "walk", "distance_2d_m": 17.49430194651471, "distance_3d_m": 17.49430194651471, "cost_m": 17.49430194651471 }, "geometry": { "type": "LineString", "coordinates": [ [ 172.559091820199342, -45.756471148876194, -4.0 ], [ 163.579384357232385, -60.770313244601191, -4.0 ] ] } },
{ "type": "Feature", "properties": { "from_id": "b1_exit3_branch", "to_id": "b1_east_bend", "kind": "walk", "distance_2d_m": 18.991309555218542, "distance_3d_m": 18.991309555218542, "cost_m": 18.991309555218542 }, "geometry": { "type": "LineString", "coordinates": [ [ 163.579384357232385, -60.770313244601191, -4.0 ], [ 152.426244514693821, -76.141627771176786, -4.0 ] ] } },
{ "type": "Feature", "properties": { "from_id": "exit_4_connection", "to_id": "b1_exit4_branch", "kind": "walk", "distance_2d_m": 13.890876389370113, "distance_3d_m": 13.890876389370113, "cost_m": 13.890876389370113 }, "geometry": { "type": "LineString", "coordinates": [ [ 181.138430160613638, -50.546601722274175, -4.0 ], [ 174.160568310410014, -62.557675398854172, -4.0 ] ] } },
{ "type": "Feature", "properties": { "from_id": "b1_exit4_branch", "to_id": "b1_east_bend", "kind": "walk", "distance_2d_m": 25.630150075849425, "distance_3d_m": 25.630150075849425, "cost_m": 25.630150075849425 }, "geometry": { "type": "LineString", "coordinates": [ [ 174.160568310410014, -62.557675398854172, -4.0 ], [ 152.426244514693821, -76.141627771176786, -4.0 ] ] } },
{ "type": "Feature", "properties": { "from_id": "b2_west_stairs_from_b1", "to_id": "b2_west_hall", "kind": "walk", "distance_2d_m": 2.9164142407658149, "distance_3d_m": 2.9164142407658149, "cost_m": 2.9164142407658149 }, "geometry": { "type": "LineString", "coordinates": [ [ 59.197434548858574, -108.31414654773036, -8.0 ], [ 59.769390438219524, -111.173925994535125, -8.0 ] ] } },
{ "type": "Feature", "properties": { "from_id": "exit_5_connection", "to_id": "b2_exit5_stair_top", "kind": "walk", "distance_2d_m": 4.0018779189962226, "distance_3d_m": 4.0018779189962226, "cost_m": 4.0018779189962226 }, "geometry": { "type": "LineString", "coordinates": [ [ 69.092271434803052, -95.44513903710893, -8.0 ], [ 68.348728778633813, -99.377335776465486, -8.0 ] ] } },
{ "type": "Feature", "properties": { "from_id": "b2_exit5_stair_top", "to_id": "b2_exit5_stair_landing", "kind": "stairs", "distance_2d_m": 4.4124321019530734, "distance_3d_m": 4.4124321019530734, "cost_m": 4.4124321019530734 }, "geometry": { "type": "LineString", "coordinates": [ [ 68.348728778633813, -99.377335776465486, -8.0 ], [ 66.34688316587048, -103.309532515822028, -8.0 ] ] } },
{ "type": "Feature", "properties": { "from_id": "b2_exit5_stair_landing", "to_id": "b2_exit5_stair_bottom", "kind": "stairs", "distance_2d_m": 5.1555407159863114, "distance_3d_m": 5.1555407159863114, "cost_m": 5.1555407159863114 }, "geometry": { "type": "LineString", "coordinates": [ [ 66.34688316587048, -103.309532515822028, -8.0 ], [ 63.487103719065715, -107.599201686029176, -8.0 ] ] } },
{ "type": "Feature", "properties": { "from_id": "b2_exit5_stair_bottom", "to_id": "b2_exit5_corridor_join", "kind": "walk", "distance_2d_m": 5.002570915255764, "distance_3d_m": 5.002570915255764, "cost_m": 5.002570915255764 }, "geometry": { "type": "LineString", "coordinates": [ [ 63.487103719065715, -107.599201686029176, -8.0 ], [ 60.913302216941432, -111.888870856236323, -8.0 ] ] } },
{ "type": "Feature", "properties": { "from_id": "b2_exit5_corridor_join", "to_id": "b2_west_hall", "kind": "walk", "distance_2d_m": 1.3489552671499763, "distance_3d_m": 1.3489552671499763, "cost_m": 1.3489552671499763 }, "geometry": { "type": "LineString", "coordinates": [ [ 60.913302216941432, -111.888870856236323, -8.0 ], [ 59.769390438219524, -111.173925994535125, -8.0 ] ] } },
{ "type": "Feature", "properties": { "from_id": "b2_west_hall", "to_id": "b2_west_path_0", "kind": "walk", "distance_2d_m": 8.6988549146772769, "distance_3d_m": 8.6988549146772769, "cost_m": 8.6988549146772769 }, "geometry": { "type": "LineString", "coordinates": [ [ 59.769390438219524, -111.173925994535125, -8.0 ], [ 56.051677157373334, -119.038319473248208, -8.0 ] ] } },
{ "type": "Feature", "properties": { "from_id": "b2_west_path_0", "to_id": "b2_west_path_1", "kind": "walk", "distance_2d_m": 8.8248642039061735, "distance_3d_m": 8.8248642039061735, "cost_m": 8.8248642039061735 }, "geometry": { "type": "LineString", "coordinates": [ [ 56.051677157373334, -119.038319473248208, -8.0 ], [ 52.047985931846668, -126.90271295196132, -8.0 ] ] } },
{ "type": "Feature", "properties": { "from_id": "b2_west_path_1", "to_id": "b2_west_path_2", "kind": "walk", "distance_2d_m": 9.7926569525719156, "distance_3d_m": 9.7926569525719156, "cost_m": 9.7926569525719156 }, "geometry": { "type": "LineString", "coordinates": [ [ 52.047985931846668, -126.90271295196132, -8.0 ], [ 56.051677157373334, -135.839523723226193, -8.0 ] ] } },
{ "type": "Feature", "properties": { "from_id": "b2_west_path_2", "to_id": "b2_center_path_0", "kind": "walk", "distance_2d_m": 8.8725204634074899, "distance_3d_m": 8.8725204634074899, "cost_m": 8.8725204634074899 }, "geometry": { "type": "LineString", "coordinates": [ [ 56.051677157373334, -135.839523723226193, -8.0 ], [ 64.916993442468097, -136.1969961540768, -8.0 ] ] } },
{ "type": "Feature", "properties": { "from_id": "b2_center_path_0", "to_id": "b2_center_path_1", "kind": "walk", "distance_2d_m": 7.4354265616923811, "distance_3d_m": 7.4354265616923811, "cost_m": 7.4354265616923811 }, "geometry": { "type": "LineString", "coordinates": [ [ 64.916993442468097, -136.1969961540768, -8.0 ], [ 72.352420004160479, -136.1969961540768, -8.0 ] ] } },
{ "type": "Feature", "properties": { "from_id": "b2_center_path_1", "to_id": "b2_center_path_2", "kind": "walk", "distance_2d_m": 11.357501650657063, "distance_3d_m": 11.357501650657063, "cost_m": 11.357501650657063 }, "geometry": { "type": "LineString", "coordinates": [ [ 72.352420004160479, -136.1969961540768, -8.0 ], [ 83.505559846699057, -134.052161568973219, -8.0 ] ] } },
{ "type": "Feature", "properties": { "from_id": "b2_center_path_2", "to_id": "b2_center_hall", "kind": "walk", "distance_2d_m": 11.919655419502053, "distance_3d_m": 11.919655419502053, "cost_m": 11.919655419502053 }, "geometry": { "type": "LineString", "coordinates": [ [ 83.505559846699057, -134.052161568973219, -8.0 ], [ 95.230655578598572, -131.907326983869638, -8.0 ] ] } },
{ "type": "Feature", "properties": { "from_id": "b2_center_hall", "to_id": "b2_information", "kind": "walk", "distance_2d_m": 9.043416657639396, "distance_3d_m": 9.043416657639396, "cost_m": 9.043416657639396 }, "geometry": { "type": "LineString", "coordinates": [ [ 95.230655578598572, -131.907326983869638, -8.0 ], [ 98.090435025403337, -140.486665324283933, -8.0 ] ] } },
{ "type": "Feature", "properties": { "from_id": "b2_center_hall", "to_id": "b2_elevator", "kind": "walk", "distance_2d_m": 16.533012973857907, "distance_3d_m": 16.533012973857907, "cost_m": 16.533012973857907 }, "geometry": { "type": "LineString", "coordinates": [ [ 95.230655578598572, -131.907326983869638, -8.0 ], [ 96.946523246681437, -115.463595164742273, -8.0 ] ] } },
{ "type": "Feature", "properties": { "from_id": "b2_center_hall", "to_id": "b2_center_stairs_to_b3", "kind": "walk", "distance_2d_m": 3.1973306218560742, "distance_3d_m": 3.1973306218560742, "cost_m": 3.1973306218560742 }, "geometry": { "type": "LineString", "coordinates": [ [ 95.230655578598572, -131.907326983869638, -8.0 ], [ 93.80076585519619, -129.047547537064901, -8.0 ] ] } },
{ "type": "Feature", "properties": { "from_id": "b2_center_hall", "to_id": "b2_east_path_1", "kind": "walk", "distance_2d_m": 14.098922949079887, "distance_3d_m": 14.098922949079887, "cost_m": 14.098922949079887 }, "geometry": { "type": "LineString", "coordinates": [ [ 95.230655578598572, -131.907326983869638, -8.0 ], [ 108.957596923261434, -128.690075106214294, -8.0 ] ] } },
{ "type": "Feature", "properties": { "from_id": "b2_east_path_1", "to_id": "b2_east_hall", "kind": "walk", "distance_2d_m": 22.385995668969869, "distance_3d_m": 22.385995668969869, "cost_m": 22.385995668969869 }, "geometry": { "type": "LineString", "coordinates": [ [ 108.957596923261434, -128.690075106214294, -8.0 ], [ 130.691920718977627, -123.327988643455356, -8.0 ] ] } },
{ "type": "Feature", "properties": { "from_id": "b2_east_hall", "to_id": "b2_east_path_2", "kind": "walk", "distance_2d_m": 14.870853123384764, "distance_3d_m": 14.870853123384764, "cost_m": 14.870853123384764 }, "geometry": { "type": "LineString", "coordinates": [ [ 130.691920718977627, -123.327988643455356, -8.0 ], [ 144.418862063640489, -117.60842974984584, -8.0 ] ] } },
{ "type": "Feature", "properties": { "from_id": "b2_east_path_2", "to_id": "b2_east_stairs_to_b3", "kind": "walk", "distance_2d_m": 7.0108354916547118, "distance_3d_m": 7.0108354916547118, "cost_m": 7.0108354916547118 }, "geometry": { "type": "LineString", "coordinates": [ [ 144.418862063640489, -117.60842974984584, -8.0 ], [ 137.555391391309058, -116.178540026443471, -8.0 ] ] } },
{ "type": "Feature", "properties": { "from_id": "b2_east_stairs_from_b1", "to_id": "b2_east_from_b1_turn", "kind": "walk", "distance_2d_m": 7.6948795069719518, "distance_3d_m": 7.6948795069719518, "cost_m": 7.6948795069719518 }, "geometry": { "type": "LineString", "coordinates": [ [ 148.422553289167155, -97.947446053063089, -8.0 ], [ 143.274950284918589, -103.667004946672634, -8.0 ] ] } },
{ "type": "Feature", "properties": { "from_id": "b2_east_from_b1_turn", "to_id": "b2_east_hall", "kind": "walk", "distance_2d_m": 23.342812876397318, "distance_3d_m": 23.342812876397318, "cost_m": 23.342812876397318 }, "geometry": { "type": "LineString", "coordinates": [ [ 143.274950284918589, -103.667004946672634, -8.0 ], [ 130.691920718977627, -123.327988643455356, -8.0 ] ] } },
{ "type": "Feature", "properties": { "from_id": "b2_elevator", "to_id": "b3_elevator", "kind": "elevator", "distance_2d_m": 26.047551913050899, "distance_3d_m": 26.352892832914598, "cost_m": 26.352892832914598 }, "geometry": { "type": "LineString", "coordinates": [ [ 96.946523246681437, -115.463595164742273, -8.0 ], [ 100.950214472208103, -141.201610185985118, -12.0 ] ] } },
{ "type": "Feature", "properties": { "from_id": "b2_center_stairs_to_b3", "to_id": "b3_center_stairs_from_b2", "kind": "stairs", "distance_2d_m": 18.04283444561246, "distance_3d_m": 18.480905682129851, "cost_m": 18.480905682129851 }, "geometry": { "type": "LineString", "coordinates": [ [ 93.80076585519619, -129.047547537064901, -8.0 ], [ 87.223273127545241, -145.848751787042886, -12.0 ] ] } },
{ "type": "Feature", "properties": { "from_id": "b2_east_stairs_to_b3", "to_id": "b3_east_stairs_from_b2", "kind": "stairs", "distance_2d_m": 20.917605512466867, "distance_3d_m": 21.296624623991104, "cost_m": 21.296624623991104 }, "geometry": { "type": "LineString", "coordinates": [ [ 137.555391391309058, -116.178540026443471, -8.0 ], [ 128.690075106214294, -135.124578861525009, -12.0 ] ] } },
{ "type": "Feature", "properties": { "from_id": "b3_center_stairs_from_b2", "to_id": "platform_center", "kind": "walk", "distance_2d_m": 12.516436598712994, "distance_3d_m": 12.516436598712994, "cost_m": 12.516436598712994 }, "geometry": { "type": "LineString", "coordinates": [ [ 87.223273127545241, -145.848751787042886, -12.0 ], [ 96.660545302000955, -137.626885877479168, -12.0 ] ] } },
{ "type": "Feature", "properties": { "from_id": "b3_east_stairs_from_b2", "to_id": "platform_east_1", "kind": "walk", "distance_2d_m": 17.661453543106461, "distance_3d_m": 17.661453543106461, "cost_m": 17.661453543106461 }, "geometry": { "type": "LineString", "coordinates": [ [ 128.690075106214294, -135.124578861525009, -12.0 ], [ 142.988972340238092, -124.757878366857753, -12.0 ] ] } },
{ "type": "Feature", "properties": { "from_id": "b3_elevator", "to_id": "platform_center", "kind": "walk", "distance_2d_m": 5.5838978743928527, "distance_3d_m": 5.5838978743928527, "cost_m": 5.5838978743928527 }, "geometry": { "type": "LineString", "coordinates": [ [ 100.950214472208103, -141.201610185985118, -12.0 ], [ 96.660545302000955, -137.626885877479168, -12.0 ] ] } },
{ "type": "Feature", "properties": { "from_id": "platform_west", "to_id": "platform_west_1", "kind": "platform_walk", "distance_2d_m": 15.477194003019669, "distance_3d_m": 15.477194003019669, "cost_m": 15.477194003019669 }, "geometry": { "type": "LineString", "coordinates": [ [ 28.597794468047621, -152.640727973204179, -12.0 ], [ 43.468647591432386, -148.351058802997045, -12.0 ] ] } },
{ "type": "Feature", "properties": { "from_id": "platform_west_1", "to_id": "platform_center_west", "kind": "platform_walk", "distance_2d_m": 23.582345450292951, "distance_3d_m": 23.582345450292951, "cost_m": 23.582345450292951 }, "geometry": { "type": "LineString", "coordinates": [ [ 43.468647591432386, -148.351058802997045, -12.0 ], [ 66.34688316587048, -142.631499909387514, -12.0 ] ] } },
{ "type": "Feature", "properties": { "from_id": "platform_center_west", "to_id": "platform_center", "kind": "platform_walk", "distance_2d_m": 30.724001590154955, "distance_3d_m": 30.724001590154955, "cost_m": 30.724001590154955 }, "geometry": { "type": "LineString", "coordinates": [ [ 66.34688316587048, -142.631499909387514, -12.0 ], [ 96.660545302000955, -137.626885877479168, -12.0 ] ] } },
{ "type": "Feature", "properties": { "from_id": "platform_center", "to_id": "platform_center_east", "kind": "platform_walk", "distance_2d_m": 24.316955365874691, "distance_3d_m": 24.316955365874691, "cost_m": 24.316955365874691 }, "geometry": { "type": "LineString", "coordinates": [ [ 96.660545302000955, -137.626885877479168, -12.0 ], [ 120.110736765800013, -131.192382122168453, -12.0 ] ] } },
{ "type": "Feature", "properties": { "from_id": "platform_center_east", "to_id": "platform_east_1", "kind": "platform_walk", "distance_2d_m": 23.765868416209653, "distance_3d_m": 23.765868416209653, "cost_m": 23.765868416209653 }, "geometry": { "type": "LineString", "coordinates": [ [ 120.110736765800013, -131.192382122168453, -12.0 ], [ 142.988972340238092, -124.757878366857753, -12.0 ] ] } },
{ "type": "Feature", "properties": { "from_id": "platform_east_1", "to_id": "platform_east", "kind": "platform_walk", "distance_2d_m": 21.032506474964144, "distance_3d_m": 21.032506474964144, "cost_m": 21.032506474964144 }, "geometry": { "type": "LineString", "coordinates": [ [ 142.988972340238092, -124.757878366857753, -12.0 ], [ 163.579384357232385, -120.468209196650605, -12.0 ] ] } },
{ "type": "Feature", "properties": { "from_id": "platform_west", "to_id": "platform_red_west_exit", "kind": "tunnel_evacuation", "distance_2d_m": 15.199936255898137, "distance_3d_m": 15.199936255898137, "cost_m": 15.199936255898137 }, "geometry": { "type": "LineString", "coordinates": [ [ 28.597794468047621, -152.640727973204179, -12.0 ], [ 18.588566404230953, -164.07984576042324, -12.0 ] ] } },
{ "type": "Feature", "properties": { "from_id": "platform_east", "to_id": "platform_red_east_exit", "kind": "tunnel_evacuation", "distance_2d_m": 18.720227442974004, "distance_3d_m": 18.720227442974004, "cost_m": 18.720227442974004 }, "geometry": { "type": "LineString", "coordinates": [ [ 163.579384357232385, -120.468209196650605, -12.0 ], [ 181.881972816782877, -124.400405936007147, -12.0 ] ] } }
]
}
