{
"type": "FeatureCollection",
"name": "장승배기역(7호선)역_local_metric_nodes",
"features": [
{ "type": "Feature", "properties": { "id": "exit_1_connection", "kind": "entrance_connection", "floor": "B1", "z_m": -4.0 }, "geometry": { "type": "Point", "coordinates": [ 75.784155340326194, -63.987565122256555, -4.0 ] } },
{ "type": "Feature", "properties": { "id": "exit_2_connection", "kind": "entrance_connection", "floor": "B1", "z_m": -4.0 }, "geometry": { "type": "Point", "coordinates": [ 112.103354314746667, -57.910533797796433, -4.0 ] } },
{ "type": "Feature", "properties": { "id": "exit_3_connection", "kind": "entrance_connection", "floor": "B1", "z_m": -4.0 }, "geometry": { "type": "Point", "coordinates": [ 172.559091820199342, -45.756471148876194, -4.0 ] } },
{ "type": "Feature", "properties": { "id": "exit_4_connection", "kind": "entrance_connection", "floor": "B1", "z_m": -4.0 }, "geometry": { "type": "Point", "coordinates": [ 181.138430160613638, -50.546601722274175, -4.0 ] } },
{ "type": "Feature", "properties": { "id": "exit_5_connection", "kind": "entrance_connection", "floor": "B2", "z_m": -8.0 }, "geometry": { "type": "Point", "coordinates": [ 69.092271434803052, -95.44513903710893, -8.0 ] } },
{ "type": "Feature", "properties": { "id": "exit_6_connection", "kind": "entrance_connection", "floor": "B1", "z_m": -4.0 }, "geometry": { "type": "Point", "coordinates": [ 15.500004601681811, -88.081206961586673, -4.0 ] } },
{ "type": "Feature", "properties": { "id": "b1_west_entry_turn", "kind": "route_turn", "floor": "B1", "z_m": -4.0 }, "geometry": { "type": "Point", "coordinates": [ 35.461265140379048, -90.440525005200598, -4.0 ] } },
{ "type": "Feature", "properties": { "id": "b1_west_loop_1", "kind": "route_turn", "floor": "B1", "z_m": -4.0 }, "geometry": { "type": "Point", "coordinates": [ 41.466801978669054, -85.793383404142872, -4.0 ] } },
{ "type": "Feature", "properties": { "id": "b1_west_loop_2", "kind": "route_turn", "floor": "B1", "z_m": -4.0 }, "geometry": { "type": "Point", "coordinates": [ 46.042449093556669, -91.155469866901782, -4.0 ] } },
{ "type": "Feature", "properties": { "id": "b1_west_hall", "kind": "hall", "floor": "B1", "z_m": -4.0 }, "geometry": { "type": "Point", "coordinates": [ 51.762007987166193, -86.508328265844057, -4.0 ] } },
{ "type": "Feature", "properties": { "id": "b1_mid_1", "kind": "route_turn", "floor": "B1", "z_m": -4.0 }, "geometry": { "type": "Point", "coordinates": [ 64.631015497787629, -86.15085583499345, -4.0 ] } },
{ "type": "Feature", "properties": { "id": "b1_mid_2", "kind": "route_turn", "floor": "B1", "z_m": -4.0 }, "geometry": { "type": "Point", "coordinates": [ 79.501868621172392, -84.006021249889898, -4.0 ] } },
{ "type": "Feature", "properties": { "id": "b1_center_hall", "kind": "hall", "floor": "B1", "z_m": -4.0 }, "geometry": { "type": "Point", "coordinates": [ 91.798920242432857, -77.928989925429761, -4.0 ] } },
{ "type": "Feature", "properties": { "id": "b1_center_split", "kind": "route_turn", "floor": "B1", "z_m": -4.0 }, "geometry": { "type": "Point", "coordinates": [ 100.664236527527621, -76.141627771176786, -4.0 ] } },
{ "type": "Feature", "properties": { "id": "b1_east_1", "kind": "route_turn", "floor": "B1", "z_m": -4.0 }, "geometry": { "type": "Point", "coordinates": [ 113.819221982829532, -73.281848324372035, -4.0 ] } },
{ "type": "Feature", "properties": { "id": "b1_east_2", "kind": "route_turn", "floor": "B1", "z_m": -4.0 }, "geometry": { "type": "Point", "coordinates": [ 127.832141272172862, -70.42206887756727, -4.0 ] } },
{ "type": "Feature", "properties": { "id": "b1_east_hall", "kind": "hall", "floor": "B1", "z_m": -4.0 }, "geometry": { "type": "Point", "coordinates": [ 139.843214948752859, -70.779541308417862, -4.0 ] } },
{ "type": "Feature", "properties": { "id": "b1_east_bend", "kind": "route_turn", "floor": "B1", "z_m": -4.0 }, "geometry": { "type": "Point", "coordinates": [ 152.426244514693821, -76.141627771176786, -4.0 ] } },
{ "type": "Feature", "properties": { "id": "b1_east_stairs_to_b2", "kind": "stairs_start", "floor": "B1", "z_m": -4.0 }, "geometry": { "type": "Point", "coordinates": [ 161.577538744469052, -72.566903462670837, -4.0 ] } },
{ "type": "Feature", "properties": { "id": "b1_exit1_branch", "kind": "route_turn", "floor": "B1", "z_m": -4.0 }, "geometry": { "type": "Point", "coordinates": [ 78.643934787130959, -70.779541308417862, -4.0 ] } },
{ "type": "Feature", "properties": { "id": "b1_exit2_branch", "kind": "route_turn", "floor": "B1", "z_m": -4.0 }, "geometry": { "type": "Point", "coordinates": [ 112.38933225942715, -67.919761861613097, -4.0 ] } },
{ "type": "Feature", "properties": { "id": "b1_exit3_branch", "kind": "route_turn", "floor": "B1", "z_m": -4.0 }, "geometry": { "type": "Point", "coordinates": [ 163.579384357232385, -60.770313244601191, -4.0 ] } },
{ "type": "Feature", "properties": { "id": "b1_exit4_branch", "kind": "route_turn", "floor": "B1", "z_m": -4.0 }, "geometry": { "type": "Point", "coordinates": [ 174.160568310410014, -62.557675398854172, -4.0 ] } },
{ "type": "Feature", "properties": { "id": "b1_west_stairs_to_b2", "kind": "stairs_start", "floor": "B1", "z_m": -4.0 }, "geometry": { "type": "Point", "coordinates": [ 50.046140319083335, -91.155469866901782, -4.0 ] } },
{ "type": "Feature", "properties": { "id": "b1_b2_west_stair_landing_1", "kind": "stairs_landing", "floor": "B1-B2", "z_m": -6.0 }, "geometry": { "type": "Point", "coordinates": [ 52.047985931846668, -97.232501191361905, -6.0 ] } },
{ "type": "Feature", "properties": { "id": "b1_b2_west_stair_landing_2", "kind": "stairs_landing", "floor": "B1-B2", "z_m": -6.0 }, "geometry": { "type": "Point", "coordinates": [ 54.907765378651433, -103.667004946672634, -6.0 ] } },
{ "type": "Feature", "properties": { "id": "b2_west_stairs_from_b1", "kind": "stairs_end", "floor": "B2", "z_m": -8.0 }, "geometry": { "type": "Point", "coordinates": [ 59.197434548858574, -108.31414654773036, -8.0 ] } },
{ "type": "Feature", "properties": { "id": "b2_west_hall", "kind": "hall", "floor": "B2", "z_m": -8.0 }, "geometry": { "type": "Point", "coordinates": [ 59.769390438219524, -111.173925994535125, -8.0 ] } },
{ "type": "Feature", "properties": { "id": "b2_exit5_stair_top", "kind": "stairs_start", "floor": "B2", "z_m": -8.0 }, "geometry": { "type": "Point", "coordinates": [ 68.348728778633813, -99.377335776465486, -8.0 ] } },
{ "type": "Feature", "properties": { "id": "b2_exit5_stair_landing", "kind": "stairs_landing", "floor": "B2", "z_m": -8.0 }, "geometry": { "type": "Point", "coordinates": [ 66.34688316587048, -103.309532515822028, -8.0 ] } },
{ "type": "Feature", "properties": { "id": "b2_exit5_stair_bottom", "kind": "stairs_end", "floor": "B2", "z_m": -8.0 }, "geometry": { "type": "Point", "coordinates": [ 63.487103719065715, -107.599201686029176, -8.0 ] } },
{ "type": "Feature", "properties": { "id": "b2_exit5_corridor_join", "kind": "route_turn", "floor": "B2", "z_m": -8.0 }, "geometry": { "type": "Point", "coordinates": [ 60.913302216941432, -111.888870856236323, -8.0 ] } },
{ "type": "Feature", "properties": { "id": "b2_west_path_0", "kind": "route_turn", "floor": "B2", "z_m": -8.0 }, "geometry": { "type": "Point", "coordinates": [ 56.051677157373334, -119.038319473248208, -8.0 ] } },
{ "type": "Feature", "properties": { "id": "b2_west_path_1", "kind": "route_turn", "floor": "B2", "z_m": -8.0 }, "geometry": { "type": "Point", "coordinates": [ 52.047985931846668, -126.90271295196132, -8.0 ] } },
{ "type": "Feature", "properties": { "id": "b2_west_path_2", "kind": "route_turn", "floor": "B2", "z_m": -8.0 }, "geometry": { "type": "Point", "coordinates": [ 56.051677157373334, -135.839523723226193, -8.0 ] } },
{ "type": "Feature", "properties": { "id": "b2_center_path_0", "kind": "route_turn", "floor": "B2", "z_m": -8.0 }, "geometry": { "type": "Point", "coordinates": [ 64.916993442468097, -136.1969961540768, -8.0 ] } },
{ "type": "Feature", "properties": { "id": "b2_center_path_1", "kind": "route_turn", "floor": "B2", "z_m": -8.0 }, "geometry": { "type": "Point", "coordinates": [ 72.352420004160479, -136.1969961540768, -8.0 ] } },
{ "type": "Feature", "properties": { "id": "b2_center_path_2", "kind": "route_turn", "floor": "B2", "z_m": -8.0 }, "geometry": { "type": "Point", "coordinates": [ 83.505559846699057, -134.052161568973219, -8.0 ] } },
{ "type": "Feature", "properties": { "id": "b2_center_hall", "kind": "hall", "floor": "B2", "z_m": -8.0 }, "geometry": { "type": "Point", "coordinates": [ 95.230655578598572, -131.907326983869638, -8.0 ] } },
{ "type": "Feature", "properties": { "id": "b2_information", "kind": "information", "floor": "B2", "z_m": -8.0 }, "geometry": { "type": "Point", "coordinates": [ 98.090435025403337, -140.486665324283933, -8.0 ] } },
{ "type": "Feature", "properties": { "id": "b2_elevator", "kind": "elevator", "floor": "B2", "z_m": -8.0 }, "geometry": { "type": "Point", "coordinates": [ 96.946523246681437, -115.463595164742273, -8.0 ] } },
{ "type": "Feature", "properties": { "id": "b2_center_stairs_to_b3", "kind": "stairs_start", "floor": "B2", "z_m": -8.0 }, "geometry": { "type": "Point", "coordinates": [ 93.80076585519619, -129.047547537064901, -8.0 ] } },
{ "type": "Feature", "properties": { "id": "b2_east_path_1", "kind": "route_turn", "floor": "B2", "z_m": -8.0 }, "geometry": { "type": "Point", "coordinates": [ 108.957596923261434, -128.690075106214294, -8.0 ] } },
{ "type": "Feature", "properties": { "id": "b2_east_hall", "kind": "hall", "floor": "B2", "z_m": -8.0 }, "geometry": { "type": "Point", "coordinates": [ 130.691920718977627, -123.327988643455356, -8.0 ] } },
{ "type": "Feature", "properties": { "id": "b2_east_path_2", "kind": "route_turn", "floor": "B2", "z_m": -8.0 }, "geometry": { "type": "Point", "coordinates": [ 144.418862063640489, -117.60842974984584, -8.0 ] } },
{ "type": "Feature", "properties": { "id": "b2_east_stairs_to_b3", "kind": "stairs_start", "floor": "B2", "z_m": -8.0 }, "geometry": { "type": "Point", "coordinates": [ 137.555391391309058, -116.178540026443471, -8.0 ] } },
{ "type": "Feature", "properties": { "id": "b2_east_stairs_from_b1", "kind": "stairs_end", "floor": "B2", "z_m": -8.0 }, "geometry": { "type": "Point", "coordinates": [ 148.422553289167155, -97.947446053063089, -8.0 ] } },
{ "type": "Feature", "properties": { "id": "b2_east_from_b1_turn", "kind": "route_turn", "floor": "B2", "z_m": -8.0 }, "geometry": { "type": "Point", "coordinates": [ 143.274950284918589, -103.667004946672634, -8.0 ] } },
{ "type": "Feature", "properties": { "id": "b3_center_stairs_from_b2", "kind": "stairs_end", "floor": "B3", "z_m": -12.0 }, "geometry": { "type": "Point", "coordinates": [ 87.223273127545241, -145.848751787042886, -12.0 ] } },
{ "type": "Feature", "properties": { "id": "b3_east_stairs_from_b2", "kind": "stairs_end", "floor": "B3", "z_m": -12.0 }, "geometry": { "type": "Point", "coordinates": [ 128.690075106214294, -135.124578861525009, -12.0 ] } },
{ "type": "Feature", "properties": { "id": "b3_elevator", "kind": "elevator", "floor": "B3", "z_m": -12.0 }, "geometry": { "type": "Point", "coordinates": [ 100.950214472208103, -141.201610185985118, -12.0 ] } },
{ "type": "Feature", "properties": { "id": "platform_west", "kind": "platform", "floor": "B3", "z_m": -12.0 }, "geometry": { "type": "Point", "coordinates": [ 28.597794468047621, -152.640727973204179, -12.0 ] } },
{ "type": "Feature", "properties": { "id": "platform_west_1", "kind": "platform_turn", "floor": "B3", "z_m": -12.0 }, "geometry": { "type": "Point", "coordinates": [ 43.468647591432386, -148.351058802997045, -12.0 ] } },
{ "type": "Feature", "properties": { "id": "platform_center_west", "kind": "platform_turn", "floor": "B3", "z_m": -12.0 }, "geometry": { "type": "Point", "coordinates": [ 66.34688316587048, -142.631499909387514, -12.0 ] } },
{ "type": "Feature", "properties": { "id": "platform_center", "kind": "platform", "floor": "B3", "z_m": -12.0 }, "geometry": { "type": "Point", "coordinates": [ 96.660545302000955, -137.626885877479168, -12.0 ] } },
{ "type": "Feature", "properties": { "id": "platform_center_east", "kind": "platform_turn", "floor": "B3", "z_m": -12.0 }, "geometry": { "type": "Point", "coordinates": [ 120.110736765800013, -131.192382122168453, -12.0 ] } },
{ "type": "Feature", "properties": { "id": "platform_east_1", "kind": "platform_turn", "floor": "B3", "z_m": -12.0 }, "geometry": { "type": "Point", "coordinates": [ 142.988972340238092, -124.757878366857753, -12.0 ] } },
{ "type": "Feature", "properties": { "id": "platform_east", "kind": "platform", "floor": "B3", "z_m": -12.0 }, "geometry": { "type": "Point", "coordinates": [ 163.579384357232385, -120.468209196650605, -12.0 ] } },
{ "type": "Feature", "properties": { "id": "platform_red_west_exit", "kind": "tunnel_evacuation", "floor": "B3", "z_m": -12.0 }, "geometry": { "type": "Point", "coordinates": [ 18.588566404230953, -164.07984576042324, -12.0 ] } },
{ "type": "Feature", "properties": { "id": "platform_red_east_exit", "kind": "tunnel_evacuation", "floor": "B3", "z_m": -12.0 }, "geometry": { "type": "Point", "coordinates": [ 181.881972816782877, -124.400405936007147, -12.0 ] } }
]
}
