{
"type": "FeatureCollection",
"name": "숭실대입구(살피재)역_local_metric_nodes",
"features": [
{ "type": "Feature", "properties": { "id": "clicked_001", "kind": "route_turn", "floor": "B1", "z_m": -4.0 }, "geometry": { "type": "Point", "coordinates": [ 25.932987240548417, -71.871937757614617, -4.0 ] } },
{ "type": "Feature", "properties": { "id": "clicked_002", "kind": "route_turn", "floor": "B1", "z_m": -4.0 }, "geometry": { "type": "Point", "coordinates": [ 40.019150226361624, -81.038779208382294, -4.0 ] } },
{ "type": "Feature", "properties": { "id": "clicked_003", "kind": "hall", "floor": "B1", "z_m": -4.0 }, "geometry": { "type": "Point", "coordinates": [ 53.888603012393091, -83.476768955926886, -4.0 ] } },
{ "type": "Feature", "properties": { "id": "clicked_004", "kind": "hall", "floor": "B1", "z_m": -4.0 }, "geometry": { "type": "Point", "coordinates": [ 63.929508935613789, -83.184210186221549, -4.0 ] } },
{ "type": "Feature", "properties": { "id": "clicked_005", "kind": "route_turn", "floor": "B1", "z_m": -4.0 }, "geometry": { "type": "Point", "coordinates": [ 69.347263930157339, -77.333034792114518, -4.0 ] } },
{ "type": "Feature", "properties": { "id": "clicked_006", "kind": "route_turn", "floor": "B1", "z_m": -4.0 }, "geometry": { "type": "Point", "coordinates": [ 75.487386257306682, -71.189300628302135, -4.0 ] } },
{ "type": "Feature", "properties": { "id": "clicked_007", "kind": "route_turn", "floor": "B1", "z_m": -4.0 }, "geometry": { "type": "Point", "coordinates": [ 80.977377985110806, -65.338125234195118, -4.0 ] } },
{ "type": "Feature", "properties": { "id": "clicked_008", "kind": "hall", "floor": "B1", "z_m": -4.0 }, "geometry": { "type": "Point", "coordinates": [ 55.69452134390761, -97.324550721980174, -4.0 ] } },
{ "type": "Feature", "properties": { "id": "clicked_009", "kind": "route_turn", "floor": "B1", "z_m": -4.0 }, "geometry": { "type": "Point", "coordinates": [ 58.656227407591409, -118.193742960961913, -4.0 ] } },
{ "type": "Feature", "properties": { "id": "clicked_010", "kind": "route_turn", "floor": "B1", "z_m": -4.0 }, "geometry": { "type": "Point", "coordinates": [ 46.592692953074454, -118.486301730667265, -4.0 ] } },
{ "type": "Feature", "properties": { "id": "clicked_011", "kind": "route_turn", "floor": "B1", "z_m": -4.0 }, "geometry": { "type": "Point", "coordinates": [ 31.13403203531022, -109.026901510194236, -4.0 ] } },
{ "type": "Feature", "properties": { "id": "clicked_012", "kind": "stairs_start", "floor": "B1", "z_m": -4.0 }, "geometry": { "type": "Point", "coordinates": [ 65.302006867564828, -117.901184191256561, -4.0 ] } },
{ "type": "Feature", "properties": { "id": "clicked_013", "kind": "route_turn", "floor": "B1", "z_m": -4.0 }, "geometry": { "type": "Point", "coordinates": [ 80.543957585547318, -105.321157093926459, -4.0 ] } },
{ "type": "Feature", "properties": { "id": "clicked_014", "kind": "route_turn", "floor": "B1", "z_m": -4.0 }, "geometry": { "type": "Point", "coordinates": [ 61.184513071711727, -101.615412677658668, -4.0 ] } },
{ "type": "Feature", "properties": { "id": "clicked_015", "kind": "route_turn", "floor": "B1", "z_m": -4.0 }, "geometry": { "type": "Point", "coordinates": [ 73.681467925792163, -108.734342740488884, -4.0 ] } },
{ "type": "Feature", "properties": { "id": "clicked_016", "kind": "stairs_landing", "floor": "B1-B2", "z_m": -6.0 }, "geometry": { "type": "Point", "coordinates": [ 90.079206375943954, -119.168938859979747, -6.0 ] } },
{ "type": "Feature", "properties": { "id": "clicked_017", "kind": "hall", "floor": "B2", "z_m": -8.0 }, "geometry": { "type": "Point", "coordinates": [ 111.461279421075801, -116.340870752828025, -8.0 ] } },
{ "type": "Feature", "properties": { "id": "clicked_018", "kind": "information", "floor": "B2", "z_m": -8.0 }, "geometry": { "type": "Point", "coordinates": [ 104.887736694362971, -107.174029302060347, -8.0 ] } },
{ "type": "Feature", "properties": { "id": "clicked_019", "kind": "route_turn", "floor": "B2", "z_m": -8.0 }, "geometry": { "type": "Point", "coordinates": [ 110.08878148912477, -129.603534979470595, -8.0 ] } },
{ "type": "Feature", "properties": { "id": "clicked_020", "kind": "route_turn", "floor": "B2", "z_m": -8.0 }, "geometry": { "type": "Point", "coordinates": [ 104.382079561538902, -132.334083496720552, -8.0 ] } },
{ "type": "Feature", "properties": { "id": "clicked_021", "kind": "route_turn", "floor": "B2", "z_m": -8.0 }, "geometry": { "type": "Point", "coordinates": [ 95.569198103748079, -113.610322235578067, -8.0 ] } },
{ "type": "Feature", "properties": { "id": "clicked_022", "kind": "hall", "floor": "B2", "z_m": -8.0 }, "geometry": { "type": "Point", "coordinates": [ 122.585736343205198, -114.487998544694136, -8.0 ] } },
{ "type": "Feature", "properties": { "id": "clicked_023", "kind": "route_turn", "floor": "B2", "z_m": -8.0 }, "geometry": { "type": "Point", "coordinates": [ 135.805058529891454, -112.732645926462027, -8.0 ] } },
{ "type": "Feature", "properties": { "id": "clicked_024", "kind": "stairs_start", "floor": "B2", "z_m": -8.0 }, "geometry": { "type": "Point", "coordinates": [ 137.827687061187703, -117.60862542155121, -8.0 ] } },
{ "type": "Feature", "properties": { "id": "clicked_045", "kind": "route_turn", "floor": "B2", "z_m": -8.0 }, "geometry": { "type": "Point", "coordinates": [ 131.254144334474859, -106.881470532354996, -8.0 ] } },
{ "type": "Feature", "properties": { "id": "clicked_046", "kind": "route_turn", "floor": "B2", "z_m": -8.0 }, "geometry": { "type": "Point", "coordinates": [ 98.964324566995359, -119.75405639939045, -8.0 ] } },
{ "type": "Feature", "properties": { "id": "clicked_025", "kind": "stairs_landing", "floor": "B3", "z_m": -12.0 }, "geometry": { "type": "Point", "coordinates": [ 116.951271148879911, -175.632781413112554, -12.0 ] } },
{ "type": "Feature", "properties": { "id": "clicked_026", "kind": "stairs_landing", "floor": "B3", "z_m": -12.0 }, "geometry": { "type": "Point", "coordinates": [ 110.522201888688244, -175.340222643407202, -12.0 ] } },
{ "type": "Feature", "properties": { "id": "clicked_027", "kind": "stairs_landing", "floor": "B3", "z_m": -12.0 }, "geometry": { "type": "Point", "coordinates": [ 110.3054916889065, -171.049360687728694, -12.0 ] } },
{ "type": "Feature", "properties": { "id": "clicked_028", "kind": "elevator_landing", "floor": "B4", "z_m": -16.0 }, "geometry": { "type": "Point", "coordinates": [ 126.269809739494804, -167.051057501755565, -16.0 ] } },
{ "type": "Feature", "properties": { "id": "clicked_029", "kind": "stairs_landing", "floor": "B4", "z_m": -16.0 }, "geometry": { "type": "Point", "coordinates": [ 131.976511667080672, -158.761892360103957, -16.0 ] } },
{ "type": "Feature", "properties": { "id": "clicked_031", "kind": "stairs_landing", "floor": "B4", "z_m": -16.0 }, "geometry": { "type": "Point", "coordinates": [ 128.509148470572796, -173.779909204978651, -16.0 ] } },
{ "type": "Feature", "properties": { "id": "clicked_032", "kind": "stairs_landing", "floor": "B4", "z_m": -16.0 }, "geometry": { "type": "Point", "coordinates": [ 139.416895192920464, -172.317115356451893, -16.0 ] } },
{ "type": "Feature", "properties": { "id": "clicked_043", "kind": "stairs_landing", "floor": "B3-B4", "z_m": -14.0 }, "geometry": { "type": "Point", "coordinates": [ 109.438650889779538, -164.613067754210988, -14.0 ] } },
{ "type": "Feature", "properties": { "id": "clicked_044", "kind": "stairs_landing", "floor": "B3-B4", "z_m": -14.0 }, "geometry": { "type": "Point", "coordinates": [ 121.213238411254167, -160.029647028827128, -14.0 ] } },
{ "type": "Feature", "properties": { "id": "clicked_033", "kind": "elevator", "floor": "B5", "z_m": -20.0 }, "geometry": { "type": "Point", "coordinates": [ 153.069637779170193, -204.206021254335184, -20.0 ] } },
{ "type": "Feature", "properties": { "id": "clicked_034", "kind": "route_turn", "floor": "B5", "z_m": -20.0 }, "geometry": { "type": "Point", "coordinates": [ 145.123597120506332, -191.625994157005067, -20.0 ] } },
{ "type": "Feature", "properties": { "id": "clicked_035", "kind": "stairs_end", "floor": "B5", "z_m": -20.0 }, "geometry": { "type": "Point", "coordinates": [ 110.08878148912477, -195.039179803567492, -20.0 ] } },
{ "type": "Feature", "properties": { "id": "clicked_036", "kind": "route_turn", "floor": "B5", "z_m": -20.0 }, "geometry": { "type": "Point", "coordinates": [ 116.228903816274112, -209.764637878736863, -20.0 ] } },
{ "type": "Feature", "properties": { "id": "clicked_037", "kind": "platform", "floor": "B6", "z_m": -24.0 }, "geometry": { "type": "Point", "coordinates": [ 61.617933471275215, -217.176126711272417, -24.0 ] } },
{ "type": "Feature", "properties": { "id": "clicked_038", "kind": "platform_turn", "floor": "B6", "z_m": -24.0 }, "geometry": { "type": "Point", "coordinates": [ 55.477811144125866, -208.204324440308341, -24.0 ] } },
{ "type": "Feature", "properties": { "id": "clicked_039", "kind": "route_turn", "floor": "B5", "z_m": -20.0 }, "geometry": { "type": "Point", "coordinates": [ 152.636217379606705, -188.895445639755138, -20.0 ] } },
{ "type": "Feature", "properties": { "id": "clicked_040", "kind": "route_turn", "floor": "B5", "z_m": -20.0 }, "geometry": { "type": "Point", "coordinates": [ 159.932127438925335, -205.473775923058355, -20.0 ] } },
{ "type": "Feature", "properties": { "id": "clicked_041", "kind": "platform", "floor": "B6", "z_m": -24.0 }, "geometry": { "type": "Point", "coordinates": [ 197.711938934208973, -194.356542674255053, -24.0 ] } },
{ "type": "Feature", "properties": { "id": "clicked_042", "kind": "platform_turn", "floor": "B6", "z_m": -24.0 }, "geometry": { "type": "Point", "coordinates": [ 191.355106407277901, -185.189701223487361, -24.0 ] } }
]
}
