{
"type": "FeatureCollection",
"name": "숭실대입구(살피재)역_local_metric_edges",
"features": [
{ "type": "Feature", "properties": { "from_id": "clicked_001", "to_id": "clicked_002", "kind": "walk", "distance_2d_m": 16.806277691577233, "distance_3d_m": 16.806277691577233, "cost_m": 16.806277691577233 }, "geometry": { "type": "LineString", "coordinates": [ [ 25.932987240548417, -71.871937757614617, -4.0 ], [ 40.019150226361624, -81.038779208382294, -4.0 ] ] } },
{ "type": "Feature", "properties": { "from_id": "clicked_002", "to_id": "clicked_003", "kind": "walk", "distance_2d_m": 14.082099083342957, "distance_3d_m": 14.082099083342957, "cost_m": 14.082099083342957 }, "geometry": { "type": "LineString", "coordinates": [ [ 40.019150226361624, -81.038779208382294, -4.0 ], [ 53.888603012393091, -83.476768955926886, -4.0 ] ] } },
{ "type": "Feature", "properties": { "from_id": "clicked_003", "to_id": "clicked_004", "kind": "walk", "distance_2d_m": 10.045167116215639, "distance_3d_m": 10.045167116215639, "cost_m": 10.045167116215639 }, "geometry": { "type": "LineString", "coordinates": [ [ 53.888603012393091, -83.476768955926886, -4.0 ], [ 63.929508935613789, -83.184210186221549, -4.0 ] ] } },
{ "type": "Feature", "properties": { "from_id": "clicked_004", "to_id": "clicked_005", "kind": "walk", "distance_2d_m": 7.9742286569614462, "distance_3d_m": 7.9742286569614462, "cost_m": 7.9742286569614462 }, "geometry": { "type": "LineString", "coordinates": [ [ 63.929508935613789, -83.184210186221549, -4.0 ], [ 69.347263930157339, -77.333034792114518, -4.0 ] ] } },
{ "type": "Feature", "properties": { "from_id": "clicked_005", "to_id": "clicked_006", "kind": "walk", "distance_2d_m": 8.685998599352482, "distance_3d_m": 8.685998599352482, "cost_m": 8.685998599352482 }, "geometry": { "type": "LineString", "coordinates": [ [ 69.347263930157339, -77.333034792114518, -4.0 ], [ 75.487386257306682, -71.189300628302135, -4.0 ] ] } },
{ "type": "Feature", "properties": { "from_id": "clicked_006", "to_id": "clicked_007", "kind": "walk", "distance_2d_m": 8.0234819538627438, "distance_3d_m": 8.0234819538627438, "cost_m": 8.0234819538627438 }, "geometry": { "type": "LineString", "coordinates": [ [ 75.487386257306682, -71.189300628302135, -4.0 ], [ 80.977377985110806, -65.338125234195118, -4.0 ] ] } },
{ "type": "Feature", "properties": { "from_id": "clicked_011", "to_id": "clicked_010", "kind": "walk", "distance_2d_m": 18.123201977065104, "distance_3d_m": 18.123201977065104, "cost_m": 18.123201977065104 }, "geometry": { "type": "LineString", "coordinates": [ [ 31.13403203531022, -109.026901510194236, -4.0 ], [ 46.592692953074454, -118.486301730667265, -4.0 ] ] } },
{ "type": "Feature", "properties": { "from_id": "clicked_010", "to_id": "clicked_009", "kind": "walk", "distance_2d_m": 12.067081427132626, "distance_3d_m": 12.067081427132626, "cost_m": 12.067081427132626 }, "geometry": { "type": "LineString", "coordinates": [ [ 46.592692953074454, -118.486301730667265, -4.0 ], [ 58.656227407591409, -118.193742960961913, -4.0 ] ] } },
{ "type": "Feature", "properties": { "from_id": "clicked_009", "to_id": "clicked_012", "kind": "walk", "distance_2d_m": 6.6522158161274421, "distance_3d_m": 6.6522158161274421, "cost_m": 6.6522158161274421 }, "geometry": { "type": "LineString", "coordinates": [ [ 58.656227407591409, -118.193742960961913, -4.0 ], [ 65.302006867564828, -117.901184191256561, -4.0 ] ] } },
{ "type": "Feature", "properties": { "from_id": "clicked_003", "to_id": "clicked_008", "kind": "walk", "distance_2d_m": 13.965042100199272, "distance_3d_m": 13.965042100199272, "cost_m": 13.965042100199272 }, "geometry": { "type": "LineString", "coordinates": [ [ 53.888603012393091, -83.476768955926886, -4.0 ], [ 55.69452134390761, -97.324550721980174, -4.0 ] ] } },
{ "type": "Feature", "properties": { "from_id": "clicked_008", "to_id": "clicked_009", "kind": "walk", "distance_2d_m": 21.078303715319148, "distance_3d_m": 21.078303715319148, "cost_m": 21.078303715319148 }, "geometry": { "type": "LineString", "coordinates": [ [ 55.69452134390761, -97.324550721980174, -4.0 ], [ 58.656227407591409, -118.193742960961913, -4.0 ] ] } },
{ "type": "Feature", "properties": { "from_id": "clicked_008", "to_id": "clicked_014", "kind": "walk", "distance_2d_m": 6.9678910363212996, "distance_3d_m": 6.9678910363212996, "cost_m": 6.9678910363212996 }, "geometry": { "type": "LineString", "coordinates": [ [ 55.69452134390761, -97.324550721980174, -4.0 ], [ 61.184513071711727, -101.615412677658668, -4.0 ] ] } },
{ "type": "Feature", "properties": { "from_id": "clicked_009", "to_id": "clicked_014", "kind": "walk", "distance_2d_m": 16.770010834274551, "distance_3d_m": 16.770010834274551, "cost_m": 16.770010834274551 }, "geometry": { "type": "LineString", "coordinates": [ [ 58.656227407591409, -118.193742960961913, -4.0 ], [ 61.184513071711727, -101.615412677658668, -4.0 ] ] } },
{ "type": "Feature", "properties": { "from_id": "clicked_014", "to_id": "clicked_015", "kind": "walk", "distance_2d_m": 14.382386653973407, "distance_3d_m": 14.382386653973407, "cost_m": 14.382386653973407 }, "geometry": { "type": "LineString", "coordinates": [ [ 61.184513071711727, -101.615412677658668, -4.0 ], [ 73.681467925792163, -108.734342740488884, -4.0 ] ] } },
{ "type": "Feature", "properties": { "from_id": "clicked_015", "to_id": "clicked_016", "kind": "stairs", "distance_2d_m": 19.436219345759614, "distance_3d_m": 19.53884905659697, "cost_m": 19.53884905659697 }, "geometry": { "type": "LineString", "coordinates": [ [ 73.681467925792163, -108.734342740488884, -4.0 ], [ 90.079206375943954, -119.168938859979747, -6.0 ] ] } },
{ "type": "Feature", "properties": { "from_id": "clicked_012", "to_id": "clicked_013", "kind": "walk", "distance_2d_m": 19.762948754145132, "distance_3d_m": 19.762948754145132, "cost_m": 19.762948754145132 }, "geometry": { "type": "LineString", "coordinates": [ [ 65.302006867564828, -117.901184191256561, -4.0 ], [ 80.543957585547318, -105.321157093926459, -4.0 ] ] } },
{ "type": "Feature", "properties": { "from_id": "clicked_016", "to_id": "clicked_046", "kind": "stairs", "distance_2d_m": 8.9043634137359096, "distance_3d_m": 9.1262088406894684, "cost_m": 9.1262088406894684 }, "geometry": { "type": "LineString", "coordinates": [ [ 90.079206375943954, -119.168938859979747, -6.0 ], [ 98.964324566995359, -119.75405639939045, -8.0 ] ] } },
{ "type": "Feature", "properties": { "from_id": "clicked_046", "to_id": "clicked_021", "kind": "walk", "distance_2d_m": 7.0194268410631233, "distance_3d_m": 7.0194268410631233, "cost_m": 7.0194268410631233 }, "geometry": { "type": "LineString", "coordinates": [ [ 98.964324566995359, -119.75405639939045, -8.0 ], [ 95.569198103748079, -113.610322235578067, -8.0 ] ] } },
{ "type": "Feature", "properties": { "from_id": "clicked_046", "to_id": "clicked_020", "kind": "walk", "distance_2d_m": 13.697048986933687, "distance_3d_m": 13.697048986933687, "cost_m": 13.697048986933687 }, "geometry": { "type": "LineString", "coordinates": [ [ 98.964324566995359, -119.75405639939045, -8.0 ], [ 104.382079561538902, -132.334083496720552, -8.0 ] ] } },
{ "type": "Feature", "properties": { "from_id": "clicked_046", "to_id": "clicked_019", "kind": "walk", "distance_2d_m": 14.858188655141332, "distance_3d_m": 14.858188655141332, "cost_m": 14.858188655141332 }, "geometry": { "type": "LineString", "coordinates": [ [ 98.964324566995359, -119.75405639939045, -8.0 ], [ 110.08878148912477, -129.603534979470595, -8.0 ] ] } },
{ "type": "Feature", "properties": { "from_id": "clicked_021", "to_id": "clicked_017", "kind": "walk", "distance_2d_m": 16.12495407130243, "distance_3d_m": 16.12495407130243, "cost_m": 16.12495407130243 }, "geometry": { "type": "LineString", "coordinates": [ [ 95.569198103748079, -113.610322235578067, -8.0 ], [ 111.461279421075801, -116.340870752828025, -8.0 ] ] } },
{ "type": "Feature", "properties": { "from_id": "clicked_017", "to_id": "clicked_022", "kind": "walk", "distance_2d_m": 11.277707091070756, "distance_3d_m": 11.277707091070756, "cost_m": 11.277707091070756 }, "geometry": { "type": "LineString", "coordinates": [ [ 111.461279421075801, -116.340870752828025, -8.0 ], [ 122.585736343205198, -114.487998544694136, -8.0 ] ] } },
{ "type": "Feature", "properties": { "from_id": "clicked_017", "to_id": "clicked_018", "kind": "walk", "distance_2d_m": 11.280179349790126, "distance_3d_m": 11.280179349790126, "cost_m": 11.280179349790126 }, "geometry": { "type": "LineString", "coordinates": [ [ 111.461279421075801, -116.340870752828025, -8.0 ], [ 104.887736694362971, -107.174029302060347, -8.0 ] ] } },
{ "type": "Feature", "properties": { "from_id": "clicked_017", "to_id": "clicked_019", "kind": "walk", "distance_2d_m": 13.333492151791084, "distance_3d_m": 13.333492151791084, "cost_m": 13.333492151791084 }, "geometry": { "type": "LineString", "coordinates": [ [ 111.461279421075801, -116.340870752828025, -8.0 ], [ 110.08878148912477, -129.603534979470595, -8.0 ] ] } },
{ "type": "Feature", "properties": { "from_id": "clicked_022", "to_id": "clicked_045", "kind": "walk", "distance_2d_m": 11.532587112422249, "distance_3d_m": 11.532587112422249, "cost_m": 11.532587112422249 }, "geometry": { "type": "LineString", "coordinates": [ [ 122.585736343205198, -114.487998544694136, -8.0 ], [ 131.254144334474859, -106.881470532354996, -8.0 ] ] } },
{ "type": "Feature", "properties": { "from_id": "clicked_022", "to_id": "clicked_023", "kind": "walk", "distance_2d_m": 13.335356833986475, "distance_3d_m": 13.335356833986475, "cost_m": 13.335356833986475 }, "geometry": { "type": "LineString", "coordinates": [ [ 122.585736343205198, -114.487998544694136, -8.0 ], [ 135.805058529891454, -112.732645926462027, -8.0 ] ] } },
{ "type": "Feature", "properties": { "from_id": "clicked_022", "to_id": "clicked_024", "kind": "walk", "distance_2d_m": 15.558128865450694, "distance_3d_m": 15.558128865450694, "cost_m": 15.558128865450694 }, "geometry": { "type": "LineString", "coordinates": [ [ 122.585736343205198, -114.487998544694136, -8.0 ], [ 137.827687061187703, -117.60862542155121, -8.0 ] ] } },
{ "type": "Feature", "properties": { "from_id": "clicked_045", "to_id": "clicked_023", "kind": "walk", "distance_2d_m": 7.4126293247840103, "distance_3d_m": 7.4126293247840103, "cost_m": 7.4126293247840103 }, "geometry": { "type": "LineString", "coordinates": [ [ 131.254144334474859, -106.881470532354996, -8.0 ], [ 135.805058529891454, -112.732645926462027, -8.0 ] ] } },
{ "type": "Feature", "properties": { "from_id": "clicked_023", "to_id": "clicked_024", "kind": "walk", "distance_2d_m": 5.2788447800767724, "distance_3d_m": 5.2788447800767724, "cost_m": 5.2788447800767724 }, "geometry": { "type": "LineString", "coordinates": [ [ 135.805058529891454, -112.732645926462027, -8.0 ], [ 137.827687061187703, -117.60862542155121, -8.0 ] ] } },
{ "type": "Feature", "properties": { "from_id": "clicked_024", "to_id": "clicked_025", "kind": "stairs", "distance_2d_m": 61.665447536498931, "distance_3d_m": 61.79504365138601, "cost_m": 61.79504365138601 }, "geometry": { "type": "LineString", "coordinates": [ [ 137.827687061187703, -117.60862542155121, -8.0 ], [ 116.951271148879911, -175.632781413112554, -12.0 ] ] } },
{ "type": "Feature", "properties": { "from_id": "clicked_029", "to_id": "clicked_044", "kind": "stairs", "distance_2d_m": 10.837677476270434, "distance_3d_m": 11.020673894080138, "cost_m": 11.020673894080138 }, "geometry": { "type": "LineString", "coordinates": [ [ 131.976511667080672, -158.761892360103957, -16.0 ], [ 121.213238411254167, -160.029647028827128, -14.0 ] ] } },
{ "type": "Feature", "properties": { "from_id": "clicked_029", "to_id": "clicked_034", "kind": "stairs", "distance_2d_m": 35.396257469353387, "distance_3d_m": 35.621553066040725, "cost_m": 35.621553066040725 }, "geometry": { "type": "LineString", "coordinates": [ [ 131.976511667080672, -158.761892360103957, -16.0 ], [ 145.123597120506332, -191.625994157005067, -20.0 ] ] } },
{ "type": "Feature", "properties": { "from_id": "clicked_043", "to_id": "clicked_027", "kind": "stairs", "distance_2d_m": 6.4944037214421018, "distance_3d_m": 6.7953866480930296, "cost_m": 6.7953866480930296 }, "geometry": { "type": "LineString", "coordinates": [ [ 109.438650889779538, -164.613067754210988, -14.0 ], [ 110.3054916889065, -171.049360687728694, -12.0 ] ] } },
{ "type": "Feature", "properties": { "from_id": "clicked_043", "to_id": "clicked_045", "kind": "walk", "distance_2d_m": 61.715906150863205, "distance_3d_m": 62.006879231438141, "cost_m": 62.006879231438141 }, "geometry": { "type": "LineString", "coordinates": [ [ 109.438650889779538, -164.613067754210988, -14.0 ], [ 131.254144334474859, -106.881470532354996, -8.0 ] ] } },
{ "type": "Feature", "properties": { "from_id": "clicked_027", "to_id": "clicked_028", "kind": "walk", "distance_2d_m": 16.457395881101675, "distance_3d_m": 16.936525003296939, "cost_m": 16.936525003296939 }, "geometry": { "type": "LineString", "coordinates": [ [ 110.3054916889065, -171.049360687728694, -12.0 ], [ 126.269809739494804, -167.051057501755565, -16.0 ] ] } },
{ "type": "Feature", "properties": { "from_id": "clicked_028", "to_id": "clicked_029", "kind": "walk", "distance_2d_m": 10.063632824973514, "distance_3d_m": 10.063632824973514, "cost_m": 10.063632824973514 }, "geometry": { "type": "LineString", "coordinates": [ [ 126.269809739494804, -167.051057501755565, -16.0 ], [ 131.976511667080672, -158.761892360103957, -16.0 ] ] } },
{ "type": "Feature", "properties": { "from_id": "clicked_028", "to_id": "clicked_031", "kind": "walk", "distance_2d_m": 7.0916911379778957, "distance_3d_m": 7.0916911379778957, "cost_m": 7.0916911379778957 }, "geometry": { "type": "LineString", "coordinates": [ [ 126.269809739494804, -167.051057501755565, -16.0 ], [ 128.509148470572796, -173.779909204978651, -16.0 ] ] } },
{ "type": "Feature", "properties": { "from_id": "clicked_028", "to_id": "clicked_044", "kind": "walk", "distance_2d_m": 8.6526942987103403, "distance_3d_m": 8.8808287128473786, "cost_m": 8.8808287128473786 }, "geometry": { "type": "LineString", "coordinates": [ [ 126.269809739494804, -167.051057501755565, -16.0 ], [ 121.213238411254167, -160.029647028827128, -14.0 ] ] } },
{ "type": "Feature", "properties": { "from_id": "clicked_027", "to_id": "clicked_026", "kind": "stairs", "distance_2d_m": 4.2963309501688345, "distance_3d_m": 4.2963309501688345, "cost_m": 4.2963309501688345 }, "geometry": { "type": "LineString", "coordinates": [ [ 110.3054916889065, -171.049360687728694, -12.0 ], [ 110.522201888688244, -175.340222643407202, -12.0 ] ] } },
{ "type": "Feature", "properties": { "from_id": "clicked_028", "to_id": "clicked_032", "kind": "walk", "distance_2d_m": 14.162528773092943, "distance_3d_m": 14.162528773092943, "cost_m": 14.162528773092943 }, "geometry": { "type": "LineString", "coordinates": [ [ 126.269809739494804, -167.051057501755565, -16.0 ], [ 139.416895192920464, -172.317115356451893, -16.0 ] ] } },
{ "type": "Feature", "properties": { "from_id": "clicked_026", "to_id": "clicked_025", "kind": "stairs", "distance_2d_m": 6.4357223515370006, "distance_3d_m": 6.4357223515370006, "cost_m": 6.4357223515370006 }, "geometry": { "type": "LineString", "coordinates": [ [ 110.522201888688244, -175.340222643407202, -12.0 ], [ 116.951271148879911, -175.632781413112554, -12.0 ] ] } },
{ "type": "Feature", "properties": { "from_id": "clicked_031", "to_id": "clicked_032", "kind": "stairs", "distance_2d_m": 11.005394331970754, "distance_3d_m": 11.005394331970754, "cost_m": 11.005394331970754 }, "geometry": { "type": "LineString", "coordinates": [ [ 128.509148470572796, -173.779909204978651, -16.0 ], [ 139.416895192920464, -172.317115356451893, -16.0 ] ] } },
{ "type": "Feature", "properties": { "from_id": "clicked_031", "to_id": "clicked_036", "kind": "stairs", "distance_2d_m": 38.02242899254896, "distance_3d_m": 38.232252176577667, "cost_m": 38.232252176577667 }, "geometry": { "type": "LineString", "coordinates": [ [ 128.509148470572796, -173.779909204978651, -16.0 ], [ 116.228903816274112, -209.764637878736863, -20.0 ] ] } },
{ "type": "Feature", "properties": { "from_id": "clicked_032", "to_id": "clicked_033", "kind": "walk", "distance_2d_m": 34.688610515419214, "distance_3d_m": 34.918472181503773, "cost_m": 34.918472181503773 }, "geometry": { "type": "LineString", "coordinates": [ [ 139.416895192920464, -172.317115356451893, -16.0 ], [ 153.069637779170193, -204.206021254335184, -20.0 ] ] } },
{ "type": "Feature", "properties": { "from_id": "clicked_034", "to_id": "clicked_039", "kind": "walk", "distance_2d_m": 7.9934572221599547, "distance_3d_m": 7.9934572221599547, "cost_m": 7.9934572221599547 }, "geometry": { "type": "LineString", "coordinates": [ [ 145.123597120506332, -191.625994157005067, -20.0 ], [ 152.636217379606705, -188.895445639755138, -20.0 ] ] } },
{ "type": "Feature", "properties": { "from_id": "clicked_034", "to_id": "clicked_042", "kind": "platform_walk", "distance_2d_m": 46.677385505819579, "distance_3d_m": 46.848461209082373, "cost_m": 46.848461209082373 }, "geometry": { "type": "LineString", "coordinates": [ [ 145.123597120506332, -191.625994157005067, -20.0 ], [ 191.355106407277901, -185.189701223487361, -24.0 ] ] } },
{ "type": "Feature", "properties": { "from_id": "clicked_040", "to_id": "clicked_033", "kind": "walk", "distance_2d_m": 6.9786077573048644, "distance_3d_m": 6.9786077573048644, "cost_m": 6.9786077573048644 }, "geometry": { "type": "LineString", "coordinates": [ [ 159.932127438925335, -205.473775923058355, -20.0 ], [ 153.069637779170193, -204.206021254335184, -20.0 ] ] } },
{ "type": "Feature", "properties": { "from_id": "clicked_034", "to_id": "clicked_035", "kind": "walk", "distance_2d_m": 35.200683836863135, "distance_3d_m": 35.200683836863135, "cost_m": 35.200683836863135 }, "geometry": { "type": "LineString", "coordinates": [ [ 145.123597120506332, -191.625994157005067, -20.0 ], [ 110.08878148912477, -195.039179803567492, -20.0 ] ] } },
{ "type": "Feature", "properties": { "from_id": "clicked_036", "to_id": "clicked_033", "kind": "walk", "distance_2d_m": 37.257722658557107, "distance_3d_m": 37.257722658557107, "cost_m": 37.257722658557107 }, "geometry": { "type": "LineString", "coordinates": [ [ 116.228903816274112, -209.764637878736863, -20.0 ], [ 153.069637779170193, -204.206021254335184, -20.0 ] ] } },
{ "type": "Feature", "properties": { "from_id": "clicked_035", "to_id": "clicked_038", "kind": "platform_walk", "distance_2d_m": 56.175431598953075, "distance_3d_m": 56.317662552068477, "cost_m": 56.317662552068477 }, "geometry": { "type": "LineString", "coordinates": [ [ 110.08878148912477, -195.039179803567492, -20.0 ], [ 55.477811144125866, -208.204324440308341, -24.0 ] ] } },
{ "type": "Feature", "properties": { "from_id": "clicked_035", "to_id": "clicked_044", "kind": "stairs", "distance_2d_m": 36.7344651100017, "distance_3d_m": 37.221242952350913, "cost_m": 37.221242952350913 }, "geometry": { "type": "LineString", "coordinates": [ [ 110.08878148912477, -195.039179803567492, -20.0 ], [ 121.213238411254167, -160.029647028827128, -14.0 ] ] } },
{ "type": "Feature", "properties": { "from_id": "clicked_036", "to_id": "clicked_037", "kind": "platform_walk", "distance_2d_m": 55.111598132672114, "distance_3d_m": 55.256567471542674, "cost_m": 55.256567471542674 }, "geometry": { "type": "LineString", "coordinates": [ [ 116.228903816274112, -209.764637878736863, -20.0 ], [ 61.617933471275215, -217.176126711272417, -24.0 ] ] } },
{ "type": "Feature", "properties": { "from_id": "clicked_033", "to_id": "clicked_042", "kind": "platform_walk", "distance_2d_m": 42.748070548148064, "distance_3d_m": 42.934805642851622, "cost_m": 42.934805642851622 }, "geometry": { "type": "LineString", "coordinates": [ [ 153.069637779170193, -204.206021254335184, -20.0 ], [ 191.355106407277901, -185.189701223487361, -24.0 ] ] } },
{ "type": "Feature", "properties": { "from_id": "clicked_033", "to_id": "clicked_041", "kind": "platform_walk", "distance_2d_m": 45.715941210005006, "distance_3d_m": 45.890601224179164, "cost_m": 45.890601224179164 }, "geometry": { "type": "LineString", "coordinates": [ [ 153.069637779170193, -204.206021254335184, -20.0 ], [ 197.711938934208973, -194.356542674255053, -24.0 ] ] } }
]
}
