{
"type": "FeatureCollection",
"name": "서울대입구(관악구청)역_indoor_3d_edges",
"crs": { "type": "name", "properties": { "name": "urn:ogc:def:crs:EPSG::5179" } },
"features": [
{ "type": "Feature", "properties": { "from_id": "exit_1_connection", "to_id": "b1_west_hall", "kind": "walk", "distance_2d_m": 221.78270239524238, "distance_3d_m": 221.78270239524238 }, "geometry": { "type": "LineString", "coordinates": [ [ 951651.625000000465661, 1942552.625000000232831, -4.0 ], [ 951550.35369374754373, 1942749.936149233020842, -4.0 ] ] } },
{ "type": "Feature", "properties": { "from_id": "exit_2_connection", "to_id": "b1_center_hall", "kind": "walk", "distance_2d_m": 501.61999632537709, "distance_3d_m": 501.61999632537709 }, "geometry": { "type": "LineString", "coordinates": [ [ 951624.562500000232831, 1942540.500000000232831, -4.0 ], [ 951373.678487999131903, 1942974.872919547138736, -4.0 ] ] } },
{ "type": "Feature", "properties": { "from_id": "exit_3_connection", "to_id": "b1_center_hall", "kind": "walk", "distance_2d_m": 733.05659049468863, "distance_3d_m": 733.05659049468863 }, "geometry": { "type": "LineString", "coordinates": [ [ 950924.93375596171245, 1943554.528101820498705, -4.0 ], [ 951373.678487999131903, 1942974.872919547138736, -4.0 ] ] } },
{ "type": "Feature", "properties": { "from_id": "exit_4_connection", "to_id": "b1_east_hall", "kind": "walk", "distance_2d_m": 1209.1755758988832, "distance_3d_m": 1209.1755758988832 }, "geometry": { "type": "LineString", "coordinates": [ [ 951572.625000000465661, 1942577.124999999767169, -4.0 ], [ 950819.13960590318311, 1943522.833905653329566, -4.0 ] ] } },
{ "type": "Feature", "properties": { "from_id": "exit_5_connection", "to_id": "b1_east_hall", "kind": "walk", "distance_2d_m": 1186.1148226928319, "distance_3d_m": 1186.1148226928319 }, "geometry": { "type": "LineString", "coordinates": [ [ 951585.75, 1942617.749999999068677, -4.0 ], [ 950819.13960590318311, 1943522.833905653329566, -4.0 ] ] } },
{ "type": "Feature", "properties": { "from_id": "exit_6_connection", "to_id": "b1_east_hall", "kind": "walk", "distance_2d_m": 429.78116182891557, "distance_3d_m": 429.78116182891557 }, "geometry": { "type": "LineString", "coordinates": [ [ 951127.821492835879326, 1943223.789862504694611, -4.0 ], [ 950819.13960590318311, 1943522.833905653329566, -4.0 ] ] } },
{ "type": "Feature", "properties": { "from_id": "exit_7_connection", "to_id": "b1_center_hall", "kind": "walk", "distance_2d_m": 4525.714462601547, "distance_3d_m": 4525.714462601547 }, "geometry": { "type": "LineString", "coordinates": [ [ 953795.107672982034273, 1939151.422632291680202, -4.0 ], [ 951373.678487999131903, 1942974.872919547138736, -4.0 ] ] } },
{ "type": "Feature", "properties": { "from_id": "exit_8_connection", "to_id": "b1_west_hall", "kind": "walk", "distance_2d_m": 3883.253450279235, "distance_3d_m": 3883.253450279235 }, "geometry": { "type": "LineString", "coordinates": [ [ 949721.722762588527985, 1946175.686618358595297, -4.0 ], [ 951550.35369374754373, 1942749.936149233020842, -4.0 ] ] } },
{ "type": "Feature", "properties": { "from_id": "b1_west_hall", "to_id": "b1_center_hall", "kind": "walk", "distance_2d_m": 286.02566137602037, "distance_3d_m": 286.02566137602037 }, "geometry": { "type": "LineString", "coordinates": [ [ 951550.35369374754373, 1942749.936149233020842, -4.0 ], [ 951373.678487999131903, 1942974.872919547138736, -4.0 ] ] } },
{ "type": "Feature", "properties": { "from_id": "b1_center_hall", "to_id": "b1_east_hall", "kind": "walk", "distance_2d_m": 779.59900849776204, "distance_3d_m": 779.59900849776204 }, "geometry": { "type": "LineString", "coordinates": [ [ 951373.678487999131903, 1942974.872919547138736, -4.0 ], [ 950819.13960590318311, 1943522.833905653329566, -4.0 ] ] } },
{ "type": "Feature", "properties": { "from_id": "b1_center_hall", "to_id": "b1_information", "kind": "walk", "distance_2d_m": 3590.4933684699135, "distance_3d_m": 3590.4933684699135 }, "geometry": { "type": "LineString", "coordinates": [ [ 951373.678487999131903, 1942974.872919547138736, -4.0 ], [ 953514.939459664048627, 1940092.747995077166706, -4.0 ] ] } },
{ "type": "Feature", "properties": { "from_id": "b1_center_hall", "to_id": "b1_elevator", "kind": "walk", "distance_2d_m": 1576.6135220490403, "distance_3d_m": 1576.6135220490403 }, "geometry": { "type": "LineString", "coordinates": [ [ 951373.678487999131903, 1942974.872919547138736, -4.0 ], [ 952276.705440943595022, 1941682.490421923575923, -4.0 ] ] } },
{ "type": "Feature", "properties": { "from_id": "b1_west_hall", "to_id": "b1_west_stairs_to_b2", "kind": "walk", "distance_2d_m": 2444.7703662162562, "distance_3d_m": 2444.7703662162562 }, "geometry": { "type": "LineString", "coordinates": [ [ 951550.35369374754373, 1942749.936149233020842, -4.0 ], [ 952673.768022247357294, 1940578.567366632865742, -4.0 ] ] } },
{ "type": "Feature", "properties": { "from_id": "b1_center_hall", "to_id": "b1_center_stairs_to_b2", "kind": "walk", "distance_2d_m": 1358.7620668432278, "distance_3d_m": 1358.7620668432278 }, "geometry": { "type": "LineString", "coordinates": [ [ 951373.678487999131903, 1942974.872919547138736, -4.0 ], [ 952086.813458060962148, 1941818.294833654537797, -4.0 ] ] } },
{ "type": "Feature", "properties": { "from_id": "b1_east_hall", "to_id": "b1_east_stairs_to_b2", "kind": "walk", "distance_2d_m": 2024.2187992004269, "distance_3d_m": 2024.2187992004269 }, "geometry": { "type": "LineString", "coordinates": [ [ 950819.13960590318311, 1943522.833905653329566, -4.0 ], [ 952111.538739276351407, 1941964.897377070505172, -4.0 ] ] } },
{ "type": "Feature", "properties": { "from_id": "b1_west_stairs_to_b2", "to_id": "b2_west_stairs_from_b1", "kind": "stairs", "distance_2d_m": 1764.4302345708925, "distance_3d_m": 1764.4347686066194 }, "geometry": { "type": "LineString", "coordinates": [ [ 952673.768022247357294, 1940578.567366632865742, -4.0 ], [ 951838.637645081034862, 1942132.842537187272683, -8.0 ] ] } },
{ "type": "Feature", "properties": { "from_id": "b1_center_stairs_to_b2", "to_id": "b2_center_stairs_from_b1", "kind": "stairs", "distance_2d_m": 467.13721457373998, "distance_3d_m": 467.15433984895441 }, "geometry": { "type": "LineString", "coordinates": [ [ 952086.813458060962148, 1941818.294833654537797, -4.0 ], [ 951845.0389621227514, 1942217.997561132768169, -8.0 ] ] } },
{ "type": "Feature", "properties": { "from_id": "b1_east_stairs_to_b2", "to_id": "b2_east_stairs_from_b1", "kind": "stairs", "distance_2d_m": 482.90333320960121, "distance_3d_m": 482.91989938802806 }, "geometry": { "type": "LineString", "coordinates": [ [ 952111.538739276351407, 1941964.897377070505172, -4.0 ], [ 951807.293269394198433, 1942339.904474711511284, -8.0 ] ] } },
{ "type": "Feature", "properties": { "from_id": "b1_elevator", "to_id": "b2_elevator", "kind": "elevator", "distance_2d_m": 801.77992207912382, "distance_3d_m": 801.78989981740597 }, "geometry": { "type": "LineString", "coordinates": [ [ 952276.705440943595022, 1941682.490421923575923, -4.0 ], [ 951795.821160056395456, 1942324.052072776248679, -8.0 ] ] } },
{ "type": "Feature", "properties": { "from_id": "b2_west_stairs_from_b1", "to_id": "platform_west", "kind": "walk", "distance_2d_m": 639.82023325623823, "distance_3d_m": 639.82023325623823 }, "geometry": { "type": "LineString", "coordinates": [ [ 951838.637645081034862, 1942132.842537187272683, -8.0 ], [ 952000.073468195274472, 1941513.72348086652346, -8.0 ] ] } },
{ "type": "Feature", "properties": { "from_id": "b2_center_stairs_from_b1", "to_id": "platform_center", "kind": "walk", "distance_2d_m": 92.736087171886183, "distance_3d_m": 92.736087171886183 }, "geometry": { "type": "LineString", "coordinates": [ [ 951845.0389621227514, 1942217.997561132768169, -8.0 ], [ 951800.023083919542842, 1942299.07500912877731, -8.0 ] ] } },
{ "type": "Feature", "properties": { "from_id": "b2_east_stairs_from_b1", "to_id": "platform_east", "kind": "walk", "distance_2d_m": 62.966856188250993, "distance_3d_m": 62.966856188250993 }, "geometry": { "type": "LineString", "coordinates": [ [ 951807.293269394198433, 1942339.904474711511284, -8.0 ], [ 951786.804880250361748, 1942399.444804644444957, -8.0 ] ] } },
{ "type": "Feature", "properties": { "from_id": "b2_elevator", "to_id": "platform_center", "kind": "walk", "distance_2d_m": 25.328045179238039, "distance_3d_m": 25.328045179238039 }, "geometry": { "type": "LineString", "coordinates": [ [ 951795.821160056395456, 1942324.052072776248679, -8.0 ], [ 951800.023083919542842, 1942299.07500912877731, -8.0 ] ] } },
{ "type": "Feature", "properties": { "from_id": "platform_west", "to_id": "platform_center", "kind": "platform", "distance_2d_m": 810.43024326139607, "distance_3d_m": 810.43024326139607 }, "geometry": { "type": "LineString", "coordinates": [ [ 952000.073468195274472, 1941513.72348086652346, -8.0 ], [ 951800.023083919542842, 1942299.07500912877731, -8.0 ] ] } },
{ "type": "Feature", "properties": { "from_id": "platform_center", "to_id": "platform_east", "kind": "platform", "distance_2d_m": 101.23643988256842, "distance_3d_m": 101.23643988256842 }, "geometry": { "type": "LineString", "coordinates": [ [ 951800.023083919542842, 1942299.07500912877731, -8.0 ], [ 951786.804880250361748, 1942399.444804644444957, -8.0 ] ] } }
]
}
