{
"type": "FeatureCollection",
"name": "숭실대입구(살피재)역_indoor_3d_edges",
"crs": { "type": "name", "properties": { "name": "urn:ogc:def:crs:EPSG::5179" } },
"features": [
{ "type": "Feature", "properties": { "from_id": "exit_1_connection", "to_id": "b1_left_hall", "kind": "walk", "distance_2d_m": 18.695267766264298, "distance_3d_m": 18.695267766264298 }, "geometry": { "type": "LineString", "coordinates": [ [ 951749.0625, 1944183.375000000232831, -4.0 ], [ 951743.542517473222688, 1944201.236770062474534, -4.0 ] ] } },
{ "type": "Feature", "properties": { "from_id": "exit_2_connection", "to_id": "b1_center_hall", "kind": "walk", "distance_2d_m": 29.382209782609031, "distance_3d_m": 29.382209782609031 }, "geometry": { "type": "LineString", "coordinates": [ [ 951709.124999999883585, 1944239.875000000232831, -4.0 ], [ 951731.429190268157981, 1944220.748124976176769, -4.0 ] ] } },
{ "type": "Feature", "properties": { "from_id": "exit_4_connection", "to_id": "b1_left_hall", "kind": "walk", "distance_2d_m": 19.287276760720779, "distance_3d_m": 19.287276760720779 }, "geometry": { "type": "LineString", "coordinates": [ [ 951757.687499999883585, 1944188.125000000232831, -4.0 ], [ 951743.542517473222688, 1944201.236770062474534, -4.0 ] ] } },
{ "type": "Feature", "properties": { "from_id": "b1_left_hall", "to_id": "b1_center_hall", "kind": "walk", "distance_2d_m": 22.965749858112908, "distance_3d_m": 22.965749858112908 }, "geometry": { "type": "LineString", "coordinates": [ [ 951743.542517473222688, 1944201.236770062474534, -4.0 ], [ 951731.429190268157981, 1944220.748124976176769, -4.0 ] ] } },
{ "type": "Feature", "properties": { "from_id": "b1_center_hall", "to_id": "b1_stairs_to_b2", "kind": "walk", "distance_2d_m": 5.3264762290080165, "distance_3d_m": 5.3264762290080165 }, "geometry": { "type": "LineString", "coordinates": [ [ 951731.429190268157981, 1944220.748124976176769, -4.0 ], [ 951732.135711005772464, 1944226.027535688132048, -4.0 ] ] } },
{ "type": "Feature", "properties": { "from_id": "b1_stairs_to_b2", "to_id": "b2_stairs_from_b1", "kind": "stairs", "distance_2d_m": 27.496305421833892, "distance_3d_m": 27.785730363817539 }, "geometry": { "type": "LineString", "coordinates": [ [ 951732.135711005772464, 1944226.027535688132048, -4.0 ], [ 951720.327962277107872, 1944250.859448256669566, -8.0 ] ] } },
{ "type": "Feature", "properties": { "from_id": "b2_stairs_from_b1", "to_id": "b2_hall", "kind": "walk", "distance_2d_m": 44.030800188873371, "distance_3d_m": 44.030800188873371 }, "geometry": { "type": "LineString", "coordinates": [ [ 951720.327962277107872, 1944250.859448256669566, -8.0 ], [ 951696.751635656110011, 1944288.046383977867663, -8.0 ] ] } },
{ "type": "Feature", "properties": { "from_id": "exit_3_connection", "to_id": "b2_hall", "kind": "walk", "distance_2d_m": 51.447988144768146, "distance_3d_m": 51.447988144768146 }, "geometry": { "type": "LineString", "coordinates": [ [ 951720.437499999883585, 1944242.375000000232831, -8.0 ], [ 951696.751635656110011, 1944288.046383977867663, -8.0 ] ] } },
{ "type": "Feature", "properties": { "from_id": "b2_hall", "to_id": "b2_information", "kind": "walk", "distance_2d_m": 22.784079294192061, "distance_3d_m": 22.784079294192061 }, "geometry": { "type": "LineString", "coordinates": [ [ 951696.751635656110011, 1944288.046383977867663, -8.0 ], [ 951707.118166257045232, 1944267.757241251179948, -8.0 ] ] } },
{ "type": "Feature", "properties": { "from_id": "b2_hall", "to_id": "b2_elevator", "kind": "walk", "distance_2d_m": 9.0671802147987464, "distance_3d_m": 9.0671802147987464 }, "geometry": { "type": "LineString", "coordinates": [ [ 951696.751635656110011, 1944288.046383977867663, -8.0 ], [ 951696.989062479580753, 1944278.982312842272222, -8.0 ] ] } },
{ "type": "Feature", "properties": { "from_id": "b2_hall", "to_id": "b2_stairs_to_b5", "kind": "walk", "distance_2d_m": 35.591447468393113, "distance_3d_m": 35.591447468393113 }, "geometry": { "type": "LineString", "coordinates": [ [ 951696.751635656110011, 1944288.046383977867663, -8.0 ], [ 951679.246955629670992, 1944319.035693587269634, -8.0 ] ] } },
{ "type": "Feature", "properties": { "from_id": "b2_stairs_to_b5", "to_id": "b5_stairs_from_b2", "kind": "stairs", "distance_2d_m": 56.157263141149187, "distance_3d_m": 57.425065986068077 }, "geometry": { "type": "LineString", "coordinates": [ [ 951679.246955629670992, 1944319.035693587269634, -8.0 ], [ 951720.719098657136783, 1944281.171468305168673, -20.0 ] ] } },
{ "type": "Feature", "properties": { "from_id": "b5_stairs_from_b2", "to_id": "b5_hall", "kind": "walk", "distance_2d_m": 11.572882448571585, "distance_3d_m": 11.572882448571585 }, "geometry": { "type": "LineString", "coordinates": [ [ 951720.719098657136783, 1944281.171468305168673, -20.0 ], [ 951717.12081695930101, 1944292.17073996248655, -20.0 ] ] } },
{ "type": "Feature", "properties": { "from_id": "b5_hall", "to_id": "b5_elevator", "kind": "walk", "distance_2d_m": 39.822608308532324, "distance_3d_m": 39.822608308532324 }, "geometry": { "type": "LineString", "coordinates": [ [ 951717.12081695930101, 1944292.17073996248655, -20.0 ], [ 951695.445678424905054, 1944325.577752729412168, -20.0 ] ] } },
{ "type": "Feature", "properties": { "from_id": "b5_hall", "to_id": "b5_stairs_to_platform", "kind": "walk", "distance_2d_m": 23.808091914602432, "distance_3d_m": 23.808091914602432 }, "geometry": { "type": "LineString", "coordinates": [ [ 951717.12081695930101, 1944292.17073996248655, -20.0 ], [ 951708.142487669596449, 1944314.221019865013659, -20.0 ] ] } },
{ "type": "Feature", "properties": { "from_id": "b5_stairs_to_platform", "to_id": "platform_center", "kind": "stairs", "distance_2d_m": 35.359490623550435, "distance_3d_m": 35.585018998968529 }, "geometry": { "type": "LineString", "coordinates": [ [ 951708.142487669596449, 1944314.221019865013659, -20.0 ], [ 951728.777664430090226, 1944285.507206861162558, -24.0 ] ] } },
{ "type": "Feature", "properties": { "from_id": "platform_west", "to_id": "platform_center", "kind": "platform_walk", "distance_2d_m": 55.168610560956004, "distance_3d_m": 55.168610560956004 }, "geometry": { "type": "LineString", "coordinates": [ [ 951755.727214898215607, 1944237.368892383063212, -24.0 ], [ 951728.777664430090226, 1944285.507206861162558, -24.0 ] ] } },
{ "type": "Feature", "properties": { "from_id": "platform_center", "to_id": "platform_east", "kind": "platform_walk", "distance_2d_m": 98.826342255233854, "distance_3d_m": 98.826342255233854 }, "geometry": { "type": "LineString", "coordinates": [ [ 951728.777664430090226, 1944285.507206861162558, -24.0 ], [ 951679.556421060697176, 1944371.203852797392756, -24.0 ] ] } }
]
}
