{
"type": "FeatureCollection",
"name": "서울대입구(관악구청)역_indoor_3d_edges",
"crs": { "type": "name", "properties": { "name": "urn:ogc:def:crs:EPSG::5179" } },
"features": [
{ "type": "Feature", "properties": { "from_id": "exit_1_connection", "to_id": "b1_west_hall", "kind": "walk", "distance_2d_m": 58.62978411116007, "distance_3d_m": 58.62978411116007 }, "geometry": { "type": "LineString", "coordinates": [ [ 951651.594778268714435, 1942551.602441196795553, -4.0 ], [ 951673.592888379702345, 1942605.948873797897249, -4.0 ] ] } },
{ "type": "Feature", "properties": { "from_id": "exit_2_connection", "to_id": "b1_west_hall", "kind": "walk", "distance_2d_m": 80.772042764318769, "distance_3d_m": 80.772042764318769 }, "geometry": { "type": "LineString", "coordinates": [ [ 951624.56256505404599, 1942541.760476973373443, -4.0 ], [ 951673.592888379702345, 1942605.948873797897249, -4.0 ] ] } },
{ "type": "Feature", "properties": { "from_id": "exit_3_connection", "to_id": "b1_center_hall", "kind": "walk", "distance_2d_m": 84.46352242456237, "distance_3d_m": 84.46352242456237 }, "geometry": { "type": "LineString", "coordinates": [ [ 951588.508287841570564, 1942555.483065728796646, -4.0 ], [ 951648.192550087929703, 1942615.248235020553693, -4.0 ] ] } },
{ "type": "Feature", "properties": { "from_id": "exit_4_connection", "to_id": "b1_east_hall", "kind": "walk", "distance_2d_m": 62.583771535222013, "distance_3d_m": 62.583771535222013 }, "geometry": { "type": "LineString", "coordinates": [ [ 951571.505982092348859, 1942577.439376568188891, -4.0 ], [ 951617.549787186435424, 1942619.826833109371364, -4.0 ] ] } },
{ "type": "Feature", "properties": { "from_id": "exit_5_connection", "to_id": "b1_east_hall", "kind": "walk", "distance_2d_m": 31.225613682999033, "distance_3d_m": 31.225613682999033 }, "geometry": { "type": "LineString", "coordinates": [ [ 951586.416307118022814, 1942617.429883233038709, -4.0 ], [ 951617.549787186435424, 1942619.826833109371364, -4.0 ] ] } },
{ "type": "Feature", "properties": { "from_id": "exit_6_connection", "to_id": "b1_east_hall", "kind": "walk", "distance_2d_m": 8.4231575416723228, "distance_3d_m": 8.4231575416723228 }, "geometry": { "type": "LineString", "coordinates": [ [ 951610.114080180297606, 1942623.784085222985595, -4.0 ], [ 951617.549787186435424, 1942619.826833109371364, -4.0 ] ] } },
{ "type": "Feature", "properties": { "from_id": "exit_7_connection", "to_id": "b1_center_hall", "kind": "walk", "distance_2d_m": 5.9382646265038028, "distance_3d_m": 5.9382646265038028 }, "geometry": { "type": "LineString", "coordinates": [ [ 951646.852502368972637, 1942621.033324379008263, -4.0 ], [ 951648.192550087929703, 1942615.248235020553693, -4.0 ] ] } },
{ "type": "Feature", "properties": { "from_id": "exit_8_connection", "to_id": "b1_west_hall", "kind": "walk", "distance_2d_m": 13.256194429896649, "distance_3d_m": 13.256194429896649 }, "geometry": { "type": "LineString", "coordinates": [ [ 951661.299842631444335, 1942600.988257203716785, -4.0 ], [ 951673.592888379702345, 1942605.948873797897249, -4.0 ] ] } },
{ "type": "Feature", "properties": { "from_id": "b1_west_hall", "to_id": "b1_center_hall", "kind": "walk", "distance_2d_m": 27.0491276104413, "distance_3d_m": 27.0491276104413 }, "geometry": { "type": "LineString", "coordinates": [ [ 951673.592888379702345, 1942605.948873797897249, -4.0 ], [ 951648.192550087929703, 1942615.248235020553693, -4.0 ] ] } },
{ "type": "Feature", "properties": { "from_id": "b1_center_hall", "to_id": "b1_east_hall", "kind": "walk", "distance_2d_m": 30.982938509704319, "distance_3d_m": 30.982938509704319 }, "geometry": { "type": "LineString", "coordinates": [ [ 951648.192550087929703, 1942615.248235020553693, -4.0 ], [ 951617.549787186435424, 1942619.826833109371364, -4.0 ] ] } },
{ "type": "Feature", "properties": { "from_id": "b1_center_hall", "to_id": "b1_information", "kind": "walk", "distance_2d_m": 33.876129442135976, "distance_3d_m": 33.876129442135976 }, "geometry": { "type": "LineString", "coordinates": [ [ 951648.192550087929703, 1942615.248235020553693, -4.0 ], [ 951614.899106660159305, 1942608.992136339889839, -4.0 ] ] } },
{ "type": "Feature", "properties": { "from_id": "b1_east_hall", "to_id": "b1_elevator", "kind": "walk", "distance_2d_m": 10.186127170396208, "distance_3d_m": 10.186127170396208 }, "geometry": { "type": "LineString", "coordinates": [ [ 951617.549787186435424, 1942619.826833109371364, -4.0 ], [ 951626.821742404601537, 1942615.609246931970119, -4.0 ] ] } },
{ "type": "Feature", "properties": { "from_id": "b1_west_hall", "to_id": "b1_west_stairs_to_b2", "kind": "walk", "distance_2d_m": 30.33309393172043, "distance_3d_m": 30.33309393172043 }, "geometry": { "type": "LineString", "coordinates": [ [ 951673.592888379702345, 1942605.948873797897249, -4.0 ], [ 951696.53245816542767, 1942625.795100782299414, -4.0 ] ] } },
{ "type": "Feature", "properties": { "from_id": "b1_center_hall", "to_id": "b1_center_stairs_to_b2", "kind": "walk", "distance_2d_m": 34.450926055233644, "distance_3d_m": 34.450926055233644 }, "geometry": { "type": "LineString", "coordinates": [ [ 951648.192550087929703, 1942615.248235020553693, -4.0 ], [ 951674.774337719194591, 1942637.163409498287365, -4.0 ] ] } },
{ "type": "Feature", "properties": { "from_id": "b1_east_hall", "to_id": "b1_east_stairs_to_b2", "kind": "walk", "distance_2d_m": 28.885157383621962, "distance_3d_m": 28.885157383621962 }, "geometry": { "type": "LineString", "coordinates": [ [ 951617.549787186435424, 1942619.826833109371364, -4.0 ], [ 951633.328579967841506, 1942644.02150226267986, -4.0 ] ] } },
{ "type": "Feature", "properties": { "from_id": "b1_west_stairs_to_b2", "to_id": "b2_west_stairs_from_b1", "kind": "stairs", "distance_2d_m": 44.058051093011194, "distance_3d_m": 44.23925707009991 }, "geometry": { "type": "LineString", "coordinates": [ [ 951696.53245816542767, 1942625.795100782299414, -4.0 ], [ 951733.437550162780099, 1942649.860138716641814, -8.0 ] ] } },
{ "type": "Feature", "properties": { "from_id": "b1_center_stairs_to_b2", "to_id": "b2_center_stairs_from_b1", "kind": "stairs", "distance_2d_m": 28.907171359499937, "distance_3d_m": 29.182607080373977 }, "geometry": { "type": "LineString", "coordinates": [ [ 951674.774337719194591, 1942637.163409498287365, -4.0 ], [ 951693.322789818048477, 1942659.335001248633489, -8.0 ] ] } },
{ "type": "Feature", "properties": { "from_id": "b1_east_stairs_to_b2", "to_id": "b2_east_stairs_from_b1", "kind": "stairs", "distance_2d_m": 38.063396611749219, "distance_3d_m": 38.272995200576105 }, "geometry": { "type": "LineString", "coordinates": [ [ 951633.328579967841506, 1942644.02150226267986, -4.0 ], [ 951651.20984682708513, 1942677.623324492014945, -8.0 ] ] } },
{ "type": "Feature", "properties": { "from_id": "b1_elevator", "to_id": "b2_elevator", "kind": "elevator", "distance_2d_m": 60.421844021563039, "distance_3d_m": 60.554101718761324 }, "geometry": { "type": "LineString", "coordinates": [ [ 951626.821742404601537, 1942615.609246931970119, -4.0 ], [ 951668.214979788288474, 1942659.625143308890983, -8.0 ] ] } },
{ "type": "Feature", "properties": { "from_id": "b2_west_stairs_from_b1", "to_id": "platform_west", "kind": "walk", "distance_2d_m": 34.592854377217947, "distance_3d_m": 34.592854377217947 }, "geometry": { "type": "LineString", "coordinates": [ [ 951733.437550162780099, 1942649.860138716641814, -8.0 ], [ 951763.702345956349745, 1942633.105804664315656, -8.0 ] ] } },
{ "type": "Feature", "properties": { "from_id": "b2_center_stairs_from_b1", "to_id": "platform_center", "kind": "walk", "distance_2d_m": 9.5170650612754688, "distance_3d_m": 9.5170650612754688 }, "geometry": { "type": "LineString", "coordinates": [ [ 951693.322789818048477, 1942659.335001248633489, -8.0 ], [ 951693.160298296133988, 1942668.850679042981938, -8.0 ] ] } },
{ "type": "Feature", "properties": { "from_id": "b2_east_stairs_from_b1", "to_id": "platform_east", "kind": "walk", "distance_2d_m": 34.826113407615367, "distance_3d_m": 34.826113407615367 }, "geometry": { "type": "LineString", "coordinates": [ [ 951651.20984682708513, 1942677.623324492014945, -8.0 ], [ 951618.500601021107286, 1942689.580055394908413, -8.0 ] ] } },
{ "type": "Feature", "properties": { "from_id": "b2_elevator", "to_id": "platform_center", "kind": "walk", "distance_2d_m": 26.596605517224354, "distance_3d_m": 26.596605517224354 }, "geometry": { "type": "LineString", "coordinates": [ [ 951668.214979788288474, 1942659.625143308890983, -8.0 ], [ 951693.160298296133988, 1942668.850679042981938, -8.0 ] ] } },
{ "type": "Feature", "properties": { "from_id": "platform_west", "to_id": "platform_center", "kind": "platform", "distance_2d_m": 79.081455047582324, "distance_3d_m": 79.081455047582324 }, "geometry": { "type": "LineString", "coordinates": [ [ 951763.702345956349745, 1942633.105804664315656, -8.0 ], [ 951693.160298296133988, 1942668.850679042981938, -8.0 ] ] } },
{ "type": "Feature", "properties": { "from_id": "platform_center", "to_id": "platform_east", "kind": "platform", "distance_2d_m": 77.484046365290183, "distance_3d_m": 77.484046365290183 }, "geometry": { "type": "LineString", "coordinates": [ [ 951693.160298296133988, 1942668.850679042981938, -8.0 ], [ 951618.500601021107286, 1942689.580055394908413, -8.0 ] ] } }
]
}
