{
"type": "FeatureCollection",
"name": "장승배기역(7호선)역_indoor_3d_edges",
"crs": { "type": "name", "properties": { "name": "urn:ogc:def:crs:EPSG::5179" } },
"features": [
{ "type": "Feature", "properties": { "from_id": "exit_6_connection", "to_id": "b1_west_hall", "kind": "walk", "distance_2d_m": 12.108780636713638, "distance_3d_m": 12.108780636713638 }, "geometry": { "type": "LineString", "coordinates": [ [ 950439.089175793924369, 1945216.095761686330661, -4.0 ], [ 950428.036664789658971, 1945211.149594583548605, -4.0 ] ] } },
{ "type": "Feature", "properties": { "from_id": "exit_1_connection", "to_id": "b1_center_hall", "kind": "walk", "distance_2d_m": 8.8576287612745173, "distance_3d_m": 8.8576287612745173 }, "geometry": { "type": "LineString", "coordinates": [ [ 950416.776916380156763, 1945195.518931617029011, -4.0 ], [ 950409.862056276411749, 1945201.054480100981891, -4.0 ] ] } },
{ "type": "Feature", "properties": { "from_id": "exit_2_connection", "to_id": "b1_east_hall", "kind": "walk", "distance_2d_m": 15.582862057026222, "distance_3d_m": 15.582862057026222 }, "geometry": { "type": "LineString", "coordinates": [ [ 950391.501855009933934, 1945179.577450895914808, -4.0 ], [ 950376.947626635665074, 1945185.145217622164637, -4.0 ] ] } },
{ "type": "Feature", "properties": { "from_id": "exit_3_connection", "to_id": "b1_east_hall", "kind": "walk", "distance_2d_m": 107.66195956245662, "distance_3d_m": 107.66195956245662 }, "geometry": { "type": "LineString", "coordinates": [ [ 950294.886582470149733, 1945115.45244491728954, -4.0 ], [ 950376.947626635665074, 1945185.145217622164637, -4.0 ] ] } },
{ "type": "Feature", "properties": { "from_id": "exit_4_connection", "to_id": "b1_east_hall", "kind": "walk", "distance_2d_m": 108.70288701288085, "distance_3d_m": 108.70288701288085 }, "geometry": { "type": "LineString", "coordinates": [ [ 950289.022505957516842, 1945121.227373488713056, -4.0 ], [ 950376.947626635665074, 1945185.145217622164637, -4.0 ] ] } },
{ "type": "Feature", "properties": { "from_id": "exit_5_connection", "to_id": "b2_west_hall", "kind": "walk", "distance_2d_m": 6.6396290104176847, "distance_3d_m": 6.6396290104176847 }, "geometry": { "type": "LineString", "coordinates": [ [ 950418.905587948276661, 1945212.239216916728765, -8.0 ], [ 950421.700030036619864, 1945218.26215364318341, -8.0 ] ] } },
{ "type": "Feature", "properties": { "from_id": "b1_west_hall", "to_id": "b1_center_hall", "kind": "walk", "distance_2d_m": 20.790087326077458, "distance_3d_m": 20.790087326077458 }, "geometry": { "type": "LineString", "coordinates": [ [ 950428.036664789658971, 1945211.149594583548605, -4.0 ], [ 950409.862056276411749, 1945201.054480100981891, -4.0 ] ] } },
{ "type": "Feature", "properties": { "from_id": "b1_center_hall", "to_id": "b1_east_hall", "kind": "walk", "distance_2d_m": 36.557684707808917, "distance_3d_m": 36.557684707808917 }, "geometry": { "type": "LineString", "coordinates": [ [ 950409.862056276411749, 1945201.054480100981891, -4.0 ], [ 950376.947626635665074, 1945185.145217622164637, -4.0 ] ] } },
{ "type": "Feature", "properties": { "from_id": "b1_west_hall", "to_id": "b1_west_stairs_to_b2", "kind": "walk", "distance_2d_m": 2.4035965222728799, "distance_3d_m": 2.4035965222728799 }, "geometry": { "type": "LineString", "coordinates": [ [ 950428.036664789658971, 1945211.149594583548605, -4.0 ], [ 950426.645965133793652, 1945213.110010536620393, -4.0 ] ] } },
{ "type": "Feature", "properties": { "from_id": "b1_west_stairs_to_b2", "to_id": "b2_west_stairs_from_b1", "kind": "stairs", "distance_2d_m": 6.3666836035862273, "distance_3d_m": 7.5189533918075133 }, "geometry": { "type": "LineString", "coordinates": [ [ 950426.645965133793652, 1945213.110010536620393, -4.0 ], [ 950422.050097787287086, 1945217.515990954358131, -8.0 ] ] } },
{ "type": "Feature", "properties": { "from_id": "b2_west_stairs_from_b1", "to_id": "b2_west_hall", "kind": "walk", "distance_2d_m": 0.82420033259649872, "distance_3d_m": 0.82420033259649872 }, "geometry": { "type": "LineString", "coordinates": [ [ 950422.050097787287086, 1945217.515990954358131, -8.0 ], [ 950421.700030036619864, 1945218.26215364318341, -8.0 ] ] } },
{ "type": "Feature", "properties": { "from_id": "b1_east_hall", "to_id": "b1_east_stairs_to_b2", "kind": "walk", "distance_2d_m": 24.734816417165423, "distance_3d_m": 24.734816417165423 }, "geometry": { "type": "LineString", "coordinates": [ [ 950376.947626635665074, 1945185.145217622164637, -4.0 ], [ 950353.805790677899495, 1945176.412144182948396, -4.0 ] ] } },
{ "type": "Feature", "properties": { "from_id": "b1_east_stairs_to_b2", "to_id": "b2_east_stairs_from_b1", "kind": "stairs", "distance_2d_m": 34.551861123671664, "distance_3d_m": 34.782626512520487 }, "geometry": { "type": "LineString", "coordinates": [ [ 950353.805790677899495, 1945176.412144182948396, -4.0 ], [ 950378.464660731726326, 1945200.614855493418872, -8.0 ] ] } },
{ "type": "Feature", "properties": { "from_id": "b2_east_stairs_from_b1", "to_id": "b2_east_hall", "kind": "walk", "distance_2d_m": 8.2190695428789393, "distance_3d_m": 8.2190695428789393 }, "geometry": { "type": "LineString", "coordinates": [ [ 950378.464660731726326, 1945200.614855493418872, -8.0 ], [ 950385.057078020530753, 1945205.523331676609814, -8.0 ] ] } },
{ "type": "Feature", "properties": { "from_id": "b2_west_hall", "to_id": "b2_center_hall", "kind": "walk", "distance_2d_m": 15.479244829456064, "distance_3d_m": 15.479244829456064 }, "geometry": { "type": "LineString", "coordinates": [ [ 950421.700030036619864, 1945218.26215364318341, -8.0 ], [ 950406.956753293401562, 1945213.545925132697448, -8.0 ] ] } },
{ "type": "Feature", "properties": { "from_id": "b2_center_hall", "to_id": "b2_east_hall", "kind": "walk", "distance_2d_m": 23.322902538467403, "distance_3d_m": 23.322902538467403 }, "geometry": { "type": "LineString", "coordinates": [ [ 950406.956753293401562, 1945213.545925132697448, -8.0 ], [ 950385.057078020530753, 1945205.523331676609814, -8.0 ] ] } },
{ "type": "Feature", "properties": { "from_id": "b2_center_hall", "to_id": "b2_information", "kind": "walk", "distance_2d_m": 3.9082752361552715, "distance_3d_m": 3.9082752361552715 }, "geometry": { "type": "LineString", "coordinates": [ [ 950406.956753293401562, 1945213.545925132697448, -8.0 ], [ 950406.730127508752048, 1945217.447624259395525, -8.0 ] ] } },
{ "type": "Feature", "properties": { "from_id": "b2_center_hall", "to_id": "b2_elevator", "kind": "walk", "distance_2d_m": 2.2642323423238926, "distance_3d_m": 2.2642323423238926 }, "geometry": { "type": "LineString", "coordinates": [ [ 950406.956753293401562, 1945213.545925132697448, -8.0 ], [ 950407.742030904162675, 1945215.669621715089306, -8.0 ] ] } },
{ "type": "Feature", "properties": { "from_id": "b2_elevator", "to_id": "b3_elevator", "kind": "elevator", "distance_2d_m": 7.6889837299072825, "distance_3d_m": 8.6672066318265948 }, "geometry": { "type": "LineString", "coordinates": [ [ 950407.742030904162675, 1945215.669621715089306, -8.0 ], [ 950407.525627261959016, 1945223.355559540912509, -12.0 ] ] } },
{ "type": "Feature", "properties": { "from_id": "b2_center_hall", "to_id": "b2_center_stairs_to_b3", "kind": "walk", "distance_2d_m": 6.7561238471076557, "distance_3d_m": 6.7561238471076557 }, "geometry": { "type": "LineString", "coordinates": [ [ 950406.956753293401562, 1945213.545925132697448, -8.0 ], [ 950409.469643849413842, 1945219.817335698986426, -8.0 ] ] } },
{ "type": "Feature", "properties": { "from_id": "b2_center_stairs_to_b3", "to_id": "b3_center_stairs_from_b2", "kind": "stairs", "distance_2d_m": 6.7008358488153794, "distance_3d_m": 7.8039221595790744 }, "geometry": { "type": "LineString", "coordinates": [ [ 950409.469643849413842, 1945219.817335698986426, -8.0 ], [ 950411.998779840650968, 1945226.022549008019269, -12.0 ] ] } },
{ "type": "Feature", "properties": { "from_id": "b2_east_hall", "to_id": "b2_east_stairs_to_b3", "kind": "walk", "distance_2d_m": 7.0123278607184538, "distance_3d_m": 7.0123278607184538 }, "geometry": { "type": "LineString", "coordinates": [ [ 950385.057078020530753, 1945205.523331676609814, -8.0 ], [ 950389.505882597179152, 1945210.943744932534173, -8.0 ] ] } },
{ "type": "Feature", "properties": { "from_id": "b2_east_stairs_to_b3", "to_id": "b3_east_stairs_from_b2", "kind": "stairs", "distance_2d_m": 13.097320102597854, "distance_3d_m": 13.694516927219954 }, "geometry": { "type": "LineString", "coordinates": [ [ 950389.505882597179152, 1945210.943744932534173, -8.0 ], [ 950397.696521209436469, 1945221.163981377612799, -12.0 ] ] } },
{ "type": "Feature", "properties": { "from_id": "b3_center_stairs_from_b2", "to_id": "platform_center", "kind": "walk", "distance_2d_m": 2.7609882824442442, "distance_3d_m": 2.7609882824442442 }, "geometry": { "type": "LineString", "coordinates": [ [ 950411.998779840650968, 1945226.022549008019269, -12.0 ], [ 950409.247986471746117, 1945226.259597816038877, -12.0 ] ] } },
{ "type": "Feature", "properties": { "from_id": "b3_elevator", "to_id": "platform_center", "kind": "walk", "distance_2d_m": 3.3763826132323, "distance_3d_m": 3.3763826132323 }, "geometry": { "type": "LineString", "coordinates": [ [ 950407.525627261959016, 1945223.355559540912509, -12.0 ], [ 950409.247986471746117, 1945226.259597816038877, -12.0 ] ] } },
{ "type": "Feature", "properties": { "from_id": "b3_east_stairs_from_b2", "to_id": "platform_east", "kind": "walk", "distance_2d_m": 14.928587292269759, "distance_3d_m": 14.928587292269759 }, "geometry": { "type": "LineString", "coordinates": [ [ 950397.696521209436469, 1945221.163981377612799, -12.0 ], [ 950383.451283559552394, 1945216.699015214107931, -12.0 ] ] } },
{ "type": "Feature", "properties": { "from_id": "platform_west", "to_id": "platform_center", "kind": "platform", "distance_2d_m": 18.166237809082336, "distance_3d_m": 18.166237809082336 }, "geometry": { "type": "LineString", "coordinates": [ [ 950426.66779655602295, 1945231.413471384905279, -12.0 ], [ 950409.247986471746117, 1945226.259597816038877, -12.0 ] ] } },
{ "type": "Feature", "properties": { "from_id": "platform_center", "to_id": "platform_east", "kind": "platform", "distance_2d_m": 27.511354398290333, "distance_3d_m": 27.511354398290333 }, "geometry": { "type": "LineString", "coordinates": [ [ 950409.247986471746117, 1945226.259597816038877, -12.0 ], [ 950383.451283559552394, 1945216.699015214107931, -12.0 ] ] } }
]
}
