{
"type": "FeatureCollection",
"name": "숭실대입구(살피재)역_indoor_3d_edges",
"crs": { "type": "name", "properties": { "name": "urn:ogc:def:crs:EPSG::5179" } },
"features": [
{ "type": "Feature", "properties": { "from_id": "clicked_001", "to_id": "clicked_002", "kind": "walk", "distance_2d_m": 13.113771010921107, "distance_3d_m": 13.113771010921107 }, "geometry": { "type": "LineString", "coordinates": [ [ 951749.981421148055233, 1944185.797060703393072, -4.0 ], [ 951744.364364646025933, 1944197.646941140759736, -4.0 ] ] } },
{ "type": "Feature", "properties": { "from_id": "clicked_002", "to_id": "clicked_003", "kind": "walk", "distance_2d_m": 14.537996115274284, "distance_3d_m": 14.537996115274284 }, "geometry": { "type": "LineString", "coordinates": [ [ 951744.364364646025933, 1944197.646941140759736, -4.0 ], [ 951736.802041638758965, 1944210.06324501032941, -4.0 ] ] } },
{ "type": "Feature", "properties": { "from_id": "clicked_003", "to_id": "clicked_004", "kind": "walk", "distance_2d_m": 11.733534225397248, "distance_3d_m": 11.733534225397248 }, "geometry": { "type": "LineString", "coordinates": [ [ 951736.802041638758965, 1944210.06324501032941, -4.0 ], [ 951730.301843590219505, 1944219.831727530574426, -4.0 ] ] } },
{ "type": "Feature", "properties": { "from_id": "clicked_004", "to_id": "clicked_005", "kind": "walk", "distance_2d_m": 7.9678709847701654, "distance_3d_m": 7.9678709847701654 }, "geometry": { "type": "LineString", "coordinates": [ [ 951730.301843590219505, 1944219.831727530574426, -4.0 ], [ 951724.856277878512628, 1944225.648322935914621, -4.0 ] ] } },
{ "type": "Feature", "properties": { "from_id": "clicked_005", "to_id": "clicked_006", "kind": "walk", "distance_2d_m": 9.5950232696557887, "distance_3d_m": 9.5950232696557887 }, "geometry": { "type": "LineString", "coordinates": [ [ 951724.856277878512628, 1944225.648322935914621, -4.0 ], [ 951718.371801699628122, 1944232.720524872420356, -4.0 ] ] } },
{ "type": "Feature", "properties": { "from_id": "clicked_006", "to_id": "clicked_007", "kind": "walk", "distance_2d_m": 9.3578925600581488, "distance_3d_m": 9.3578925600581488 }, "geometry": { "type": "LineString", "coordinates": [ [ 951718.371801699628122, 1944232.720524872420356, -4.0 ], [ 951711.99109354254324, 1944239.565721478778869, -4.0 ] ] } },
{ "type": "Feature", "properties": { "from_id": "clicked_011", "to_id": "clicked_010", "kind": "walk", "distance_2d_m": 13.776927279682727, "distance_3d_m": 13.776927279682727 }, "geometry": { "type": "LineString", "coordinates": [ [ 951754.950548179447651, 1944191.250034432858229, -4.0 ], [ 951749.138329632114619, 1944203.740904731908813, -4.0 ] ] } },
{ "type": "Feature", "properties": { "from_id": "clicked_010", "to_id": "clicked_009", "kind": "walk", "distance_2d_m": 12.322785350844478, "distance_3d_m": 12.322785350844478 }, "geometry": { "type": "LineString", "coordinates": [ [ 951749.138329632114619, 1944203.740904731908813, -4.0 ], [ 951742.561556169413961, 1944214.161897468846291, -4.0 ] ] } },
{ "type": "Feature", "properties": { "from_id": "clicked_009", "to_id": "clicked_012", "kind": "walk", "distance_2d_m": 7.2639705382338242, "distance_3d_m": 7.2639705382338242 }, "geometry": { "type": "LineString", "coordinates": [ [ 951742.561556169413961, 1944214.161897468846291, -4.0 ], [ 951738.662928205099888, 1944220.291005721781403, -4.0 ] ] } },
{ "type": "Feature", "properties": { "from_id": "clicked_003", "to_id": "clicked_008", "kind": "walk", "distance_2d_m": 2.9113811053219849, "distance_3d_m": 2.9113811053219849 }, "geometry": { "type": "LineString", "coordinates": [ [ 951736.802041638758965, 1944210.06324501032941, -4.0 ], [ 951739.233352785231546, 1944211.664764928864315, -4.0 ] ] } },
{ "type": "Feature", "properties": { "from_id": "clicked_008", "to_id": "clicked_009", "kind": "walk", "distance_2d_m": 4.1608423051973649, "distance_3d_m": 4.1608423051973649 }, "geometry": { "type": "LineString", "coordinates": [ [ 951739.233352785231546, 1944211.664764928864315, -4.0 ], [ 951742.561556169413961, 1944214.161897468846291, -4.0 ] ] } },
{ "type": "Feature", "properties": { "from_id": "clicked_008", "to_id": "clicked_014", "kind": "walk", "distance_2d_m": 5.5402015832031548, "distance_3d_m": 5.5402015832031548 }, "geometry": { "type": "LineString", "coordinates": [ [ 951739.233352785231546, 1944211.664764928864315, -4.0 ], [ 951737.022165509872139, 1944216.744576383614913, -4.0 ] ] } },
{ "type": "Feature", "properties": { "from_id": "clicked_009", "to_id": "clicked_014", "kind": "walk", "distance_2d_m": 6.1118801735480401, "distance_3d_m": 6.1118801735480401 }, "geometry": { "type": "LineString", "coordinates": [ [ 951742.561556169413961, 1944214.161897468846291, -4.0 ], [ 951737.022165509872139, 1944216.744576383614913, -4.0 ] ] } },
{ "type": "Feature", "properties": { "from_id": "clicked_014", "to_id": "clicked_015", "kind": "walk", "distance_2d_m": 13.477906391248252, "distance_3d_m": 13.477906391248252 }, "geometry": { "type": "LineString", "coordinates": [ [ 951737.022165509872139, 1944216.744576383614913, -4.0 ], [ 951731.078280271729454, 1944228.841029953444377, -4.0 ] ] } },
{ "type": "Feature", "properties": { "from_id": "clicked_015", "to_id": "clicked_016", "kind": "stairs", "distance_2d_m": 18.769913950588261, "distance_3d_m": 18.876166711291987 }, "geometry": { "type": "LineString", "coordinates": [ [ 951731.078280271729454, 1944228.841029953444377, -4.0 ], [ 951723.035005553509109, 1944245.800257574999705, -6.0 ] ] } },
{ "type": "Feature", "properties": { "from_id": "clicked_012", "to_id": "clicked_013", "kind": "walk", "distance_2d_m": 20.696445863437013, "distance_3d_m": 20.696445863437013 }, "geometry": { "type": "LineString", "coordinates": [ [ 951738.662928205099888, 1944220.291005721781403, -4.0 ], [ 951725.499913552775979, 1944236.262164622778073, -4.0 ] ] } },
{ "type": "Feature", "properties": { "from_id": "clicked_016", "to_id": "clicked_046", "kind": "stairs", "distance_2d_m": 12.092066056873035, "distance_3d_m": 12.256347805271396 }, "geometry": { "type": "LineString", "coordinates": [ [ 951723.035005553509109, 1944245.800257574999705, -6.0 ], [ 951716.743107960908674, 1944256.12644206918776, -8.0 ] ] } },
{ "type": "Feature", "properties": { "from_id": "clicked_046", "to_id": "clicked_021", "kind": "walk", "distance_2d_m": 3.4575335171757589, "distance_3d_m": 3.4575335171757589 }, "geometry": { "type": "LineString", "coordinates": [ [ 951716.743107960908674, 1944256.12644206918776, -8.0 ], [ 951717.266032730811276, 1944252.708681441610679, -8.0 ] ] } },
{ "type": "Feature", "properties": { "from_id": "clicked_046", "to_id": "clicked_020", "kind": "walk", "distance_2d_m": 5.0972528231916918, "distance_3d_m": 5.0972528231916918 }, "geometry": { "type": "LineString", "coordinates": [ [ 951716.743107960908674, 1944256.12644206918776, -8.0 ], [ 951716.829592635622248, 1944261.222961150342599, -8.0 ] ] } },
{ "type": "Feature", "properties": { "from_id": "clicked_046", "to_id": "clicked_019", "kind": "walk", "distance_2d_m": 13.655821960435324, "distance_3d_m": 13.655821960435324 }, "geometry": { "type": "LineString", "coordinates": [ [ 951716.743107960908674, 1944256.12644206918776, -8.0 ], [ 951711.509503534180112, 1944268.739564526360482, -8.0 ] ] } },
{ "type": "Feature", "properties": { "from_id": "clicked_021", "to_id": "clicked_017", "kind": "walk", "distance_2d_m": 23.070183571605913, "distance_3d_m": 23.070183571605913 }, "geometry": { "type": "LineString", "coordinates": [ [ 951717.266032730811276, 1944252.708681441610679, -8.0 ], [ 951705.537248778156936, 1944272.574959327001125, -8.0 ] ] } },
{ "type": "Feature", "properties": { "from_id": "clicked_017", "to_id": "clicked_022", "kind": "walk", "distance_2d_m": 19.402518297159663, "distance_3d_m": 19.402518297159663 }, "geometry": { "type": "LineString", "coordinates": [ [ 951705.537248778156936, 1944272.574959327001125, -8.0 ], [ 951694.845481204451062, 1944288.76581546314992, -8.0 ] ] } },
{ "type": "Feature", "properties": { "from_id": "clicked_017", "to_id": "clicked_018", "kind": "walk", "distance_2d_m": 7.6762804789411527, "distance_3d_m": 7.6762804789411527 }, "geometry": { "type": "LineString", "coordinates": [ [ 951705.537248778156936, 1944272.574959327001125, -8.0 ], [ 951707.617376439739019, 1944265.185889635700732, -8.0 ] ] } },
{ "type": "Feature", "properties": { "from_id": "clicked_017", "to_id": "clicked_019", "kind": "walk", "distance_2d_m": 7.0977517671177202, "distance_3d_m": 7.0977517671177202 }, "geometry": { "type": "LineString", "coordinates": [ [ 951705.537248778156936, 1944272.574959327001125, -8.0 ], [ 951711.509503534180112, 1944268.739564526360482, -8.0 ] ] } },
{ "type": "Feature", "properties": { "from_id": "clicked_022", "to_id": "clicked_045", "kind": "walk", "distance_2d_m": 19.708268903600942, "distance_3d_m": 19.708268903600942 }, "geometry": { "type": "LineString", "coordinates": [ [ 951694.845481204451062, 1944288.76581546314992, -8.0 ], [ 951682.70193980447948, 1944304.288388234563172, -8.0 ] ] } },
{ "type": "Feature", "properties": { "from_id": "clicked_022", "to_id": "clicked_023", "kind": "walk", "distance_2d_m": 25.773752851895139, "distance_3d_m": 25.773752851895139 }, "geometry": { "type": "LineString", "coordinates": [ [ 951694.845481204451062, 1944288.76581546314992, -8.0 ], [ 951680.738982921931893, 1944310.336467800894752, -8.0 ] ] } },
{ "type": "Feature", "properties": { "from_id": "clicked_022", "to_id": "clicked_024", "kind": "walk", "distance_2d_m": 27.375248318005603, "distance_3d_m": 27.375248318005603 }, "geometry": { "type": "LineString", "coordinates": [ [ 951694.845481204451062, 1944288.76581546314992, -8.0 ], [ 951680.993634788319468, 1944312.377900744555518, -8.0 ] ] } },
{ "type": "Feature", "properties": { "from_id": "clicked_045", "to_id": "clicked_023", "kind": "walk", "distance_2d_m": 6.3586528575963746, "distance_3d_m": 6.3586528575963746 }, "geometry": { "type": "LineString", "coordinates": [ [ 951682.70193980447948, 1944304.288388234563172, -8.0 ], [ 951680.738982921931893, 1944310.336467800894752, -8.0 ] ] } },
{ "type": "Feature", "properties": { "from_id": "clicked_023", "to_id": "clicked_024", "kind": "walk", "distance_2d_m": 2.0572544899739884, "distance_3d_m": 2.0572544899739884 }, "geometry": { "type": "LineString", "coordinates": [ [ 951680.738982921931893, 1944310.336467800894752, -8.0 ], [ 951680.993634788319468, 1944312.377900744555518, -8.0 ] ] } },
{ "type": "Feature", "properties": { "from_id": "clicked_024", "to_id": "clicked_025", "kind": "stairs", "distance_2d_m": 58.055130062369507, "distance_3d_m": 58.192766960840068 }, "geometry": { "type": "LineString", "coordinates": [ [ 951680.993634788319468, 1944312.377900744555518, -8.0 ], [ 951721.434788236976601, 1944270.725635088281706, -12.0 ] ] } },
{ "type": "Feature", "properties": { "from_id": "clicked_029", "to_id": "clicked_044", "kind": "stairs", "distance_2d_m": 17.329482795856208, "distance_3d_m": 17.444511284982344 }, "geometry": { "type": "LineString", "coordinates": [ [ 951704.286228493321687, 1944293.147235231474042, -16.0 ], [ 951713.343839878798462, 1944278.373249650001526, -14.0 ] ] } },
{ "type": "Feature", "properties": { "from_id": "clicked_029", "to_id": "clicked_034", "kind": "stairs", "distance_2d_m": 11.539276276703044, "distance_3d_m": 12.212898795539152 }, "geometry": { "type": "LineString", "coordinates": [ [ 951704.286228493321687, 1944293.147235231474042, -16.0 ], [ 951705.601241836324334, 1944304.611337328795344, -20.0 ] ] } },
{ "type": "Feature", "properties": { "from_id": "clicked_043", "to_id": "clicked_027", "kind": "stairs", "distance_2d_m": 1.3254398238676055, "distance_3d_m": 2.3993313082386494 }, "geometry": { "type": "LineString", "coordinates": [ [ 951723.306691285222769, 1944263.292906512040645, -14.0 ], [ 951724.613050817744806, 1944263.51699466095306, -12.0 ] ] } },
{ "type": "Feature", "properties": { "from_id": "clicked_043", "to_id": "clicked_045", "kind": "walk", "distance_2d_m": 57.700739722074644, "distance_3d_m": 58.011855378660343 }, "geometry": { "type": "LineString", "coordinates": [ [ 951723.306691285222769, 1944263.292906512040645, -14.0 ], [ 951682.70193980447948, 1944304.288388234563172, -8.0 ] ] } },
{ "type": "Feature", "properties": { "from_id": "clicked_027", "to_id": "clicked_028", "kind": "walk", "distance_2d_m": 23.938304996587654, "distance_3d_m": 24.270196664008587 }, "geometry": { "type": "LineString", "coordinates": [ [ 951724.613050817744806, 1944263.51699466095306, -12.0 ], [ 951711.850146104814485, 1944283.769172553671524, -16.0 ] ] } },
{ "type": "Feature", "properties": { "from_id": "clicked_028", "to_id": "clicked_029", "kind": "walk", "distance_2d_m": 12.048274117990653, "distance_3d_m": 12.048274117990653 }, "geometry": { "type": "LineString", "coordinates": [ [ 951711.850146104814485, 1944283.769172553671524, -16.0 ], [ 951704.286228493321687, 1944293.147235231474042, -16.0 ] ] } },
{ "type": "Feature", "properties": { "from_id": "clicked_028", "to_id": "clicked_031", "kind": "walk", "distance_2d_m": 1.8369488442412227, "distance_3d_m": 1.8369488442412227 }, "geometry": { "type": "LineString", "coordinates": [ [ 951711.850146104814485, 1944283.769172553671524, -16.0 ], [ 951712.42188433627598, 1944285.514880562201142, -16.0 ] ] } },
{ "type": "Feature", "properties": { "from_id": "clicked_028", "to_id": "clicked_044", "kind": "walk", "distance_2d_m": 5.5988485488347477, "distance_3d_m": 5.945343141719321 }, "geometry": { "type": "LineString", "coordinates": [ [ 951711.850146104814485, 1944283.769172553671524, -16.0 ], [ 951713.343839878798462, 1944278.373249650001526, -14.0 ] ] } },
{ "type": "Feature", "properties": { "from_id": "clicked_027", "to_id": "clicked_026", "kind": "stairs", "distance_2d_m": 1.1266887283760998, "distance_3d_m": 1.1266887283760998 }, "geometry": { "type": "LineString", "coordinates": [ [ 951724.613050817744806, 1944263.51699466095306, -12.0 ], [ 951725.707878134562634, 1944263.250948354834691, -12.0 ] ] } },
{ "type": "Feature", "properties": { "from_id": "clicked_028", "to_id": "clicked_032", "kind": "walk", "distance_2d_m": 19.151614038030171, "distance_3d_m": 19.151614038030171 }, "geometry": { "type": "LineString", "coordinates": [ [ 951711.850146104814485, 1944283.769172553671524, -16.0 ], [ 951703.15523497085087, 1944300.833252975251526, -16.0 ] ] } },
{ "type": "Feature", "properties": { "from_id": "clicked_026", "to_id": "clicked_025", "kind": "stairs", "distance_2d_m": 8.6098919294042613, "distance_3d_m": 8.6098919294042613 }, "geometry": { "type": "LineString", "coordinates": [ [ 951725.707878134562634, 1944263.250948354834691, -12.0 ], [ 951721.434788236976601, 1944270.725635088281706, -12.0 ] ] } },
{ "type": "Feature", "properties": { "from_id": "clicked_031", "to_id": "clicked_032", "kind": "stairs", "distance_2d_m": 17.903165190731961, "distance_3d_m": 17.903165190731961 }, "geometry": { "type": "LineString", "coordinates": [ [ 951712.42188433627598, 1944285.514880562201142, -16.0 ], [ 951703.15523497085087, 1944300.833252975251526, -16.0 ] ] } },
{ "type": "Feature", "properties": { "from_id": "clicked_031", "to_id": "clicked_036", "kind": "stairs", "distance_2d_m": 27.607009160636149, "distance_3d_m": 27.895285529914339 }, "geometry": { "type": "LineString", "coordinates": [ [ 951712.42188433627598, 1944285.514880562201142, -16.0 ], [ 951731.479067293694243, 1944265.540628823451698, -20.0 ] ] } },
{ "type": "Feature", "properties": { "from_id": "clicked_032", "to_id": "clicked_033", "kind": "walk", "distance_2d_m": 12.239372718161885, "distance_3d_m": 12.876422039296688 }, "geometry": { "type": "LineString", "coordinates": [ [ 951703.15523497085087, 1944300.833252975251526, -16.0 ], [ 951703.724545263452455, 1944313.059377885656431, -20.0 ] ] } },
{ "type": "Feature", "properties": { "from_id": "clicked_034", "to_id": "clicked_039", "kind": "walk", "distance_2d_m": 13.879185002817295, "distance_3d_m": 13.879185002817295 }, "geometry": { "type": "LineString", "coordinates": [ [ 951705.601241836324334, 1944304.611337328795344, -20.0 ], [ 951698.242508776253089, 1944316.379124890314415, -20.0 ] ] } },
{ "type": "Feature", "properties": { "from_id": "clicked_034", "to_id": "clicked_042", "kind": "platform_walk", "distance_2d_m": 98.176275270743659, "distance_3d_m": 98.257727563977539 }, "geometry": { "type": "LineString", "coordinates": [ [ 951705.601241836324334, 1944304.611337328795344, -20.0 ], [ 951655.618464133236557, 1944389.111650695791468, -24.0 ] ] } },
{ "type": "Feature", "properties": { "from_id": "clicked_040", "to_id": "clicked_033", "kind": "walk", "distance_2d_m": 11.285051691640785, "distance_3d_m": 11.285051691640785 }, "geometry": { "type": "LineString", "coordinates": [ [ 951698.429202265688218, 1944323.024905178230256, -20.0 ], [ 951703.724545263452455, 1944313.059377885656431, -20.0 ] ] } },
{ "type": "Feature", "properties": { "from_id": "clicked_034", "to_id": "clicked_035", "kind": "walk", "distance_2d_m": 51.068456282748379, "distance_3d_m": 51.068456282748379 }, "geometry": { "type": "LineString", "coordinates": [ [ 951705.601241836324334, 1944304.611337328795344, -20.0 ], [ 951731.385987126384862, 1944260.530342133250087, -20.0 ] ] } },
{ "type": "Feature", "properties": { "from_id": "clicked_036", "to_id": "clicked_033", "kind": "walk", "distance_2d_m": 55.030400739627183, "distance_3d_m": 55.030400739627183 }, "geometry": { "type": "LineString", "coordinates": [ [ 951731.479067293694243, 1944265.540628823451698, -20.0 ], [ 951703.724545263452455, 1944313.059377885656431, -20.0 ] ] } },
{ "type": "Feature", "properties": { "from_id": "clicked_035", "to_id": "clicked_038", "kind": "platform_walk", "distance_2d_m": 58.193004174739542, "distance_3d_m": 58.33031574474164 }, "geometry": { "type": "LineString", "coordinates": [ [ 951731.385987126384862, 1944260.530342133250087, -20.0 ], [ 951761.716528789605945, 1944210.866633277619258, -24.0 ] ] } },
{ "type": "Feature", "properties": { "from_id": "clicked_035", "to_id": "clicked_044", "kind": "stairs", "distance_2d_m": 25.374956669025753, "distance_3d_m": 26.074670198392432 }, "geometry": { "type": "LineString", "coordinates": [ [ 951731.385987126384862, 1944260.530342133250087, -20.0 ], [ 951713.343839878798462, 1944278.373249650001526, -14.0 ] ] } },
{ "type": "Feature", "properties": { "from_id": "clicked_036", "to_id": "clicked_037", "kind": "platform_walk", "distance_2d_m": 57.989740061896619, "distance_3d_m": 58.127531793861138 }, "geometry": { "type": "LineString", "coordinates": [ [ 951731.479067293694243, 1944265.540628823451698, -20.0 ], [ 951760.628158214385621, 1944215.409396533155814, -24.0 ] ] } },
{ "type": "Feature", "properties": { "from_id": "clicked_033", "to_id": "clicked_042", "kind": "platform_walk", "distance_2d_m": 89.989684082644274, "distance_3d_m": 90.078539293741429 }, "geometry": { "type": "LineString", "coordinates": [ [ 951703.724545263452455, 1944313.059377885656431, -20.0 ], [ 951655.618464133236557, 1944389.111650695791468, -24.0 ] ] } },
{ "type": "Feature", "properties": { "from_id": "clicked_033", "to_id": "clicked_041", "kind": "platform_walk", "distance_2d_m": 99.145252916159976, "distance_3d_m": 99.225909800864656 }, "geometry": { "type": "LineString", "coordinates": [ [ 951703.724545263452455, 1944313.059377885656431, -20.0 ], [ 951653.072658874676563, 1944398.289464011788368, -24.0 ] ] } }
]
}
