{
"type": "FeatureCollection",
"name": "숭실대입구(살피재)역_indoor_3d_nodes",
"crs": { "type": "name", "properties": { "name": "urn:ogc:def:crs:EPSG::5179" } },
"features": [
{ "type": "Feature", "properties": { "id": "clicked_001", "kind": "route_turn", "floor": "B1", "z_m": -4.0 }, "geometry": { "type": "Point", "coordinates": [ 951749.981421148055233, 1944185.797060703393072, -4.0 ] } },
{ "type": "Feature", "properties": { "id": "clicked_002", "kind": "route_turn", "floor": "B1", "z_m": -4.0 }, "geometry": { "type": "Point", "coordinates": [ 951744.364364646025933, 1944197.646941140759736, -4.0 ] } },
{ "type": "Feature", "properties": { "id": "clicked_003", "kind": "hall", "floor": "B1", "z_m": -4.0 }, "geometry": { "type": "Point", "coordinates": [ 951736.802041638758965, 1944210.06324501032941, -4.0 ] } },
{ "type": "Feature", "properties": { "id": "clicked_004", "kind": "hall", "floor": "B1", "z_m": -4.0 }, "geometry": { "type": "Point", "coordinates": [ 951730.301843590219505, 1944219.831727530574426, -4.0 ] } },
{ "type": "Feature", "properties": { "id": "clicked_005", "kind": "route_turn", "floor": "B1", "z_m": -4.0 }, "geometry": { "type": "Point", "coordinates": [ 951724.856277878512628, 1944225.648322935914621, -4.0 ] } },
{ "type": "Feature", "properties": { "id": "clicked_006", "kind": "route_turn", "floor": "B1", "z_m": -4.0 }, "geometry": { "type": "Point", "coordinates": [ 951718.371801699628122, 1944232.720524872420356, -4.0 ] } },
{ "type": "Feature", "properties": { "id": "clicked_007", "kind": "route_turn", "floor": "B1", "z_m": -4.0 }, "geometry": { "type": "Point", "coordinates": [ 951711.99109354254324, 1944239.565721478778869, -4.0 ] } },
{ "type": "Feature", "properties": { "id": "clicked_008", "kind": "hall", "floor": "B1", "z_m": -4.0 }, "geometry": { "type": "Point", "coordinates": [ 951739.233352785231546, 1944211.664764928864315, -4.0 ] } },
{ "type": "Feature", "properties": { "id": "clicked_009", "kind": "route_turn", "floor": "B1", "z_m": -4.0 }, "geometry": { "type": "Point", "coordinates": [ 951742.561556169413961, 1944214.161897468846291, -4.0 ] } },
{ "type": "Feature", "properties": { "id": "clicked_010", "kind": "route_turn", "floor": "B1", "z_m": -4.0 }, "geometry": { "type": "Point", "coordinates": [ 951749.138329632114619, 1944203.740904731908813, -4.0 ] } },
{ "type": "Feature", "properties": { "id": "clicked_011", "kind": "route_turn", "floor": "B1", "z_m": -4.0 }, "geometry": { "type": "Point", "coordinates": [ 951754.950548179447651, 1944191.250034432858229, -4.0 ] } },
{ "type": "Feature", "properties": { "id": "clicked_012", "kind": "stairs_start", "floor": "B1", "z_m": -4.0 }, "geometry": { "type": "Point", "coordinates": [ 951738.662928205099888, 1944220.291005721781403, -4.0 ] } },
{ "type": "Feature", "properties": { "id": "clicked_013", "kind": "route_turn", "floor": "B1", "z_m": -4.0 }, "geometry": { "type": "Point", "coordinates": [ 951725.499913552775979, 1944236.262164622778073, -4.0 ] } },
{ "type": "Feature", "properties": { "id": "clicked_014", "kind": "route_turn", "floor": "B1", "z_m": -4.0 }, "geometry": { "type": "Point", "coordinates": [ 951737.022165509872139, 1944216.744576383614913, -4.0 ] } },
{ "type": "Feature", "properties": { "id": "clicked_015", "kind": "route_turn", "floor": "B1", "z_m": -4.0 }, "geometry": { "type": "Point", "coordinates": [ 951731.078280271729454, 1944228.841029953444377, -4.0 ] } },
{ "type": "Feature", "properties": { "id": "clicked_016", "kind": "stairs_landing", "floor": "B1-B2", "z_m": -6.0 }, "geometry": { "type": "Point", "coordinates": [ 951723.035005553509109, 1944245.800257574999705, -6.0 ] } },
{ "type": "Feature", "properties": { "id": "clicked_017", "kind": "hall", "floor": "B2", "z_m": -8.0 }, "geometry": { "type": "Point", "coordinates": [ 951705.537248778156936, 1944272.574959327001125, -8.0 ] } },
{ "type": "Feature", "properties": { "id": "clicked_018", "kind": "information", "floor": "B2", "z_m": -8.0 }, "geometry": { "type": "Point", "coordinates": [ 951707.617376439739019, 1944265.185889635700732, -8.0 ] } },
{ "type": "Feature", "properties": { "id": "clicked_019", "kind": "route_turn", "floor": "B2", "z_m": -8.0 }, "geometry": { "type": "Point", "coordinates": [ 951711.509503534180112, 1944268.739564526360482, -8.0 ] } },
{ "type": "Feature", "properties": { "id": "clicked_020", "kind": "route_turn", "floor": "B2", "z_m": -8.0 }, "geometry": { "type": "Point", "coordinates": [ 951716.829592635622248, 1944261.222961150342599, -8.0 ] } },
{ "type": "Feature", "properties": { "id": "clicked_021", "kind": "route_turn", "floor": "B2", "z_m": -8.0 }, "geometry": { "type": "Point", "coordinates": [ 951717.266032730811276, 1944252.708681441610679, -8.0 ] } },
{ "type": "Feature", "properties": { "id": "clicked_022", "kind": "hall", "floor": "B2", "z_m": -8.0 }, "geometry": { "type": "Point", "coordinates": [ 951694.845481204451062, 1944288.76581546314992, -8.0 ] } },
{ "type": "Feature", "properties": { "id": "clicked_023", "kind": "route_turn", "floor": "B2", "z_m": -8.0 }, "geometry": { "type": "Point", "coordinates": [ 951680.738982921931893, 1944310.336467800894752, -8.0 ] } },
{ "type": "Feature", "properties": { "id": "clicked_024", "kind": "stairs_start", "floor": "B2", "z_m": -8.0 }, "geometry": { "type": "Point", "coordinates": [ 951680.993634788319468, 1944312.377900744555518, -8.0 ] } },
{ "type": "Feature", "properties": { "id": "clicked_045", "kind": "route_turn", "floor": "B2", "z_m": -8.0 }, "geometry": { "type": "Point", "coordinates": [ 951682.70193980447948, 1944304.288388234563172, -8.0 ] } },
{ "type": "Feature", "properties": { "id": "clicked_046", "kind": "route_turn", "floor": "B2", "z_m": -8.0 }, "geometry": { "type": "Point", "coordinates": [ 951716.743107960908674, 1944256.12644206918776, -8.0 ] } },
{ "type": "Feature", "properties": { "id": "clicked_025", "kind": "stairs_landing", "floor": "B3", "z_m": -12.0 }, "geometry": { "type": "Point", "coordinates": [ 951721.434788236976601, 1944270.725635088281706, -12.0 ] } },
{ "type": "Feature", "properties": { "id": "clicked_026", "kind": "stairs_landing", "floor": "B3", "z_m": -12.0 }, "geometry": { "type": "Point", "coordinates": [ 951725.707878134562634, 1944263.250948354834691, -12.0 ] } },
{ "type": "Feature", "properties": { "id": "clicked_027", "kind": "stairs_landing", "floor": "B3", "z_m": -12.0 }, "geometry": { "type": "Point", "coordinates": [ 951724.613050817744806, 1944263.51699466095306, -12.0 ] } },
{ "type": "Feature", "properties": { "id": "clicked_028", "kind": "elevator_landing", "floor": "B4", "z_m": -16.0 }, "geometry": { "type": "Point", "coordinates": [ 951711.850146104814485, 1944283.769172553671524, -16.0 ] } },
{ "type": "Feature", "properties": { "id": "clicked_029", "kind": "stairs_landing", "floor": "B4", "z_m": -16.0 }, "geometry": { "type": "Point", "coordinates": [ 951704.286228493321687, 1944293.147235231474042, -16.0 ] } },
{ "type": "Feature", "properties": { "id": "clicked_031", "kind": "stairs_landing", "floor": "B4", "z_m": -16.0 }, "geometry": { "type": "Point", "coordinates": [ 951712.42188433627598, 1944285.514880562201142, -16.0 ] } },
{ "type": "Feature", "properties": { "id": "clicked_032", "kind": "stairs_landing", "floor": "B4", "z_m": -16.0 }, "geometry": { "type": "Point", "coordinates": [ 951703.15523497085087, 1944300.833252975251526, -16.0 ] } },
{ "type": "Feature", "properties": { "id": "clicked_043", "kind": "stairs_landing", "floor": "B3-B4", "z_m": -14.0 }, "geometry": { "type": "Point", "coordinates": [ 951723.306691285222769, 1944263.292906512040645, -14.0 ] } },
{ "type": "Feature", "properties": { "id": "clicked_044", "kind": "stairs_landing", "floor": "B3-B4", "z_m": -14.0 }, "geometry": { "type": "Point", "coordinates": [ 951713.343839878798462, 1944278.373249650001526, -14.0 ] } },
{ "type": "Feature", "properties": { "id": "clicked_033", "kind": "elevator", "floor": "B5", "z_m": -20.0 }, "geometry": { "type": "Point", "coordinates": [ 951703.724545263452455, 1944313.059377885656431, -20.0 ] } },
{ "type": "Feature", "properties": { "id": "clicked_034", "kind": "route_turn", "floor": "B5", "z_m": -20.0 }, "geometry": { "type": "Point", "coordinates": [ 951705.601241836324334, 1944304.611337328795344, -20.0 ] } },
{ "type": "Feature", "properties": { "id": "clicked_035", "kind": "stairs_end", "floor": "B5", "z_m": -20.0 }, "geometry": { "type": "Point", "coordinates": [ 951731.385987126384862, 1944260.530342133250087, -20.0 ] } },
{ "type": "Feature", "properties": { "id": "clicked_036", "kind": "route_turn", "floor": "B5", "z_m": -20.0 }, "geometry": { "type": "Point", "coordinates": [ 951731.479067293694243, 1944265.540628823451698, -20.0 ] } },
{ "type": "Feature", "properties": { "id": "clicked_037", "kind": "platform", "floor": "B6", "z_m": -24.0 }, "geometry": { "type": "Point", "coordinates": [ 951760.628158214385621, 1944215.409396533155814, -24.0 ] } },
{ "type": "Feature", "properties": { "id": "clicked_038", "kind": "platform_turn", "floor": "B6", "z_m": -24.0 }, "geometry": { "type": "Point", "coordinates": [ 951761.716528789605945, 1944210.866633277619258, -24.0 ] } },
{ "type": "Feature", "properties": { "id": "clicked_039", "kind": "route_turn", "floor": "B5", "z_m": -20.0 }, "geometry": { "type": "Point", "coordinates": [ 951698.242508776253089, 1944316.379124890314415, -20.0 ] } },
{ "type": "Feature", "properties": { "id": "clicked_040", "kind": "route_turn", "floor": "B5", "z_m": -20.0 }, "geometry": { "type": "Point", "coordinates": [ 951698.429202265688218, 1944323.024905178230256, -20.0 ] } },
{ "type": "Feature", "properties": { "id": "clicked_041", "kind": "platform", "floor": "B6", "z_m": -24.0 }, "geometry": { "type": "Point", "coordinates": [ 951653.072658874676563, 1944398.289464011788368, -24.0 ] } },
{ "type": "Feature", "properties": { "id": "clicked_042", "kind": "platform_turn", "floor": "B6", "z_m": -24.0 }, "geometry": { "type": "Point", "coordinates": [ 951655.618464133236557, 1944389.111650695791468, -24.0 ] } }
]
}
