{
"type": "FeatureCollection",
"name": "숭실대입구(살피재)역_indoor_3d_nodes",
"crs": { "type": "name", "properties": { "name": "urn:ogc:def:crs:EPSG::5179" } },
"features": [
{ "type": "Feature", "properties": { "id": "exit_1_connection", "kind": "entrance_connection", "floor": "B1", "z_m": -4.0 }, "geometry": { "type": "Point", "coordinates": [ 951758.862841345602646, 1944204.191118801245466, -4.0 ] } },
{ "type": "Feature", "properties": { "id": "exit_2_connection", "kind": "entrance_connection", "floor": "B1", "z_m": -4.0 }, "geometry": { "type": "Point", "coordinates": [ 951731.39253775367979, 1944238.408840995281935, -4.0 ] } },
{ "type": "Feature", "properties": { "id": "exit_3_connection", "kind": "entrance_connection", "floor": "B2", "z_m": -8.0 }, "geometry": { "type": "Point", "coordinates": [ 951710.32166904443875, 1944224.513300509890541, -8.0 ] } },
{ "type": "Feature", "properties": { "id": "exit_4_connection", "kind": "entrance_connection", "floor": "B1", "z_m": -4.0 }, "geometry": { "type": "Point", "coordinates": [ 951735.735451856278814, 1944186.636739693814889, -4.0 ] } },
{ "type": "Feature", "properties": { "id": "b1_left_hall", "kind": "hall", "floor": "B1", "z_m": -4.0 }, "geometry": { "type": "Point", "coordinates": [ 951737.500057792523876, 1944206.087516995845363, -4.0 ] } },
{ "type": "Feature", "properties": { "id": "b1_center_hall", "kind": "hall", "floor": "B1", "z_m": -4.0 }, "geometry": { "type": "Point", "coordinates": [ 951725.697938629658893, 1944217.03433533757925, -4.0 ] } },
{ "type": "Feature", "properties": { "id": "b1_stairs_to_b2", "kind": "stairs_start", "floor": "B1", "z_m": -4.0 }, "geometry": { "type": "Point", "coordinates": [ 951715.96758127247449, 1944214.177972370060161, -4.0 ] } },
{ "type": "Feature", "properties": { "id": "b2_stairs_from_b1", "kind": "stairs_end", "floor": "B2", "z_m": -8.0 }, "geometry": { "type": "Point", "coordinates": [ 951697.355079073924571, 1944221.931193533819169, -8.0 ] } },
{ "type": "Feature", "properties": { "id": "b2_hall", "kind": "hall", "floor": "B2", "z_m": -8.0 }, "geometry": { "type": "Point", "coordinates": [ 951683.474362118984573, 1944238.459844790864736, -8.0 ] } },
{ "type": "Feature", "properties": { "id": "b2_information", "kind": "information", "floor": "B2", "z_m": -8.0 }, "geometry": { "type": "Point", "coordinates": [ 951694.946083057904616, 1944232.814400521572679, -8.0 ] } },
{ "type": "Feature", "properties": { "id": "b2_elevator", "kind": "elevator", "floor": "B2", "z_m": -8.0 }, "geometry": { "type": "Point", "coordinates": [ 951695.715177090838552, 1944240.60730708623305, -8.0 ] } },
{ "type": "Feature", "properties": { "id": "b2_stairs_to_b5", "kind": "stairs_start", "floor": "B2", "z_m": -8.0 }, "geometry": { "type": "Point", "coordinates": [ 951670.610600944375619, 1944247.696313809137791, -8.0 ] } },
{ "type": "Feature", "properties": { "id": "b5_stairs_from_b2", "kind": "stairs_end", "floor": "B5", "z_m": -20.0 }, "geometry": { "type": "Point", "coordinates": [ 951646.715902114403434, 1944211.073495336342603, -20.0 ] } },
{ "type": "Feature", "properties": { "id": "b5_hall", "kind": "hall", "floor": "B5", "z_m": -20.0 }, "geometry": { "type": "Point", "coordinates": [ 951636.207779581774957, 1944212.365656810579821, -20.0 ] } },
{ "type": "Feature", "properties": { "id": "b5_elevator", "kind": "elevator", "floor": "B5", "z_m": -20.0 }, "geometry": { "type": "Point", "coordinates": [ 951630.772094496409409, 1944229.4638968964573, -20.0 ] } },
{ "type": "Feature", "properties": { "id": "b5_stairs_to_platform", "kind": "stairs_start", "floor": "B5", "z_m": -20.0 }, "geometry": { "type": "Point", "coordinates": [ 951620.196942616603337, 1944217.252261026995257, -20.0 ] } },
{ "type": "Feature", "properties": { "id": "platform_west", "kind": "platform", "floor": "B6", "z_m": -24.0 }, "geometry": { "type": "Point", "coordinates": [ 951639.83348890079651, 1944165.991973020602018, -24.0 ] } },
{ "type": "Feature", "properties": { "id": "platform_center", "kind": "platform", "floor": "B6", "z_m": -24.0 }, "geometry": { "type": "Point", "coordinates": [ 951618.61748631275259, 1944196.774590532062575, -24.0 ] } },
{ "type": "Feature", "properties": { "id": "platform_east", "kind": "platform", "floor": "B6", "z_m": -24.0 }, "geometry": { "type": "Point", "coordinates": [ 951596.55143605300691, 1944234.254040344851092, -24.0 ] } }
]
}
