{
"type": "FeatureCollection",
"name": "숭실대입구(살피재)역_indoor_3d_edges",
"crs": { "type": "name", "properties": { "name": "urn:ogc:def:crs:EPSG::5179" } },
"features": [
{ "type": "Feature", "properties": { "from_id": "exit_1_connection", "to_id": "b1_left_hall", "kind": "walk", "distance_2d_m": 21.446791071117715, "distance_3d_m": 21.446791071117715 }, "geometry": { "type": "LineString", "coordinates": [ [ 951758.862841345602646, 1944204.191118801245466, -4.0 ], [ 951737.500057792523876, 1944206.087516995845363, -4.0 ] ] } },
{ "type": "Feature", "properties": { "from_id": "exit_2_connection", "to_id": "b1_center_hall", "kind": "walk", "distance_2d_m": 22.120080273237338, "distance_3d_m": 22.120080273237338 }, "geometry": { "type": "LineString", "coordinates": [ [ 951731.39253775367979, 1944238.408840995281935, -4.0 ], [ 951725.697938629658893, 1944217.03433533757925, -4.0 ] ] } },
{ "type": "Feature", "properties": { "from_id": "exit_4_connection", "to_id": "b1_left_hall", "kind": "walk", "distance_2d_m": 19.53065722814814, "distance_3d_m": 19.53065722814814 }, "geometry": { "type": "LineString", "coordinates": [ [ 951735.735451856278814, 1944186.636739693814889, -4.0 ], [ 951737.500057792523876, 1944206.087516995845363, -4.0 ] ] } },
{ "type": "Feature", "properties": { "from_id": "b1_left_hall", "to_id": "b1_center_hall", "kind": "walk", "distance_2d_m": 16.097293205423895, "distance_3d_m": 16.097293205423895 }, "geometry": { "type": "LineString", "coordinates": [ [ 951737.500057792523876, 1944206.087516995845363, -4.0 ], [ 951725.697938629658893, 1944217.03433533757925, -4.0 ] ] } },
{ "type": "Feature", "properties": { "from_id": "b1_center_hall", "to_id": "b1_stairs_to_b2", "kind": "walk", "distance_2d_m": 10.140939981122415, "distance_3d_m": 10.140939981122415 }, "geometry": { "type": "LineString", "coordinates": [ [ 951725.697938629658893, 1944217.03433533757925, -4.0 ], [ 951715.96758127247449, 1944214.177972370060161, -4.0 ] ] } },
{ "type": "Feature", "properties": { "from_id": "b1_stairs_to_b2", "to_id": "b2_stairs_from_b1", "kind": "stairs", "distance_2d_m": 20.162779483622444, "distance_3d_m": 20.555721259668466 }, "geometry": { "type": "LineString", "coordinates": [ [ 951715.96758127247449, 1944214.177972370060161, -4.0 ], [ 951697.355079073924571, 1944221.931193533819169, -8.0 ] ] } },
{ "type": "Feature", "properties": { "from_id": "b2_stairs_from_b1", "to_id": "b2_hall", "kind": "walk", "distance_2d_m": 21.584036127661406, "distance_3d_m": 21.584036127661406 }, "geometry": { "type": "LineString", "coordinates": [ [ 951697.355079073924571, 1944221.931193533819169, -8.0 ], [ 951683.474362118984573, 1944238.459844790864736, -8.0 ] ] } },
{ "type": "Feature", "properties": { "from_id": "exit_3_connection", "to_id": "b2_hall", "kind": "walk", "distance_2d_m": 30.253660712890827, "distance_3d_m": 30.253660712890827 }, "geometry": { "type": "LineString", "coordinates": [ [ 951710.32166904443875, 1944224.513300509890541, -8.0 ], [ 951683.474362118984573, 1944238.459844790864736, -8.0 ] ] } },
{ "type": "Feature", "properties": { "from_id": "b2_hall", "to_id": "b2_information", "kind": "walk", "distance_2d_m": 12.785594327137831, "distance_3d_m": 12.785594327137831 }, "geometry": { "type": "LineString", "coordinates": [ [ 951683.474362118984573, 1944238.459844790864736, -8.0 ], [ 951694.946083057904616, 1944232.814400521572679, -8.0 ] ] } },
{ "type": "Feature", "properties": { "from_id": "b2_hall", "to_id": "b2_elevator", "kind": "walk", "distance_2d_m": 12.427757057699232, "distance_3d_m": 12.427757057699232 }, "geometry": { "type": "LineString", "coordinates": [ [ 951683.474362118984573, 1944238.459844790864736, -8.0 ], [ 951695.715177090838552, 1944240.60730708623305, -8.0 ] ] } },
{ "type": "Feature", "properties": { "from_id": "b2_hall", "to_id": "b2_stairs_to_b5", "kind": "walk", "distance_2d_m": 15.836309907389875, "distance_3d_m": 15.836309907389875 }, "geometry": { "type": "LineString", "coordinates": [ [ 951683.474362118984573, 1944238.459844790864736, -8.0 ], [ 951670.610600944375619, 1944247.696313809137791, -8.0 ] ] } },
{ "type": "Feature", "properties": { "from_id": "b2_stairs_to_b5", "to_id": "b5_stairs_from_b2", "kind": "stairs", "distance_2d_m": 43.728565778749051, "distance_3d_m": 45.345203330301459 }, "geometry": { "type": "LineString", "coordinates": [ [ 951670.610600944375619, 1944247.696313809137791, -8.0 ], [ 951646.715902114403434, 1944211.073495336342603, -20.0 ] ] } },
{ "type": "Feature", "properties": { "from_id": "b5_stairs_from_b2", "to_id": "b5_hall", "kind": "walk", "distance_2d_m": 10.587271623805503, "distance_3d_m": 10.587271623805503 }, "geometry": { "type": "LineString", "coordinates": [ [ 951646.715902114403434, 1944211.073495336342603, -20.0 ], [ 951636.207779581774957, 1944212.365656810579821, -20.0 ] ] } },
{ "type": "Feature", "properties": { "from_id": "b5_hall", "to_id": "b5_elevator", "kind": "walk", "distance_2d_m": 17.941473918872244, "distance_3d_m": 17.941473918872244 }, "geometry": { "type": "LineString", "coordinates": [ [ 951636.207779581774957, 1944212.365656810579821, -20.0 ], [ 951630.772094496409409, 1944229.4638968964573, -20.0 ] ] } },
{ "type": "Feature", "properties": { "from_id": "b5_hall", "to_id": "b5_stairs_to_platform", "kind": "walk", "distance_2d_m": 16.739946269125092, "distance_3d_m": 16.739946269125092 }, "geometry": { "type": "LineString", "coordinates": [ [ 951636.207779581774957, 1944212.365656810579821, -20.0 ], [ 951620.196942616603337, 1944217.252261026995257, -20.0 ] ] } },
{ "type": "Feature", "properties": { "from_id": "b5_stairs_to_platform", "to_id": "platform_center", "kind": "stairs", "distance_2d_m": 20.538492425560605, "distance_3d_m": 20.924379826289005 }, "geometry": { "type": "LineString", "coordinates": [ [ 951620.196942616603337, 1944217.252261026995257, -20.0 ], [ 951618.61748631275259, 1944196.774590532062575, -24.0 ] ] } },
{ "type": "Feature", "properties": { "from_id": "platform_west", "to_id": "platform_center", "kind": "platform_walk", "distance_2d_m": 37.385669803719772, "distance_3d_m": 37.385669803719772 }, "geometry": { "type": "LineString", "coordinates": [ [ 951639.83348890079651, 1944165.991973020602018, -24.0 ], [ 951618.61748631275259, 1944196.774590532062575, -24.0 ] ] } },
{ "type": "Feature", "properties": { "from_id": "platform_center", "to_id": "platform_east", "kind": "platform_walk", "distance_2d_m": 43.492754940736461, "distance_3d_m": 43.492754940736461 }, "geometry": { "type": "LineString", "coordinates": [ [ 951618.61748631275259, 1944196.774590532062575, -24.0 ], [ 951596.55143605300691, 1944234.254040344851092, -24.0 ] ] } }
]
}
