{
"type": "FeatureCollection",
"name": "종각역_indoor_3d_edges",
"crs": { "type": "name", "properties": { "name": "urn:ogc:def:crs:EPSG::5179" } },
"features": [
{ "type": "Feature", "properties": { "from_id": "exit_1_connection", "to_id": "b1_west_hall", "kind": "walk", "distance_2d_m": 3.8524501251172882, "distance_3d_m": 3.8524501251172882 }, "geometry": { "type": "LineString", "coordinates": [ [ 954308.983039736631326, 1952441.456420736154541, -4.0 ], [ 954312.723611016874202, 1952442.37810314563103, -4.0 ] ] } },
{ "type": "Feature", "properties": { "from_id": "exit_2_connection", "to_id": "b1_west_hall", "kind": "walk", "distance_2d_m": 9.0158230601816935, "distance_3d_m": 9.0158230601816935 }, "geometry": { "type": "LineString", "coordinates": [ [ 954311.23071192286443, 1952433.486741171916947, -4.0 ], [ 954312.723611016874202, 1952442.37810314563103, -4.0 ] ] } },
{ "type": "Feature", "properties": { "from_id": "b1_west_hall", "to_id": "b1_center_hall", "kind": "walk", "distance_2d_m": 17.593929372577591, "distance_3d_m": 17.593929372577591 }, "geometry": { "type": "LineString", "coordinates": [ [ 954312.723611016874202, 1952442.37810314563103, -4.0 ], [ 954330.317145089735277, 1952442.260164202423766, -4.0 ] ] } },
{ "type": "Feature", "properties": { "from_id": "b1_center_hall", "to_id": "b1_east_hall", "kind": "walk", "distance_2d_m": 21.052841891951481, "distance_3d_m": 21.052841891951481 }, "geometry": { "type": "LineString", "coordinates": [ [ 954330.317145089735277, 1952442.260164202423766, -4.0 ], [ 954351.327608676045202, 1952443.595294014783576, -4.0 ] ] } },
{ "type": "Feature", "properties": { "from_id": "exit_3_connection", "to_id": "b1_east_hall", "kind": "walk", "distance_2d_m": 10.721003412185629, "distance_3d_m": 10.721003412185629 }, "geometry": { "type": "LineString", "coordinates": [ [ 954350.250307323294692, 1952432.928554308600724, -4.0 ], [ 954351.327608676045202, 1952443.595294014783576, -4.0 ] ] } },
{ "type": "Feature", "properties": { "from_id": "exit_4_connection", "to_id": "b1_east_hall", "kind": "walk", "distance_2d_m": 10.191888262392389, "distance_3d_m": 10.191888262392389 }, "geometry": { "type": "LineString", "coordinates": [ [ 954342.990486313006841, 1952449.457629475742579, -4.0 ], [ 954351.327608676045202, 1952443.595294014783576, -4.0 ] ] } },
{ "type": "Feature", "properties": { "from_id": "b1_west_hall", "to_id": "stairs_west_b1", "kind": "walk", "distance_2d_m": 16.059363266367246, "distance_3d_m": 16.059363266367246 }, "geometry": { "type": "LineString", "coordinates": [ [ 954312.723611016874202, 1952442.37810314563103, -4.0 ], [ 954321.275797639740631, 1952455.970867856638506, -4.0 ] ] } },
{ "type": "Feature", "properties": { "from_id": "stairs_west_b1", "to_id": "stairs_west_b2", "kind": "stairs", "distance_2d_m": 9.9073435534085093, "distance_3d_m": 10.856751645186748 }, "geometry": { "type": "LineString", "coordinates": [ [ 954321.275797639740631, 1952455.970867856638506, -4.0 ], [ 954314.878458563587628, 1952463.535886629251763, -8.44 ] ] } },
{ "type": "Feature", "properties": { "from_id": "b1_center_hall", "to_id": "stairs_center_b1", "kind": "walk", "distance_2d_m": 11.444875787185545, "distance_3d_m": 11.444875787185545 }, "geometry": { "type": "LineString", "coordinates": [ [ 954330.317145089735277, 1952442.260164202423766, -4.0 ], [ 954336.619400604628026, 1952451.813527861842886, -4.0 ] ] } },
{ "type": "Feature", "properties": { "from_id": "stairs_center_b1", "to_id": "stairs_center_b2", "kind": "stairs", "distance_2d_m": 11.952989759931659, "distance_3d_m": 12.750982871960542 }, "geometry": { "type": "LineString", "coordinates": [ [ 954336.619400604628026, 1952451.813527861842886, -4.0 ], [ 954329.839002120308578, 1952461.657315780874342, -8.44 ] ] } },
{ "type": "Feature", "properties": { "from_id": "b1_east_hall", "to_id": "stairs_east_b1", "kind": "walk", "distance_2d_m": 5.8218088822275522, "distance_3d_m": 5.8218088822275522 }, "geometry": { "type": "LineString", "coordinates": [ [ 954351.327608676045202, 1952443.595294014783576, -4.0 ], [ 954351.082075513782911, 1952449.411922946339473, -4.0 ] ] } },
{ "type": "Feature", "properties": { "from_id": "stairs_east_b1", "to_id": "stairs_east_b2", "kind": "stairs", "distance_2d_m": 9.8471609126360029, "distance_3d_m": 10.801859934258836 }, "geometry": { "type": "LineString", "coordinates": [ [ 954351.082075513782911, 1952449.411922946339473, -4.0 ], [ 954348.741957670426928, 1952458.976985754212365, -8.44 ] ] } },
{ "type": "Feature", "properties": { "from_id": "stairs_west_b2", "to_id": "platform_west", "kind": "walk", "distance_2d_m": 0.0, "distance_3d_m": 0.0 }, "geometry": { "type": "LineString", "coordinates": [ [ 954314.878458563587628, 1952463.535886629251763, -8.44 ], [ 954314.878458563587628, 1952463.535886629251763, -8.44 ] ] } },
{ "type": "Feature", "properties": { "from_id": "stairs_center_b2", "to_id": "platform_center", "kind": "walk", "distance_2d_m": 8.5879081299412103, "distance_3d_m": 8.5879081299412103 }, "geometry": { "type": "LineString", "coordinates": [ [ 954329.839002120308578, 1952461.657315780874342, -8.44 ], [ 954338.293518393766135, 1952460.149562276434153, -8.44 ] ] } },
{ "type": "Feature", "properties": { "from_id": "stairs_east_b2", "to_id": "platform_east", "kind": "walk", "distance_2d_m": 21.885427321615833, "distance_3d_m": 21.885427321615833 }, "geometry": { "type": "LineString", "coordinates": [ [ 954348.741957670426928, 1952458.976985754212365, -8.44 ], [ 954370.069778058095835, 1952454.068217419786379, -8.44 ] ] } },
{ "type": "Feature", "properties": { "from_id": "platform_west", "to_id": "platform_center", "kind": "platform_walk", "distance_2d_m": 23.658660559577854, "distance_3d_m": 23.658660559577854 }, "geometry": { "type": "LineString", "coordinates": [ [ 954314.878458563587628, 1952463.535886629251763, -8.44 ], [ 954338.293518393766135, 1952460.149562276434153, -8.44 ] ] } },
{ "type": "Feature", "properties": { "from_id": "platform_center", "to_id": "platform_east", "kind": "platform_walk", "distance_2d_m": 32.352950924457929, "distance_3d_m": 32.352950924457929 }, "geometry": { "type": "LineString", "coordinates": [ [ 954338.293518393766135, 1952460.149562276434153, -8.44 ], [ 954370.069778058095835, 1952454.068217419786379, -8.44 ] ] } },
{ "type": "Feature", "properties": { "from_id": "exit_5_connection", "to_id": "platform_east", "kind": "walk", "distance_2d_m": 13.894770571618373, "distance_3d_m": 13.894770571618373 }, "geometry": { "type": "LineString", "coordinates": [ [ 954360.933915520319715, 1952443.59918380016461, -8.44 ], [ 954370.069778058095835, 1952454.068217419786379, -8.44 ] ] } },
{ "type": "Feature", "properties": { "from_id": "exit_6_connection", "to_id": "platform_center", "kind": "walk", "distance_2d_m": 12.213261473919088, "distance_3d_m": 12.213261473919088 }, "geometry": { "type": "LineString", "coordinates": [ [ 954329.986539183882996, 1952451.196470506722108, -8.44 ], [ 954338.293518393766135, 1952460.149562276434153, -8.44 ] ] } }
]
}
