{
"type": "FeatureCollection",
"name": "서울대입구(관악구청)역_indoor_3d_edges",
"crs": { "type": "name", "properties": { "name": "urn:ogc:def:crs:EPSG::5179" } },
"features": [
{ "type": "Feature", "properties": { "from_id": "exit_1_connection", "to_id": "b1_west_hall", "kind": "walk", "distance_2d_m": 145.98521116957016, "distance_3d_m": 145.98521116957016 }, "geometry": { "type": "LineString", "coordinates": [ [ 951651.625, 1942552.625, -4.0 ], [ 951567.894743578857742, 1942672.211479335557669, -4.0 ] ] } },
{ "type": "Feature", "properties": { "from_id": "exit_2_connection", "to_id": "b1_center_hall", "kind": "walk", "distance_2d_m": 161.78480718283112, "distance_3d_m": 161.78480718283112 }, "geometry": { "type": "LineString", "coordinates": [ [ 951624.5625, 1942540.5, -4.0 ], [ 951547.966146380174905, 1942683.003762923413888, -4.0 ] ] } },
{ "type": "Feature", "properties": { "from_id": "exit_3_connection", "to_id": "b1_center_hall", "kind": "walk", "distance_2d_m": 12.934921218983224, "distance_3d_m": 12.934921218983224 }, "geometry": { "type": "LineString", "coordinates": [ [ 951536.856237992062233, 1942689.628121197922155, -4.0 ], [ 951547.966146380174905, 1942683.003762923413888, -4.0 ] ] } },
{ "type": "Feature", "properties": { "from_id": "exit_4_connection", "to_id": "b1_east_hall", "kind": "walk", "distance_2d_m": 106.28085606169773, "distance_3d_m": 106.28085606169773 }, "geometry": { "type": "LineString", "coordinates": [ [ 951585.493066197959706, 1942585.354907138505951, -4.0 ], [ 951535.323342404561117, 1942679.049192875158042, -4.0 ] ] } },
{ "type": "Feature", "properties": { "from_id": "exit_5_connection", "to_id": "b1_east_hall", "kind": "walk", "distance_2d_m": 79.375303737330412, "distance_3d_m": 79.375303737330412 }, "geometry": { "type": "LineString", "coordinates": [ [ 951585.75, 1942617.75, -4.0 ], [ 951535.323342404561117, 1942679.049192875158042, -4.0 ] ] } },
{ "type": "Feature", "properties": { "from_id": "exit_6_connection", "to_id": "b1_east_hall", "kind": "walk", "distance_2d_m": 4.7451525264278676, "distance_3d_m": 4.7451525264278676 }, "geometry": { "type": "LineString", "coordinates": [ [ 951539.642001601867378, 1942681.01531983865425, -4.0 ], [ 951535.323342404561117, 1942679.049192875158042, -4.0 ] ] } },
{ "type": "Feature", "properties": { "from_id": "exit_7_connection", "to_id": "b1_center_hall", "kind": "walk", "distance_2d_m": 37.20414758689315, "distance_3d_m": 37.20414758689315 }, "geometry": { "type": "LineString", "coordinates": [ [ 951526.636326627340168, 1942713.486338060349226, -4.0 ], [ 951547.966146380174905, 1942683.003762923413888, -4.0 ] ] } },
{ "type": "Feature", "properties": { "from_id": "exit_8_connection", "to_id": "b1_west_hall", "kind": "walk", "distance_2d_m": 57.614780513450292, "distance_3d_m": 57.614780513450292 }, "geometry": { "type": "LineString", "coordinates": [ [ 951533.427489039837383, 1942718.379339348291978, -4.0 ], [ 951567.894743578857742, 1942672.211479335557669, -4.0 ] ] } },
{ "type": "Feature", "properties": { "from_id": "b1_west_hall", "to_id": "b1_center_hall", "kind": "walk", "distance_2d_m": 22.663238324389127, "distance_3d_m": 22.663238324389127 }, "geometry": { "type": "LineString", "coordinates": [ [ 951567.894743578857742, 1942672.211479335557669, -4.0 ], [ 951547.966146380174905, 1942683.003762923413888, -4.0 ] ] } },
{ "type": "Feature", "properties": { "from_id": "b1_center_hall", "to_id": "b1_east_hall", "kind": "walk", "distance_2d_m": 13.246853084123718, "distance_3d_m": 13.246853084123718 }, "geometry": { "type": "LineString", "coordinates": [ [ 951547.966146380174905, 1942683.003762923413888, -4.0 ], [ 951535.323342404561117, 1942679.049192875158042, -4.0 ] ] } },
{ "type": "Feature", "properties": { "from_id": "b1_center_hall", "to_id": "b1_information", "kind": "walk", "distance_2d_m": 29.192316487566039, "distance_3d_m": 29.192316487566039 }, "geometry": { "type": "LineString", "coordinates": [ [ 951547.966146380174905, 1942683.003762923413888, -4.0 ], [ 951524.674875386292115, 1942700.602286651264876, -4.0 ] ] } },
{ "type": "Feature", "properties": { "from_id": "b1_center_hall", "to_id": "b1_elevator", "kind": "walk", "distance_2d_m": 43.230285181601175, "distance_3d_m": 43.230285181601175 }, "geometry": { "type": "LineString", "coordinates": [ [ 951547.966146380174905, 1942683.003762923413888, -4.0 ], [ 951517.455027152900584, 1942713.629392066039145, -4.0 ] ] } },
{ "type": "Feature", "properties": { "from_id": "b1_west_hall", "to_id": "b1_west_stairs_to_b2", "kind": "walk", "distance_2d_m": 73.686341767772134, "distance_3d_m": 73.686341767772134 }, "geometry": { "type": "LineString", "coordinates": [ [ 951567.894743578857742, 1942672.211479335557669, -4.0 ], [ 951525.268076567910612, 1942732.316755498759449, -4.0 ] ] } },
{ "type": "Feature", "properties": { "from_id": "b1_center_hall", "to_id": "b1_center_stairs_to_b2", "kind": "walk", "distance_2d_m": 61.113443444800026, "distance_3d_m": 61.113443444800026 }, "geometry": { "type": "LineString", "coordinates": [ [ 951547.966146380174905, 1942683.003762923413888, -4.0 ], [ 951514.850503791356459, 1942734.36724397377111, -4.0 ] ] } },
{ "type": "Feature", "properties": { "from_id": "b1_east_hall", "to_id": "b1_east_stairs_to_b2", "kind": "walk", "distance_2d_m": 41.25380847867148, "distance_3d_m": 41.25380847867148 }, "geometry": { "type": "LineString", "coordinates": [ [ 951535.323342404561117, 1942679.049192875158042, -4.0 ], [ 951511.669330579228699, 1942712.848075083922595, -4.0 ] ] } },
{ "type": "Feature", "properties": { "from_id": "b1_west_stairs_to_b2", "to_id": "b2_west_stairs_from_b1", "kind": "stairs", "distance_2d_m": 62.238234636199785, "distance_3d_m": 62.366640527053065 }, "geometry": { "type": "LineString", "coordinates": [ [ 951525.268076567910612, 1942732.316755498759449, -4.0 ], [ 951497.54250400478486, 1942788.038299596868455, -8.0 ] ] } },
{ "type": "Feature", "properties": { "from_id": "b1_center_stairs_to_b2", "to_id": "b2_center_stairs_from_b1", "kind": "stairs", "distance_2d_m": 42.504967878754805, "distance_3d_m": 42.692766300322795 }, "geometry": { "type": "LineString", "coordinates": [ [ 951514.850503791356459, 1942734.36724397377111, -4.0 ], [ 951490.636046333471313, 1942769.300499539123848, -8.0 ] ] } },
{ "type": "Feature", "properties": { "from_id": "b1_east_stairs_to_b2", "to_id": "b2_east_stairs_from_b1", "kind": "stairs", "distance_2d_m": 75.950170493115891, "distance_3d_m": 76.055429772852989 }, "geometry": { "type": "LineString", "coordinates": [ [ 951511.669330579228699, 1942712.848075083922595, -4.0 ], [ 951465.795415199361742, 1942773.379160367883742, -8.0 ] ] } },
{ "type": "Feature", "properties": { "from_id": "b1_elevator", "to_id": "b2_elevator", "kind": "elevator", "distance_2d_m": 93.234843773053754, "distance_3d_m": 93.320609156743828 }, "geometry": { "type": "LineString", "coordinates": [ [ 951517.455027152900584, 1942713.629392066039145, -4.0 ], [ 951466.009584553306922, 1942791.386080068536103, -8.0 ] ] } },
{ "type": "Feature", "properties": { "from_id": "b2_west_stairs_from_b1", "to_id": "platform_west", "kind": "walk", "distance_2d_m": 24.345686709924784, "distance_3d_m": 24.345686709924784 }, "geometry": { "type": "LineString", "coordinates": [ [ 951497.54250400478486, 1942788.038299596868455, -8.0 ], [ 951520.355695519247092, 1942779.537078843219206, -8.0 ] ] } },
{ "type": "Feature", "properties": { "from_id": "b2_center_stairs_from_b1", "to_id": "platform_center", "kind": "walk", "distance_2d_m": 29.292264434090086, "distance_3d_m": 29.292264434090086 }, "geometry": { "type": "LineString", "coordinates": [ [ 951490.636046333471313, 1942769.300499539123848, -8.0 ], [ 951472.438136301701888, 1942792.254210048587993, -8.0 ] ] } },
{ "type": "Feature", "properties": { "from_id": "b2_east_stairs_from_b1", "to_id": "platform_east", "kind": "walk", "distance_2d_m": 28.734717732093646, "distance_3d_m": 28.734717732093646 }, "geometry": { "type": "LineString", "coordinates": [ [ 951465.795415199361742, 1942773.379160367883742, -8.0 ], [ 951438.103118854924105, 1942781.048627514624968, -8.0 ] ] } },
{ "type": "Feature", "properties": { "from_id": "b2_elevator", "to_id": "platform_center", "kind": "walk", "distance_2d_m": 6.4869042881837613, "distance_3d_m": 6.4869042881837613 }, "geometry": { "type": "LineString", "coordinates": [ [ 951466.009584553306922, 1942791.386080068536103, -8.0 ], [ 951472.438136301701888, 1942792.254210048587993, -8.0 ] ] } },
{ "type": "Feature", "properties": { "from_id": "platform_west", "to_id": "platform_center", "kind": "platform", "distance_2d_m": 49.576384574326475, "distance_3d_m": 49.576384574326475 }, "geometry": { "type": "LineString", "coordinates": [ [ 951520.355695519247092, 1942779.537078843219206, -8.0 ], [ 951472.438136301701888, 1942792.254210048587993, -8.0 ] ] } },
{ "type": "Feature", "properties": { "from_id": "platform_center", "to_id": "platform_east", "kind": "platform", "distance_2d_m": 36.117288145651138, "distance_3d_m": 36.117288145651138 }, "geometry": { "type": "LineString", "coordinates": [ [ 951472.438136301701888, 1942792.254210048587993, -8.0 ], [ 951438.103118854924105, 1942781.048627514624968, -8.0 ] ] } }
]
}
