{
"type": "FeatureCollection",
"name": "숭실대입구(살피재)역_indoor_3d_edges",
"crs": { "type": "name", "properties": { "name": "urn:ogc:def:crs:EPSG::5179" } },
"features": [
{ "type": "Feature", "properties": { "from_id": "exit_1_connection", "to_id": "b1_left_hall", "kind": "walk", "distance_2d_m": 22.77490461134553, "distance_3d_m": 22.77490461134553 }, "geometry": { "type": "LineString", "coordinates": [ [ 951749.0625, 1944183.375, -4.0 ], [ 951740.525102569721639, 1944204.489192505832762, -4.0 ] ] } },
{ "type": "Feature", "properties": { "from_id": "exit_2_connection", "to_id": "b1_center_hall", "kind": "walk", "distance_2d_m": 22.902265161795921, "distance_3d_m": 22.902265161795921 }, "geometry": { "type": "LineString", "coordinates": [ [ 951709.125, 1944239.875, -4.0 ], [ 951726.787763943662867, 1944225.296230524778366, -4.0 ] ] } },
{ "type": "Feature", "properties": { "from_id": "exit_4_connection", "to_id": "b1_left_hall", "kind": "walk", "distance_2d_m": 23.713596984067568, "distance_3d_m": 23.713596984067568 }, "geometry": { "type": "LineString", "coordinates": [ [ 951757.6875, 1944188.125, -4.0 ], [ 951740.525102569721639, 1944204.489192505832762, -4.0 ] ] } },
{ "type": "Feature", "properties": { "from_id": "b1_left_hall", "to_id": "b1_center_hall", "kind": "walk", "distance_2d_m": 24.932855906390952, "distance_3d_m": 24.932855906390952 }, "geometry": { "type": "LineString", "coordinates": [ [ 951740.525102569721639, 1944204.489192505832762, -4.0 ], [ 951726.787763943662867, 1944225.296230524778366, -4.0 ] ] } },
{ "type": "Feature", "properties": { "from_id": "b1_center_hall", "to_id": "b1_stairs_to_b2", "kind": "walk", "distance_2d_m": 6.2015033480244481, "distance_3d_m": 6.2015033480244481 }, "geometry": { "type": "LineString", "coordinates": [ [ 951726.787763943662867, 1944225.296230524778366, -4.0 ], [ 951726.289175065583549, 1944231.477658588439226, -4.0 ] ] } },
{ "type": "Feature", "properties": { "from_id": "b1_stairs_to_b2", "to_id": "b2_stairs_from_b1", "kind": "stairs", "distance_2d_m": 27.320428940793168, "distance_3d_m": 27.611697476050416 }, "geometry": { "type": "LineString", "coordinates": [ [ 951726.289175065583549, 1944231.477658588439226, -4.0 ], [ 951713.291284093866125, 1944255.508069899864495, -8.0 ] ] } },
{ "type": "Feature", "properties": { "from_id": "b2_stairs_from_b1", "to_id": "b2_hall", "kind": "walk", "distance_2d_m": 33.987134949653928, "distance_3d_m": 33.987134949653928 }, "geometry": { "type": "LineString", "coordinates": [ [ 951713.291284093866125, 1944255.508069899864495, -8.0 ], [ 951693.804862201795913, 1944283.354159462498501, -8.0 ] ] } },
{ "type": "Feature", "properties": { "from_id": "exit_3_connection", "to_id": "b2_hall", "kind": "walk", "distance_2d_m": 42.861972282986571, "distance_3d_m": 42.861972282986571 }, "geometry": { "type": "LineString", "coordinates": [ [ 951715.071325139724649, 1944246.140099994372576, -8.0 ], [ 951693.804862201795913, 1944283.354159462498501, -8.0 ] ] } },
{ "type": "Feature", "properties": { "from_id": "b2_hall", "to_id": "b2_information", "kind": "walk", "distance_2d_m": 17.921456738260957, "distance_3d_m": 17.921456738260957 }, "geometry": { "type": "LineString", "coordinates": [ [ 951693.804862201795913, 1944283.354159462498501, -8.0 ], [ 951702.60591968765948, 1944267.74262530496344, -8.0 ] ] } },
{ "type": "Feature", "properties": { "from_id": "b2_hall", "to_id": "b2_elevator", "kind": "walk", "distance_2d_m": 9.3167914165885595, "distance_3d_m": 9.3167914165885595 }, "geometry": { "type": "LineString", "coordinates": [ [ 951693.804862201795913, 1944283.354159462498501, -8.0 ], [ 951695.749643842573278, 1944274.242604893166572, -8.0 ] ] } },
{ "type": "Feature", "properties": { "from_id": "b2_hall", "to_id": "b2_stairs_to_b5", "kind": "walk", "distance_2d_m": 23.75507005241932, "distance_3d_m": 23.75507005241932 }, "geometry": { "type": "LineString", "coordinates": [ [ 951693.804862201795913, 1944283.354159462498501, -8.0 ], [ 951681.287716215942055, 1944303.543869949877262, -8.0 ] ] } },
{ "type": "Feature", "properties": { "from_id": "b2_stairs_to_b5", "to_id": "b5_stairs_from_b2", "kind": "stairs", "distance_2d_m": 28.485152289413897, "distance_3d_m": 30.909608553831632 }, "geometry": { "type": "LineString", "coordinates": [ [ 951681.287716215942055, 1944303.543869949877262, -8.0 ], [ 951707.044584516086616, 1944291.378853044006974, -20.0 ] ] } },
{ "type": "Feature", "properties": { "from_id": "b5_stairs_from_b2", "to_id": "b5_hall", "kind": "walk", "distance_2d_m": 11.634529649800598, "distance_3d_m": 11.634529649800598 }, "geometry": { "type": "LineString", "coordinates": [ [ 951707.044584516086616, 1944291.378853044006974, -20.0 ], [ 951702.517672792659141, 1944302.096565039595589, -20.0 ] ] } },
{ "type": "Feature", "properties": { "from_id": "b5_hall", "to_id": "b5_elevator", "kind": "walk", "distance_2d_m": 26.999758385959332, "distance_3d_m": 26.999758385959332 }, "geometry": { "type": "LineString", "coordinates": [ [ 951702.517672792659141, 1944302.096565039595589, -20.0 ], [ 951685.204011566354893, 1944322.814289042027667, -20.0 ] ] } },
{ "type": "Feature", "properties": { "from_id": "b5_hall", "to_id": "b5_stairs_to_platform", "kind": "walk", "distance_2d_m": 21.290141385424569, "distance_3d_m": 21.290141385424569 }, "geometry": { "type": "LineString", "coordinates": [ [ 951702.517672792659141, 1944302.096565039595589, -20.0 ], [ 951692.961302662733942, 1944321.121441127266735, -20.0 ] ] } },
{ "type": "Feature", "properties": { "from_id": "b5_stairs_to_platform", "to_id": "platform_center", "kind": "stairs", "distance_2d_m": 25.204113840441913, "distance_3d_m": 25.519548477235162 }, "geometry": { "type": "LineString", "coordinates": [ [ 951692.961302662733942, 1944321.121441127266735, -20.0 ], [ 951711.118489658460021, 1944303.6410545501858, -24.0 ] ] } },
{ "type": "Feature", "properties": { "from_id": "platform_west", "to_id": "platform_center", "kind": "platform_walk", "distance_2d_m": 59.019914579801096, "distance_3d_m": 59.019914579801096 }, "geometry": { "type": "LineString", "coordinates": [ [ 951745.932166643906385, 1944255.982286083512008, -24.0 ], [ 951711.118489658460021, 1944303.6410545501858, -24.0 ] ] } },
{ "type": "Feature", "properties": { "from_id": "platform_center", "to_id": "platform_east", "kind": "platform_walk", "distance_2d_m": 68.403805963473403, "distance_3d_m": 68.403805963473403 }, "geometry": { "type": "LineString", "coordinates": [ [ 951711.118489658460021, 1944303.6410545501858, -24.0 ], [ 951669.931260716402903, 1944358.255089764250442, -24.0 ] ] } }
]
}
